"Longitude (x)","Latitude (y)","Station Name","Climate ID","Date/Time","Year","Month","Day","Time","Temp (°C)","Temp Flag","Dew Point Temp (°C)","Dew Point Temp Flag","Rel Hum (%)","Rel Hum Flag","Wind Dir (10s deg)","Wind Dir Flag","Wind Spd (km/h)","Wind Spd Flag","Visibility (km)","Visibility Flag","Stn Press (kPa)","Stn Press Flag","Hmdx","Hmdx Flag","Wind Chill","Wind Chill Flag","Weather"
"-73.74","45.47","MONTREAL/PIERRE ELLIOTT TRUDEAU INTL","702S006","2016-12-01 00:00","2016","12","01","00:00","7.9","","5.6","","86","","12","","27","","","","99.56","","","","","","NA"
"-73.74","45.47","MONTREAL/PIERRE ELLIOTT TRUDEAU INTL","702S006","2016-12-01 01:00","2016","12","01","01:00","7.0","","5.3","","89","","11","","23","","","","99.32","","","","","","NA"
"-73.74","45.47","MONTREAL/PIERRE ELLIOTT TRUDEAU INTL","702S006","2016-12-01 02:00","2016","12","01","02:00","6.9","","4.9","","88","","8","","11","","","","99.28","","","","","","NA"
"-73.74","45.47","MONTREAL/PIERRE ELLIOTT TRUDEAU INTL","702S006","2016-12-01 03:00","2016","12","01","03:00","6.5","","5.3","","92","","8","","12","","","","99.24","","","","","","NA"
"-73.74","45.47","MONTREAL/PIERRE ELLIOTT TRUDEAU INTL","702S006","2016-12-01 04:00","2016","12","01","04:00","6.3","","5.6","","95","","7","","14","","","","99.23","","","","","","NA"
"-73.74","45.47","MONTREAL/PIERRE ELLIOTT TRUDEAU INTL","702S006","2016-12-01 05:00","2016","12","01","05:00","6.1","","5.5","","96","","9","","22","","","","98.91","","","","","","NA"
"-73.74","45.47","MONTREAL/PIERRE ELLIOTT TRUDEAU INTL","702S006","2016-12-01 06:00","2016","12","01","06:00","7.1","","6.7","","97","","15","","23","","","","99.07","","","","","","NA"
"-73.74","45.47","MONTREAL/PIERRE ELLIOTT TRUDEAU INTL","702S006","2016-12-01 07:00","2016","12","01","07:00","8.5","","7.4","","93","","19","","25","","","","99.08","","","","","","NA"
"-73.74","45.47","MONTREAL/PIERRE ELLIOTT TRUDEAU INTL","702S006","2016-12-01 08:00","2016","12","01","08:00","8.6","","7.3","","91","","20","","24","","","","99.12","","","","","","NA"
"-73.74","45.47","MONTREAL/PIERRE ELLIOTT TRUDEAU INTL","702S006","2016-12-01 09:00","2016","12","01","09:00","8.1","","6.2","","88","","24","","23","","","","99.16","","","","","","NA"
"-73.74","45.47","MONTREAL/PIERRE ELLIOTT TRUDEAU INTL","702S006","2016-12-01 10:00","2016","12","01","10:00","7.6","","6.5","","92","","23","","20","","","","99.22","","","","","","NA"
"-73.74","45.47","MONTREAL/PIERRE ELLIOTT TRUDEAU INTL","702S006","2016-12-01 11:00","2016","12","01","11:00","7.5","","5.2","","85","","23","","30","","","","99.21","","","","","","NA"
"-73.74","45.47","MONTREAL/PIERRE ELLIOTT TRUDEAU INTL","702S006","2016-12-01 12:00","2016","12","01","12:00","6.9","","4.7","","86","","23","","27","","","","99.26","","","","","","NA"
"-73.74","45.47","MONTREAL/PIERRE ELLIOTT TRUDEAU INTL","702S006","2016-12-01 13:00","2016","12","01","13:00","7.2","","4.5","","83","","24","","22","","","","99.27","","","","","","NA"
"-73.74","45.47","MONTREAL/PIERRE ELLIOTT TRUDEAU INTL","702S006","2016-12-01 14:00","2016","12","01","14:00","7.2","","3.9","","80","","24","","27","","","","99.28","","","","","","NA"
"-73.74","45.47","MONTREAL/PIERRE ELLIOTT TRUDEAU INTL","702S006","2016-12-01 15:00","2016","12","01","15:00","6.8","","3.7","","81","","24","","24","","","","99.34","","","","","","NA"
"-73.74","45.47","MONTREAL/PIERRE ELLIOTT TRUDEAU INTL","702S006","2016-12-01 16:00","2016","12","01","16:00","6.4","","2.9","","79","","24","","25","","","","99.39","","","","","","NA"
"-73.74","45.47","MONTREAL/PIERRE ELLIOTT TRUDEAU INTL","702S006","2016-12-01 17:00","2016","12","01","17:00","5.6","","3.1","","84","","24","","25","","","","99.49","","","","","","NA"
"-73.74","45.47","MONTREAL/PIERRE ELLIOTT TRUDEAU INTL","702S006","2016-12-01 18:00","2016","12","01","18:00","5.1","","3.2","","88","","24","","25","","","","99.55","","","","","","NA"
"-73.74","45.47","MONTREAL/PIERRE ELLIOTT TRUDEAU INTL","702S006","2016-12-01 19:00","2016","12","01","19:00","4.9","","3.0","","87","","24","","22","","","","99.60","","","","","","NA"
"-73.74","45.47","MONTREAL/PIERRE ELLIOTT TRUDEAU INTL","702S006","2016-12-01 20:00","2016","12","01","20:00","5.1","","2.8","","85","","25","","30","","","","99.63","","","","","","NA"
"-73.74","45.47","MONTREAL/PIERRE ELLIOTT TRUDEAU INTL","702S006","2016-12-01 21:00","2016","12","01","21:00","5.2","","2.7","","84","","25","","28","","","","99.67","","","","","","NA"
"-73.74","45.47","MONTREAL/PIERRE ELLIOTT TRUDEAU INTL","702S006","2016-12-01 22:00","2016","12","01","22:00","5.2","","2.6","","83","","25","","24","","","","99.73","","","","","","NA"
"-73.74","45.47","MONTREAL/PIERRE ELLIOTT TRUDEAU INTL","702S006","2016-12-01 23:00","2016","12","01","23:00","4.9","","2.2","","83","","25","","23","","","","99.77","","","","","","NA"
"-73.74","45.47","MONTREAL/PIERRE ELLIOTT TRUDEAU INTL","702S006","2016-12-02 00:00","2016","12","02","00:00","5.3","","2.2","","80","","25","","23","","","","99.77","","","","","","NA"
"-73.74","45.47","MONTREAL/PIERRE ELLIOTT TRUDEAU INTL","702S006","2016-12-02 01:00","2016","12","02","01:00","4.9","","2.1","","82","","24","","20","","","","99.80","","","","","","NA"
"-73.74","45.47","MONTREAL/PIERRE ELLIOTT TRUDEAU INTL","702S006","2016-12-02 02:00","2016","12","02","02:00","5.3","","2.1","","80","","23","","20","","","","99.86","","","","","","NA"
"-73.74","45.47","MONTREAL/PIERRE ELLIOTT TRUDEAU INTL","702S006","2016-12-02 03:00","2016","12","02","03:00","5.1","","3.0","","86","","23","","18","","","","99.89","","","","","","NA"
"-73.74","45.47","MONTREAL/PIERRE ELLIOTT TRUDEAU INTL","702S006","2016-12-02 04:00","2016","12","02","04:00","5.0","","2.7","","85","","21","","14","","","","99.88","","","","","","NA"
"-73.74","45.47","MONTREAL/PIERRE ELLIOTT TRUDEAU INTL","702S006","2016-12-02 05:00","2016","12","02","05:00","5.1","","2.5","","83","","23","","18","","","","99.90","","","","","","NA"
"-73.74","45.47","MONTREAL/PIERRE ELLIOTT TRUDEAU INTL","702S006","2016-12-02 06:00","2016","12","02","06:00","5.4","","2.6","","83","","23","","15","","","","99.90","","","","","","NA"
"-73.74","45.47","MONTREAL/PIERRE ELLIOTT TRUDEAU INTL","702S006","2016-12-02 07:00","2016","12","02","07:00","5.3","","2.7","","84","","23","","16","","","","99.92","","","","","","NA"
"-73.74","45.47","MONTREAL/PIERRE ELLIOTT TRUDEAU INTL","702S006","2016-12-02 08:00","2016","12","02","08:00","5.3","","3.1","","86","","24","","17","","","","99.94","","","","","","NA"
"-73.74","45.47","MONTREAL/PIERRE ELLIOTT TRUDEAU INTL","702S006","2016-12-02 09:00","2016","12","02","09:00","5.4","","3.7","","89","","23","","16","","","","99.93","","","","","","NA"
"-73.74","45.47","MONTREAL/PIERRE ELLIOTT TRUDEAU INTL","702S006","2016-12-02 10:00","2016","12","02","10:00","5.6","","3.8","","88","","23","","18","","","","99.95","","","","","","NA"
"-73.74","45.47","MONTREAL/PIERRE ELLIOTT TRUDEAU INTL","702S006","2016-12-02 11:00","2016","12","02","11:00","5.9","","3.4","","85","","24","","18","","","","99.91","","","","","","NA"
"-73.74","45.47","MONTREAL/PIERRE ELLIOTT TRUDEAU INTL","702S006","2016-12-02 12:00","2016","12","02","12:00","5.0","","2.6","","84","","27","","19","","","","99.92","","","","","","NA"
"-73.74","45.47","MONTREAL/PIERRE ELLIOTT TRUDEAU INTL","702S006","2016-12-02 13:00","2016","12","02","13:00","3.9","","2.1","","88","","30","","16","","","","99.94","","","","","","NA"
"-73.74","45.47","MONTREAL/PIERRE ELLIOTT TRUDEAU INTL","702S006","2016-12-02 14:00","2016","12","02","14:00","4.6","","1.0","","78","","27","","20","","","","99.97","","","","","","NA"
"-73.74","45.47","MONTREAL/PIERRE ELLIOTT TRUDEAU INTL","702S006","2016-12-02 15:00","2016","12","02","15:00","3.1","","1.6","","89","","30","","15","","","","100.04","","","","","","NA"
"-73.74","45.47","MONTREAL/PIERRE ELLIOTT TRUDEAU INTL","702S006","2016-12-02 16:00","2016","12","02","16:00","3.6","","-0.5","","75","","27","","22","","","","100.08","","","","","","NA"
"-73.74","45.47","MONTREAL/PIERRE ELLIOTT TRUDEAU INTL","702S006","2016-12-02 17:00","2016","12","02","17:00","3.3","","0.0","","79","","27","","20","","","","100.14","","","","","","NA"
"-73.74","45.47","MONTREAL/PIERRE ELLIOTT TRUDEAU INTL","702S006","2016-12-02 18:00","2016","12","02","18:00","3.2","","-0.1","","79","","27","","19","","","","100.17","","","","","","NA"
"-73.74","45.47","MONTREAL/PIERRE ELLIOTT TRUDEAU INTL","702S006","2016-12-02 19:00","2016","12","02","19:00","2.8","","-0.4","","80","","27","","20","","","","100.20","","","","","","NA"
"-73.74","45.47","MONTREAL/PIERRE ELLIOTT TRUDEAU INTL","702S006","2016-12-02 20:00","2016","12","02","20:00","2.6","","-0.1","","82","","27","","20","","","","100.23","","","","","","NA"
"-73.74","45.47","MONTREAL/PIERRE ELLIOTT TRUDEAU INTL","702S006","2016-12-02 21:00","2016","12","02","21:00","2.5","","0.0","","83","","27","","20","","","","100.24","","","","","","NA"
"-73.74","45.47","MONTREAL/PIERRE ELLIOTT TRUDEAU INTL","702S006","2016-12-02 22:00","2016","12","02","22:00","2.5","","0.0","","84","","28","","19","","","","100.26","","","","","","NA"
"-73.74","45.47","MONTREAL/PIERRE ELLIOTT TRUDEAU INTL","702S006","2016-12-02 23:00","2016","12","02","23:00","2.3","","-0.1","","84","","28","","19","","","","100.31","","","","","","NA"
"-73.74","45.47","MONTREAL/PIERRE ELLIOTT TRUDEAU INTL","702S006","2016-12-03 00:00","2016","12","03","00:00","2.0","","-0.4","","84","","28","","18","","","","100.34","","","","","","NA"
"-73.74","45.47","MONTREAL/PIERRE ELLIOTT TRUDEAU INTL","702S006","2016-12-03 01:00","2016","12","03","01:00","2.2","","-0.3","","84","","27","","18","","","","100.40","","","","","","NA"
"-73.74","45.47","MONTREAL/PIERRE ELLIOTT TRUDEAU INTL","702S006","2016-12-03 02:00","2016","12","03","02:00","2.3","","-0.5","","82","","28","","16","","","","100.47","","","","","","NA"
"-73.74","45.47","MONTREAL/PIERRE ELLIOTT TRUDEAU INTL","702S006","2016-12-03 03:00","2016","12","03","03:00","2.3","","-0.4","","82","","27","","16","","","","100.56","","","","","","NA"
"-73.74","45.47","MONTREAL/PIERRE ELLIOTT TRUDEAU INTL","702S006","2016-12-03 04:00","2016","12","03","04:00","2.0","","-0.6","","83","","28","","17","","","","100.59","","","","","","NA"
"-73.74","45.47","MONTREAL/PIERRE ELLIOTT TRUDEAU INTL","702S006","2016-12-03 05:00","2016","12","03","05:00","1.9","","-0.6","","84","","28","","18","","","","100.67","","","","","","NA"
"-73.74","45.47","MONTREAL/PIERRE ELLIOTT TRUDEAU INTL","702S006","2016-12-03 06:00","2016","12","03","06:00","2.1","","-0.6","","82","","28","","16","","","","100.74","","","","","","NA"
"-73.74","45.47","MONTREAL/PIERRE ELLIOTT TRUDEAU INTL","702S006","2016-12-03 07:00","2016","12","03","07:00","2.0","","-0.8","","82","","28","","17","","","","100.83","","","","","","NA"
"-73.74","45.47","MONTREAL/PIERRE ELLIOTT TRUDEAU INTL","702S006","2016-12-03 08:00","2016","12","03","08:00","1.5","","-0.7","","85","","28","","15","","","","100.91","","","","","","NA"
"-73.74","45.47","MONTREAL/PIERRE ELLIOTT TRUDEAU INTL","702S006","2016-12-03 09:00","2016","12","03","09:00","2.0","","-1.4","","78","","29","","23","","","","100.97","","","","","","NA"
"-73.74","45.47","MONTREAL/PIERRE ELLIOTT TRUDEAU INTL","702S006","2016-12-03 10:00","2016","12","03","10:00","2.4","","-0.6","","80","","29","","17","","","","101.05","","","","","","NA"
"-73.74","45.47","MONTREAL/PIERRE ELLIOTT TRUDEAU INTL","702S006","2016-12-03 11:00","2016","12","03","11:00","2.6","","-0.5","","80","","29","","21","","","","101.07","","","","","","NA"
"-73.74","45.47","MONTREAL/PIERRE ELLIOTT TRUDEAU INTL","702S006","2016-12-03 12:00","2016","12","03","12:00","2.9","","-1.9","","71","","29","","25","","","","101.05","","","","","","NA"
"-73.74","45.47","MONTREAL/PIERRE ELLIOTT TRUDEAU INTL","702S006","2016-12-03 13:00","2016","12","03","13:00","3.4","","-2.0","","67","","30","","24","","","","101.07","","","","","","NA"
"-73.74","45.47","MONTREAL/PIERRE ELLIOTT TRUDEAU INTL","702S006","2016-12-03 14:00","2016","12","03","14:00","2.2","","-3.3","","67","","30","","26","","","","101.13","","","","","","NA"
"-73.74","45.47","MONTREAL/PIERRE ELLIOTT TRUDEAU INTL","702S006","2016-12-03 15:00","2016","12","03","15:00","1.6","","-3.8","","67","","30","","26","","","","101.22","","","","","","NA"
"-73.74","45.47","MONTREAL/PIERRE ELLIOTT TRUDEAU INTL","702S006","2016-12-03 16:00","2016","12","03","16:00","1.3","","-4.1","","67","","30","","22","","","","101.30","","","","","","NA"
"-73.74","45.47","MONTREAL/PIERRE ELLIOTT TRUDEAU INTL","702S006","2016-12-03 17:00","2016","12","03","17:00","0.6","","-4.4","","69","","30","","23","","","","101.39","","","","","","NA"
"-73.74","45.47","MONTREAL/PIERRE ELLIOTT TRUDEAU INTL","702S006","2016-12-03 18:00","2016","12","03","18:00","-0.1","","-4.4","","73","","30","","17","","","","101.49","","","","-5","","NA"
"-73.74","45.47","MONTREAL/PIERRE ELLIOTT TRUDEAU INTL","702S006","2016-12-03 19:00","2016","12","03","19:00","0.5","","-5.0","","67","","30","","20","","","","101.55","","","","","","NA"
"-73.74","45.47","MONTREAL/PIERRE ELLIOTT TRUDEAU INTL","702S006","2016-12-03 20:00","2016","12","03","20:00","0.5","","-5.2","","66","","31","","16","","","","101.59","","","","","","NA"
"-73.74","45.47","MONTREAL/PIERRE ELLIOTT TRUDEAU INTL","702S006","2016-12-03 21:00","2016","12","03","21:00","0.2","","-5.2","","67","","30","","18","","","","101.62","","","","","","NA"
"-73.74","45.47","MONTREAL/PIERRE ELLIOTT TRUDEAU INTL","702S006","2016-12-03 22:00","2016","12","03","22:00","0.0","","-5.5","","66","","31","","15","","","","101.65","","","","-4","","NA"
"-73.74","45.47","MONTREAL/PIERRE ELLIOTT TRUDEAU INTL","702S006","2016-12-03 23:00","2016","12","03","23:00","-0.2","","-5.3","","68","","31","","17","","","","101.70","","","","-5","","NA"
"-73.74","45.47","MONTREAL/PIERRE ELLIOTT TRUDEAU INTL","702S006","2016-12-04 00:00","2016","12","04","00:00","-0.4","","-5.3","","69","","32","","14","","","","101.72","","","","-5","","NA"
"-73.74","45.47","MONTREAL/PIERRE ELLIOTT TRUDEAU INTL","702S006","2016-12-04 01:00","2016","12","04","01:00","-0.3","","-5.4","","68","","31","","13","","","","101.73","","","","-4","","NA"
"-73.74","45.47","MONTREAL/PIERRE ELLIOTT TRUDEAU INTL","702S006","2016-12-04 02:00","2016","12","04","02:00","-0.4","","-5.1","","71","","30","","13","","","","101.79","","","","-5","","NA"
"-73.74","45.47","MONTREAL/PIERRE ELLIOTT TRUDEAU INTL","702S006","2016-12-04 03:00","2016","12","04","03:00","-0.5","","-5.1","","71","","32","","11","","","","101.83","","","","-4","","NA"
"-73.74","45.47","MONTREAL/PIERRE ELLIOTT TRUDEAU INTL","702S006","2016-12-04 04:00","2016","12","04","04:00","-0.8","","-5.7","","69","","33","","9","","","","101.87","","","","-4","","NA"
"-73.74","45.47","MONTREAL/PIERRE ELLIOTT TRUDEAU INTL","702S006","2016-12-04 05:00","2016","12","04","05:00","-1.0","","-5.2","","73","","29","","14","","","","101.91","","","","-5","","NA"
"-73.74","45.47","MONTREAL/PIERRE ELLIOTT TRUDEAU INTL","702S006","2016-12-04 06:00","2016","12","04","06:00","-1.3","","-5.3","","74","","31","","14","","","","101.94","","","","-6","","NA"
"-73.74","45.47","MONTREAL/PIERRE ELLIOTT TRUDEAU INTL","702S006","2016-12-04 07:00","2016","12","04","07:00","-2.3","","-5.8","","77","","30","","12","","","","101.96","","","","-7","","NA"
"-73.74","45.47","MONTREAL/PIERRE ELLIOTT TRUDEAU INTL","702S006","2016-12-04 08:00","2016","12","04","08:00","-2.6","","-5.9","","78","","28","","10","","","","102.03","","","","-6","","NA"
"-73.74","45.47","MONTREAL/PIERRE ELLIOTT TRUDEAU INTL","702S006","2016-12-04 09:00","2016","12","04","09:00","-1.7","","-6.0","","73","","31","","13","","","","102.05","","","","-6","","NA"
"-73.74","45.47","MONTREAL/PIERRE ELLIOTT TRUDEAU INTL","702S006","2016-12-04 10:00","2016","12","04","10:00","-0.9","","-5.8","","69","","31","","11","","","","102.11","","","","-5","","NA"
"-73.74","45.47","MONTREAL/PIERRE ELLIOTT TRUDEAU INTL","702S006","2016-12-04 11:00","2016","12","04","11:00","-0.4","","-6.5","","64","","31","","11","","","","102.08","","","","-4","","NA"
"-73.74","45.47","MONTREAL/PIERRE ELLIOTT TRUDEAU INTL","702S006","2016-12-04 12:00","2016","12","04","12:00","0.4","","-6.8","","59","","29","","9","","","","102.05","","","","","","NA"
"-73.74","45.47","MONTREAL/PIERRE ELLIOTT TRUDEAU INTL","702S006","2016-12-04 13:00","2016","12","04","13:00","1.2","","-6.1","","58","","30","","9","","","","102.03","","","","","","NA"
"-73.74","45.47","MONTREAL/PIERRE ELLIOTT TRUDEAU INTL","702S006","2016-12-04 14:00","2016","12","04","14:00","1.0","","-6.8","","56","","33","","6","","","","101.96","","","","","","NA"
"-73.74","45.47","MONTREAL/PIERRE ELLIOTT TRUDEAU INTL","702S006","2016-12-04 15:00","2016","12","04","15:00","1.1","","-6.7","","56","","30","","8","","","","101.99","","","","","","NA"
"-73.74","45.47","MONTREAL/PIERRE ELLIOTT TRUDEAU INTL","702S006","2016-12-04 16:00","2016","12","04","16:00","0.6","","-6.3","","60","","26","","4","","","","102.00","","","","","","NA"
"-73.74","45.47","MONTREAL/PIERRE ELLIOTT TRUDEAU INTL","702S006","2016-12-04 17:00","2016","12","04","17:00","-0.1","","-6.0","","64","","26","","4","","","","101.96","","","","-1","","NA"
"-73.74","45.47","MONTREAL/PIERRE ELLIOTT TRUDEAU INTL","702S006","2016-12-04 18:00","2016","12","04","18:00","-1.4","","-5.6","","73","","28","","5","","","","101.95","","","","-3","","NA"
"-73.74","45.47","MONTREAL/PIERRE ELLIOTT TRUDEAU INTL","702S006","2016-12-04 19:00","2016","12","04","19:00","-2.0","","-5.7","","76","","29","","3","","","","101.94","","","","-3","","NA"
"-73.74","45.47","MONTREAL/PIERRE ELLIOTT TRUDEAU INTL","702S006","2016-12-04 20:00","2016","12","04","20:00","-1.2","","-5.3","","73","","9","","7","","","","101.90","","","","-4","","NA"
"-73.74","45.47","MONTREAL/PIERRE ELLIOTT TRUDEAU INTL","702S006","2016-12-04 21:00","2016","12","04","21:00","-2.0","","-5.4","","77","","11","","11","","","","101.77","","","","-6","","NA"
"-73.74","45.47","MONTREAL/PIERRE ELLIOTT TRUDEAU INTL","702S006","2016-12-04 22:00","2016","12","04","22:00","-2.4","","-5.7","","78","","12","","14","","","","101.72","","","","-7","","NA"
"-73.74","45.47","MONTREAL/PIERRE ELLIOTT TRUDEAU INTL","702S006","2016-12-04 23:00","2016","12","04","23:00","-2.8","","-5.7","","81","","11","","7","","","","101.71","","","","-6","","NA"
"-73.74","45.47","MONTREAL/PIERRE ELLIOTT TRUDEAU INTL","702S006","2016-12-05 00:00","2016","12","05","00:00","-3.1","","-5.7","","82","","11","","7","","","","101.63","","","","-6","","NA"
"-73.74","45.47","MONTREAL/PIERRE ELLIOTT TRUDEAU INTL","702S006","2016-12-05 01:00","2016","12","05","01:00","-2.8","","-5.5","","82","","7","","8","","","","101.51","","","","-6","","NA"
"-73.74","45.47","MONTREAL/PIERRE ELLIOTT TRUDEAU INTL","702S006","2016-12-05 02:00","2016","12","05","02:00","-2.7","","-6.2","","77","","7","","8","","","","101.45","","","","-6","","NA"
"-73.74","45.47","MONTREAL/PIERRE ELLIOTT TRUDEAU INTL","702S006","2016-12-05 03:00","2016","12","05","03:00","-2.7","","-7.2","","72","","7","","8","","","","101.35","","","","-6","","NA"
"-73.74","45.47","MONTREAL/PIERRE ELLIOTT TRUDEAU INTL","702S006","2016-12-05 04:00","2016","12","05","04:00","-2.8","","-6.6","","75","","4","","8","","","","101.30","","","","-6","","NA"
"-73.74","45.47","MONTREAL/PIERRE ELLIOTT TRUDEAU INTL","702S006","2016-12-05 05:00","2016","12","05","05:00","-3.2","","-6.5","","78","","4","","11","","","","101.23","","","","-7","","NA"
"-73.74","45.47","MONTREAL/PIERRE ELLIOTT TRUDEAU INTL","702S006","2016-12-05 06:00","2016","12","05","06:00","-3.2","","-6.6","","78","","4","","11","","","","101.20","","","","-7","","NA"
"-73.74","45.47","MONTREAL/PIERRE ELLIOTT TRUDEAU INTL","702S006","2016-12-05 07:00","2016","12","05","07:00","-3.7","","-5.6","","87","","4","","16","","","","101.08","","","","-9","","NA"
"-73.74","45.47","MONTREAL/PIERRE ELLIOTT TRUDEAU INTL","702S006","2016-12-05 08:00","2016","12","05","08:00","-3.3","","-5.0","","88","","4","","16","","","","100.93","","","","-9","","NA"
"-73.74","45.47","MONTREAL/PIERRE ELLIOTT TRUDEAU INTL","702S006","2016-12-05 09:00","2016","12","05","09:00","-3.7","","-4.4","","95","","4","","14","","","","100.91","","","","-9","","NA"
"-73.74","45.47","MONTREAL/PIERRE ELLIOTT TRUDEAU INTL","702S006","2016-12-05 10:00","2016","12","05","10:00","-2.9","","-3.8","","94","","6","","9","","","","100.83","","","","-6","","NA"
"-73.74","45.47","MONTREAL/PIERRE ELLIOTT TRUDEAU INTL","702S006","2016-12-05 11:00","2016","12","05","11:00","-2.4","","-3.4","","93","","5","","8","","","","100.73","","","","-6","","NA"
"-73.74","45.47","MONTREAL/PIERRE ELLIOTT TRUDEAU INTL","702S006","2016-12-05 12:00","2016","12","05","12:00","-2.4","","-3.2","","94","","4","","11","","","","100.65","","","","-6","","NA"
"-73.74","45.47","MONTREAL/PIERRE ELLIOTT TRUDEAU INTL","702S006","2016-12-05 13:00","2016","12","05","13:00","-2.5","","-3.5","","93","","2","","15","","","","100.64","","","","-7","","NA"
"-73.74","45.47","MONTREAL/PIERRE ELLIOTT TRUDEAU INTL","702S006","2016-12-05 14:00","2016","12","05","14:00","-3.1","","-3.9","","94","","2","","17","","","","100.67","","","","-9","","NA"
"-73.74","45.47","MONTREAL/PIERRE ELLIOTT TRUDEAU INTL","702S006","2016-12-05 15:00","2016","12","05","15:00","-3.2","","-4.2","","93","","1","","14","","","","100.79","","","","-8","","NA"
"-73.74","45.47","MONTREAL/PIERRE ELLIOTT TRUDEAU INTL","702S006","2016-12-05 16:00","2016","12","05","16:00","-3.6","","-4.4","","95","","34","","11","","","","100.88","","","","-8","","NA"
"-73.74","45.47","MONTREAL/PIERRE ELLIOTT TRUDEAU INTL","702S006","2016-12-05 17:00","2016","12","05","17:00","-3.6","","-4.7","","92","","33","","9","","","","100.99","","","","-7","","NA"
"-73.74","45.47","MONTREAL/PIERRE ELLIOTT TRUDEAU INTL","702S006","2016-12-05 18:00","2016","12","05","18:00","-3.9","","-5.1","","91","","33","","7","","","","101.04","","","","-7","","NA"
"-73.74","45.47","MONTREAL/PIERRE ELLIOTT TRUDEAU INTL","702S006","2016-12-05 19:00","2016","12","05","19:00","-3.2","","-4.5","","91","","26","","6","","","","101.12","","","","-6","","NA"
"-73.74","45.47","MONTREAL/PIERRE ELLIOTT TRUDEAU INTL","702S006","2016-12-05 20:00","2016","12","05","20:00","-2.8","","-4.1","","91","","25","","8","","","","101.16","","","","-6","","NA"
"-73.74","45.47","MONTREAL/PIERRE ELLIOTT TRUDEAU INTL","702S006","2016-12-05 21:00","2016","12","05","21:00","-2.4","","-3.7","","91","","26","","7","","","","101.20","","","","-5","","NA"
"-73.74","45.47","MONTREAL/PIERRE ELLIOTT TRUDEAU INTL","702S006","2016-12-05 22:00","2016","12","05","22:00","-2.2","","-3.5","","91","","28","","8","","","","101.24","","","","-5","","NA"
"-73.74","45.47","MONTREAL/PIERRE ELLIOTT TRUDEAU INTL","702S006","2016-12-05 23:00","2016","12","05","23:00","-3.8","","-4.4","","96","","31","","3","","","","101.29","","","","-5","","NA"
"-73.74","45.47","MONTREAL/PIERRE ELLIOTT TRUDEAU INTL","702S006","2016-12-06 00:00","2016","12","06","00:00","-2.7","","-3.5","","95","","26","","3","","","","101.35","","","","-4","","NA"
"-73.74","45.47","MONTREAL/PIERRE ELLIOTT TRUDEAU INTL","702S006","2016-12-06 01:00","2016","12","06","01:00","-4.3","","-4.7","","97","","20","","2","","","","101.41","","","","-5","","NA"
"-73.74","45.47","MONTREAL/PIERRE ELLIOTT TRUDEAU INTL","702S006","2016-12-06 02:00","2016","12","06","02:00","-3.7","","-3.9","","99","","30","","5","","","","101.49","","","","-6","","NA"
"-73.74","45.47","MONTREAL/PIERRE ELLIOTT TRUDEAU INTL","702S006","2016-12-06 03:00","2016","12","06","03:00","-2.6","","-3.2","","96","","","","0","","","","101.52","","","","","","NA"
"-73.74","45.47","MONTREAL/PIERRE ELLIOTT TRUDEAU INTL","702S006","2016-12-06 04:00","2016","12","06","04:00","-2.2","","-3.1","","93","","24","","5","","","","101.56","","","","-4","","NA"
"-73.74","45.47","MONTREAL/PIERRE ELLIOTT TRUDEAU INTL","702S006","2016-12-06 05:00","2016","12","06","05:00","-3.3","","-4.0","","95","","30","","10","","","","101.59","","","","-7","","NA"
"-73.74","45.47","MONTREAL/PIERRE ELLIOTT TRUDEAU INTL","702S006","2016-12-06 06:00","2016","12","06","06:00","-2.4","","-3.0","","95","","24","","4","","","","101.61","","","","-4","","NA"
"-73.74","45.47","MONTREAL/PIERRE ELLIOTT TRUDEAU INTL","702S006","2016-12-06 07:00","2016","12","06","07:00","-1.7","","-3.0","","91","","23","","6","","","","101.62","","","","-4","","NA"
"-73.74","45.47","MONTREAL/PIERRE ELLIOTT TRUDEAU INTL","702S006","2016-12-06 08:00","2016","12","06","08:00","-1.3","","-2.9","","89","","23","","6","","","","101.61","","","","-4","","NA"
"-73.74","45.47","MONTREAL/PIERRE ELLIOTT TRUDEAU INTL","702S006","2016-12-06 09:00","2016","12","06","09:00","-2.7","","-4.0","","91","","28","","7","","","","101.68","","","","-6","","NA"
"-73.74","45.47","MONTREAL/PIERRE ELLIOTT TRUDEAU INTL","702S006","2016-12-06 10:00","2016","12","06","10:00","-0.6","","-2.8","","85","","1","","5","","","","101.67","","","","-2","","NA"
"-73.74","45.47","MONTREAL/PIERRE ELLIOTT TRUDEAU INTL","702S006","2016-12-06 11:00","2016","12","06","11:00","1.7","","-2.5","","74","","17","","3","","","","101.63","","","","","","NA"
"-73.74","45.47","MONTREAL/PIERRE ELLIOTT TRUDEAU INTL","702S006","2016-12-06 12:00","2016","12","06","12:00","1.3","","-3.1","","73","","16","","2","","","","101.56","","","","","","NA"
"-73.74","45.47","MONTREAL/PIERRE ELLIOTT TRUDEAU INTL","702S006","2016-12-06 13:00","2016","12","06","13:00","1.1","","-2.4","","77","","20","","6","","","","101.48","","","","","","NA"
"-73.74","45.47","MONTREAL/PIERRE ELLIOTT TRUDEAU INTL","702S006","2016-12-06 14:00","2016","12","06","14:00","0.9","","-2.7","","77","","16","","9","","","","101.46","","","","","","NA"
"-73.74","45.47","MONTREAL/PIERRE ELLIOTT TRUDEAU INTL","702S006","2016-12-06 15:00","2016","12","06","15:00","0.6","","-2.3","","81","","12","","11","","","","101.43","","","","","","NA"
"-73.74","45.47","MONTREAL/PIERRE ELLIOTT TRUDEAU INTL","702S006","2016-12-06 16:00","2016","12","06","16:00","0.6","","-2.5","","80","","10","","8","","","","101.40","","","","","","NA"
"-73.74","45.47","MONTREAL/PIERRE ELLIOTT TRUDEAU INTL","702S006","2016-12-06 17:00","2016","12","06","17:00","0.2","","-3.5","","76","","8","","11","","","","101.32","","","","","","NA"
"-73.74","45.47","MONTREAL/PIERRE ELLIOTT TRUDEAU INTL","702S006","2016-12-06 18:00","2016","12","06","18:00","0.2","","-3.3","","78","","7","","9","","","","101.34","","","","","","NA"
"-73.74","45.47","MONTREAL/PIERRE ELLIOTT TRUDEAU INTL","702S006","2016-12-06 19:00","2016","12","06","19:00","-0.2","","-4.2","","74","","6","","10","","","","101.29","","","","-4","","NA"
"-73.74","45.47","MONTREAL/PIERRE ELLIOTT TRUDEAU INTL","702S006","2016-12-06 20:00","2016","12","06","20:00","-0.3","","-4.0","","76","","7","","12","","","","101.24","","","","-4","","NA"
"-73.74","45.47","MONTREAL/PIERRE ELLIOTT TRUDEAU INTL","702S006","2016-12-06 21:00","2016","12","06","21:00","-0.3","","-4.1","","76","","7","","9","","","","101.25","","","","-3","","NA"
"-73.74","45.47","MONTREAL/PIERRE ELLIOTT TRUDEAU INTL","702S006","2016-12-06 22:00","2016","12","06","22:00","-0.4","","-4.1","","76","","5","","9","","","","101.18","","","","-4","","NA"
"-73.74","45.47","MONTREAL/PIERRE ELLIOTT TRUDEAU INTL","702S006","2016-12-06 23:00","2016","12","06","23:00","-0.5","","-3.7","","79","","5","","10","","","","101.10","","","","-4","","NA"
"-73.74","45.47","MONTREAL/PIERRE ELLIOTT TRUDEAU INTL","702S006","2016-12-07 00:00","2016","12","07","00:00","-0.8","","-3.6","","81","","4","","14","","","","101.00","","","","-5","","NA"
"-73.74","45.47","MONTREAL/PIERRE ELLIOTT TRUDEAU INTL","702S006","2016-12-07 01:00","2016","12","07","01:00","-0.9","","-3.9","","80","","4","","10","","","","100.93","","","","-4","","NA"
"-73.74","45.47","MONTREAL/PIERRE ELLIOTT TRUDEAU INTL","702S006","2016-12-07 02:00","2016","12","07","02:00","-1.0","","-4.0","","80","","4","","10","","","","100.96","","","","-5","","NA"
"-73.74","45.47","MONTREAL/PIERRE ELLIOTT TRUDEAU INTL","702S006","2016-12-07 03:00","2016","12","07","03:00","-1.1","","-3.9","","81","","4","","12","","","","100.88","","","","-5","","NA"
"-73.74","45.47","MONTREAL/PIERRE ELLIOTT TRUDEAU INTL","702S006","2016-12-07 04:00","2016","12","07","04:00","-1.1","","-3.5","","84","","6","","6","","","","100.87","","","","-3","","NA"
"-73.74","45.47","MONTREAL/PIERRE ELLIOTT TRUDEAU INTL","702S006","2016-12-07 05:00","2016","12","07","05:00","-1.2","","-3.2","","87","","5","","8","","","","100.80","","","","-4","","NA"
"-73.74","45.47","MONTREAL/PIERRE ELLIOTT TRUDEAU INTL","702S006","2016-12-07 06:00","2016","12","07","06:00","-1.4","","-3.0","","89","","8","","10","","","","100.77","","","","-5","","NA"
"-73.74","45.47","MONTREAL/PIERRE ELLIOTT TRUDEAU INTL","702S006","2016-12-07 07:00","2016","12","07","07:00","-1.5","","-2.1","","96","","7","","5","","","","100.77","","","","-3","","NA"
"-73.74","45.47","MONTREAL/PIERRE ELLIOTT TRUDEAU INTL","702S006","2016-12-07 08:00","2016","12","07","08:00","-0.8","","-1.2","","97","","4","","8","","","","100.73","","","","-4","","NA"
"-73.74","45.47","MONTREAL/PIERRE ELLIOTT TRUDEAU INTL","702S006","2016-12-07 09:00","2016","12","07","09:00","0.2","","-0.1","","98","","11","","8","","","","100.70","","","","","","NA"
"-73.74","45.47","MONTREAL/PIERRE ELLIOTT TRUDEAU INTL","702S006","2016-12-07 10:00","2016","12","07","10:00","0.8","","0.5","","98","","14","","10","","","","100.67","","","","","","NA"
"-73.74","45.47","MONTREAL/PIERRE ELLIOTT TRUDEAU INTL","702S006","2016-12-07 11:00","2016","12","07","11:00","1.4","","0.9","","96","","16","","13","","","","100.61","","","","","","NA"
"-73.74","45.47","MONTREAL/PIERRE ELLIOTT TRUDEAU INTL","702S006","2016-12-07 12:00","2016","12","07","12:00","1.8","","1.4","","97","","19","","11","","","","100.60","","","","","","NA"
"-73.74","45.47","MONTREAL/PIERRE ELLIOTT TRUDEAU INTL","702S006","2016-12-07 13:00","2016","12","07","13:00","2.7","","1.5","","92","","23","","15","","","","100.61","","","","","","NA"
"-73.74","45.47","MONTREAL/PIERRE ELLIOTT TRUDEAU INTL","702S006","2016-12-07 14:00","2016","12","07","14:00","3.0","","1.9","","93","","25","","15","","","","100.64","","","","","","NA"
"-73.74","45.47","MONTREAL/PIERRE ELLIOTT TRUDEAU INTL","702S006","2016-12-07 15:00","2016","12","07","15:00","3.3","","1.8","","90","","26","","8","","","","100.70","","","","","","NA"
"-73.74","45.47","MONTREAL/PIERRE ELLIOTT TRUDEAU INTL","702S006","2016-12-07 16:00","2016","12","07","16:00","1.7","","1.1","","96","","31","","5","","","","100.78","","","","","","NA"
"-73.74","45.47","MONTREAL/PIERRE ELLIOTT TRUDEAU INTL","702S006","2016-12-07 17:00","2016","12","07","17:00","3.5","","-0.7","","74","","24","","14","","","","100.86","","","","","","NA"
"-73.74","45.47","MONTREAL/PIERRE ELLIOTT TRUDEAU INTL","702S006","2016-12-07 18:00","2016","12","07","18:00","3.0","","-1.4","","73","","24","","13","","","","100.84","","","","","","NA"
"-73.74","45.47","MONTREAL/PIERRE ELLIOTT TRUDEAU INTL","702S006","2016-12-07 19:00","2016","12","07","19:00","3.4","","-0.9","","73","","22","","17","","","","100.85","","","","","","NA"
"-73.74","45.47","MONTREAL/PIERRE ELLIOTT TRUDEAU INTL","702S006","2016-12-07 20:00","2016","12","07","20:00","3.1","","-1.1","","74","","23","","21","","","","100.86","","","","","","NA"
"-73.74","45.47","MONTREAL/PIERRE ELLIOTT TRUDEAU INTL","702S006","2016-12-07 21:00","2016","12","07","21:00","2.5","","-2.7","","69","","24","","18","","","","100.86","","","","","","NA"
"-73.74","45.47","MONTREAL/PIERRE ELLIOTT TRUDEAU INTL","702S006","2016-12-07 22:00","2016","12","07","22:00","2.2","","-3.8","","64","","25","","19","","","","100.88","","","","","","NA"
"-73.74","45.47","MONTREAL/PIERRE ELLIOTT TRUDEAU INTL","702S006","2016-12-07 23:00","2016","12","07","23:00","2.2","","-2.3","","72","","23","","16","","","","100.86","","","","","","NA"
"-73.74","45.47","MONTREAL/PIERRE ELLIOTT TRUDEAU INTL","702S006","2016-12-08 00:00","2016","12","08","00:00","2.1","","-3.2","","68","","23","","16","","","","100.80","","","","","","NA"
"-73.74","45.47","MONTREAL/PIERRE ELLIOTT TRUDEAU INTL","702S006","2016-12-08 01:00","2016","12","08","01:00","1.8","","-2.8","","72","","21","","17","","","","100.77","","","","","","NA"
"-73.74","45.47","MONTREAL/PIERRE ELLIOTT TRUDEAU INTL","702S006","2016-12-08 02:00","2016","12","08","02:00","1.3","","-3.0","","73","","21","","11","","","","100.73","","","","","","NA"
"-73.74","45.47","MONTREAL/PIERRE ELLIOTT TRUDEAU INTL","702S006","2016-12-08 03:00","2016","12","08","03:00","1.2","","-2.8","","74","","20","","17","","","","100.66","","","","","","NA"
"-73.74","45.47","MONTREAL/PIERRE ELLIOTT TRUDEAU INTL","702S006","2016-12-08 04:00","2016","12","08","04:00","1.5","","-2.7","","74","","21","","17","","","","100.62","","","","","","NA"
"-73.74","45.47","MONTREAL/PIERRE ELLIOTT TRUDEAU INTL","702S006","2016-12-08 05:00","2016","12","08","05:00","1.3","","-2.4","","76","","21","","16","","","","100.54","","","","","","NA"
"-73.74","45.47","MONTREAL/PIERRE ELLIOTT TRUDEAU INTL","702S006","2016-12-08 06:00","2016","12","08","06:00","1.5","","-2.2","","76","","22","","15","","","","100.51","","","","","","NA"
"-73.74","45.47","MONTREAL/PIERRE ELLIOTT TRUDEAU INTL","702S006","2016-12-08 07:00","2016","12","08","07:00","1.4","","-1.9","","79","","22","","14","","","","100.47","","","","","","NA"
"-73.74","45.47","MONTREAL/PIERRE ELLIOTT TRUDEAU INTL","702S006","2016-12-08 08:00","2016","12","08","08:00","1.7","","-2.5","","74","","24","","16","","","","100.44","","","","","","NA"
"-73.74","45.47","MONTREAL/PIERRE ELLIOTT TRUDEAU INTL","702S006","2016-12-08 09:00","2016","12","08","09:00","2.2","","-3.0","","68","","24","","21","","","","100.44","","","","","","NA"
"-73.74","45.47","MONTREAL/PIERRE ELLIOTT TRUDEAU INTL","702S006","2016-12-08 10:00","2016","12","08","10:00","2.1","","-3.5","","66","","25","","25","","","","100.43","","","","","","NA"
"-73.74","45.47","MONTREAL/PIERRE ELLIOTT TRUDEAU INTL","702S006","2016-12-08 11:00","2016","12","08","11:00","1.3","","-2.9","","74","","27","","22","","","","100.38","","","","","","NA"
"-73.74","45.47","MONTREAL/PIERRE ELLIOTT TRUDEAU INTL","702S006","2016-12-08 12:00","2016","12","08","12:00","1.5","","-2.8","","73","","24","","21","","","","100.29","","","","","","NA"
"-73.74","45.47","MONTREAL/PIERRE ELLIOTT TRUDEAU INTL","702S006","2016-12-08 13:00","2016","12","08","13:00","1.8","","-2.8","","71","","25","","18","","","","100.24","","","","","","NA"
"-73.74","45.47","MONTREAL/PIERRE ELLIOTT TRUDEAU INTL","702S006","2016-12-08 14:00","2016","12","08","14:00","2.3","","-4.2","","62","","26","","25","","","","100.22","","","","","","NA"
"-73.74","45.47","MONTREAL/PIERRE ELLIOTT TRUDEAU INTL","702S006","2016-12-08 15:00","2016","12","08","15:00","1.8","","-4.7","","62","","26","","16","","","","100.24","","","","","","NA"
"-73.74","45.47","MONTREAL/PIERRE ELLIOTT TRUDEAU INTL","702S006","2016-12-08 16:00","2016","12","08","16:00","1.3","","-4.8","","64","","25","","20","","","","100.24","","","","","","NA"
"-73.74","45.47","MONTREAL/PIERRE ELLIOTT TRUDEAU INTL","702S006","2016-12-08 17:00","2016","12","08","17:00","1.0","","-3.1","","74","","26","","15","","","","100.28","","","","","","NA"
"-73.74","45.47","MONTREAL/PIERRE ELLIOTT TRUDEAU INTL","702S006","2016-12-08 18:00","2016","12","08","18:00","0.7","","-2.5","","79","","25","","14","","","","100.28","","","","","","NA"
"-73.74","45.47","MONTREAL/PIERRE ELLIOTT TRUDEAU INTL","702S006","2016-12-08 19:00","2016","12","08","19:00","-0.7","","-1.2","","96","","26","","22","","","","100.32","","","","-6","","NA"
"-73.74","45.47","MONTREAL/PIERRE ELLIOTT TRUDEAU INTL","702S006","2016-12-08 20:00","2016","12","08","20:00","-0.4","","-1.5","","93","","26","","17","","","","100.28","","","","-5","","NA"
"-73.74","45.47","MONTREAL/PIERRE ELLIOTT TRUDEAU INTL","702S006","2016-12-08 21:00","2016","12","08","21:00","-1.2","","-1.7","","96","","26","","23","","","","100.28","","","","-7","","NA"
"-73.74","45.47","MONTREAL/PIERRE ELLIOTT TRUDEAU INTL","702S006","2016-12-08 22:00","2016","12","08","22:00","-1.3","","-1.5","","99","","26","","16","","","","100.28","","","","-6","","NA"
"-73.74","45.47","MONTREAL/PIERRE ELLIOTT TRUDEAU INTL","702S006","2016-12-08 23:00","2016","12","08","23:00","-2.1","","-3.9","","87","","29","","20","","","","100.35","","","","-8","","NA"
"-73.74","45.47","MONTREAL/PIERRE ELLIOTT TRUDEAU INTL","702S006","2016-12-09 00:00","2016","12","09","00:00","-2.6","","-5.9","","78","","29","","23","","","","100.41","","","","-9","","NA"
"-73.74","45.47","MONTREAL/PIERRE ELLIOTT TRUDEAU INTL","702S006","2016-12-09 01:00","2016","12","09","01:00","-3.0","","-7.4","","72","","28","","25","","","","100.48","","","","-10","","NA"
"-73.74","45.47","MONTREAL/PIERRE ELLIOTT TRUDEAU INTL","702S006","2016-12-09 02:00","2016","12","09","02:00","-3.1","","-7.2","","73","","28","","22","","","","100.58","","","","-9","","NA"
"-73.74","45.47","MONTREAL/PIERRE ELLIOTT TRUDEAU INTL","702S006","2016-12-09 03:00","2016","12","09","03:00","-2.9","","-7.5","","70","","28","","24","","","","100.66","","","","-10","","NA"
"-73.74","45.47","MONTREAL/PIERRE ELLIOTT TRUDEAU INTL","702S006","2016-12-09 04:00","2016","12","09","04:00","-3.6","","-8.8","","67","","28","","27","","","","100.70","","","","-11","","NA"
"-73.74","45.47","MONTREAL/PIERRE ELLIOTT TRUDEAU INTL","702S006","2016-12-09 05:00","2016","12","09","05:00","-3.8","","-9.1","","67","","28","","24","","","","100.78","","","","-11","","NA"
"-73.74","45.47","MONTREAL/PIERRE ELLIOTT TRUDEAU INTL","702S006","2016-12-09 06:00","2016","12","09","06:00","-4.1","","-8.6","","71","","27","","25","","","","100.89","","","","-11","","NA"
"-73.74","45.47","MONTREAL/PIERRE ELLIOTT TRUDEAU INTL","702S006","2016-12-09 07:00","2016","12","09","07:00","-5.1","","-9.2","","73","","27","","25","","","","100.98","","","","-12","","NA"
"-73.74","45.47","MONTREAL/PIERRE ELLIOTT TRUDEAU INTL","702S006","2016-12-09 08:00","2016","12","09","08:00","-4.7","","-9.2","","70","","27","","24","","","","101.06","","","","-12","","NA"
"-73.74","45.47","MONTREAL/PIERRE ELLIOTT TRUDEAU INTL","702S006","2016-12-09 09:00","2016","12","09","09:00","-4.7","","-8.8","","73","","27","","20","","","","101.13","","","","-11","","NA"
"-73.74","45.47","MONTREAL/PIERRE ELLIOTT TRUDEAU INTL","702S006","2016-12-09 10:00","2016","12","09","10:00","-4.2","","-9.0","","70","","27","","26","","","","101.19","","","","-11","","NA"
"-73.74","45.47","MONTREAL/PIERRE ELLIOTT TRUDEAU INTL","702S006","2016-12-09 11:00","2016","12","09","11:00","-4.3","","-8.0","","75","","28","","24","","","","101.22","","","","-11","","NA"
"-73.74","45.47","MONTREAL/PIERRE ELLIOTT TRUDEAU INTL","702S006","2016-12-09 12:00","2016","12","09","12:00","-4.3","","-7.7","","77","","27","","20","","","","101.23","","","","-11","","NA"
"-73.74","45.47","MONTREAL/PIERRE ELLIOTT TRUDEAU INTL","702S006","2016-12-09 13:00","2016","12","09","13:00","-3.9","","-10.6","","59","","30","","27","","","","101.24","","","","-11","","NA"
"-73.74","45.47","MONTREAL/PIERRE ELLIOTT TRUDEAU INTL","702S006","2016-12-09 14:00","2016","12","09","14:00","-3.9","","-12.4","","52","","30","","28","","","","101.33","","","","-11","","NA"
"-73.74","45.47","MONTREAL/PIERRE ELLIOTT TRUDEAU INTL","702S006","2016-12-09 15:00","2016","12","09","15:00","-4.0","","-12.5","","52","","29","","27","","","","101.42","","","","-11","","NA"
"-73.74","45.47","MONTREAL/PIERRE ELLIOTT TRUDEAU INTL","702S006","2016-12-09 16:00","2016","12","09","16:00","-4.4","","-12.4","","54","","28","","22","","","","101.54","","","","-11","","NA"
"-73.74","45.47","MONTREAL/PIERRE ELLIOTT TRUDEAU INTL","702S006","2016-12-09 17:00","2016","12","09","17:00","-5.2","","-13.0","","54","","30","","23","","","","101.64","","","","-12","","NA"
"-73.74","45.47","MONTREAL/PIERRE ELLIOTT TRUDEAU INTL","702S006","2016-12-09 18:00","2016","12","09","18:00","-6.5","","-13.9","","56","","31","","16","","","","101.75","","","","-13","","NA"
"-73.74","45.47","MONTREAL/PIERRE ELLIOTT TRUDEAU INTL","702S006","2016-12-09 19:00","2016","12","09","19:00","-7.0","","-15.0","","53","","32","","24","","","","101.89","","","","-15","","NA"
"-73.74","45.47","MONTREAL/PIERRE ELLIOTT TRUDEAU INTL","702S006","2016-12-09 20:00","2016","12","09","20:00","-7.2","","-13.6","","60","","29","","13","","","","101.90","","","","-13","","NA"
"-73.74","45.47","MONTREAL/PIERRE ELLIOTT TRUDEAU INTL","702S006","2016-12-09 21:00","2016","12","09","21:00","-7.3","","-14.2","","58","","29","","15","","","","101.90","","","","-13","","NA"
"-73.74","45.47","MONTREAL/PIERRE ELLIOTT TRUDEAU INTL","702S006","2016-12-09 22:00","2016","12","09","22:00","-7.2","","-13.2","","62","","32","","8","","","","101.91","","","","-11","","NA"
"-73.74","45.47","MONTREAL/PIERRE ELLIOTT TRUDEAU INTL","702S006","2016-12-09 23:00","2016","12","09","23:00","-7.0","","-13.3","","61","","31","","10","","","","101.94","","","","-12","","NA"
"-73.74","45.47","MONTREAL/PIERRE ELLIOTT TRUDEAU INTL","702S006","2016-12-10 00:00","2016","12","10","00:00","-7.7","","-13.9","","61","","33","","10","","","","101.96","","","","-13","","NA"
"-73.74","45.47","MONTREAL/PIERRE ELLIOTT TRUDEAU INTL","702S006","2016-12-10 01:00","2016","12","10","01:00","-9.0","","-14.4","","65","","30","","13","","","","102.01","","","","-15","","NA"
"-73.74","45.47","MONTREAL/PIERRE ELLIOTT TRUDEAU INTL","702S006","2016-12-10 02:00","2016","12","10","02:00","-9.5","","-14.8","","65","","29","","8","","","","102.08","","","","-14","","NA"
"-73.74","45.47","MONTREAL/PIERRE ELLIOTT TRUDEAU INTL","702S006","2016-12-10 03:00","2016","12","10","03:00","-9.1","","-14.1","","67","","31","","10","","","","102.13","","","","-14","","NA"
"-73.74","45.47","MONTREAL/PIERRE ELLIOTT TRUDEAU INTL","702S006","2016-12-10 04:00","2016","12","10","04:00","-9.1","","-14.0","","68","","29","","9","","","","102.17","","","","-14","","NA"
"-73.74","45.47","MONTREAL/PIERRE ELLIOTT TRUDEAU INTL","702S006","2016-12-10 05:00","2016","12","10","05:00","-9.9","","-14.6","","68","","30","","8","","","","102.18","","","","-14","","NA"
"-73.74","45.47","MONTREAL/PIERRE ELLIOTT TRUDEAU INTL","702S006","2016-12-10 06:00","2016","12","10","06:00","-9.1","","-14.0","","68","","28","","8","","","","102.24","","","","-13","","NA"
"-73.74","45.47","MONTREAL/PIERRE ELLIOTT TRUDEAU INTL","702S006","2016-12-10 07:00","2016","12","10","07:00","-8.1","","-13.6","","64","","27","","10","","","","102.29","","","","-13","","NA"
"-73.74","45.47","MONTREAL/PIERRE ELLIOTT TRUDEAU INTL","702S006","2016-12-10 08:00","2016","12","10","08:00","-7.5","","-12.9","","65","","28","","13","","","","102.30","","","","-13","","NA"
"-73.74","45.47","MONTREAL/PIERRE ELLIOTT TRUDEAU INTL","702S006","2016-12-10 09:00","2016","12","10","09:00","-6.7","","-13.1","","60","","28","","13","","","","102.33","","","","-12","","NA"
"-73.74","45.47","MONTREAL/PIERRE ELLIOTT TRUDEAU INTL","702S006","2016-12-10 10:00","2016","12","10","10:00","-6.0","","-14.0","","53","","28","","15","","","","102.36","","","","-12","","NA"
"-73.74","45.47","MONTREAL/PIERRE ELLIOTT TRUDEAU INTL","702S006","2016-12-10 11:00","2016","12","10","11:00","-5.3","","-14.8","","47","","30","","12","","","","102.31","","","","-10","","NA"
"-73.74","45.47","MONTREAL/PIERRE ELLIOTT TRUDEAU INTL","702S006","2016-12-10 12:00","2016","12","10","12:00","-5.5","","-13.3","","54","","27","","13","","","","102.26","","","","-11","","NA"
"-73.74","45.47","MONTREAL/PIERRE ELLIOTT TRUDEAU INTL","702S006","2016-12-10 13:00","2016","12","10","13:00","-5.4","","-14.4","","49","","27","","13","","","","102.23","","","","-11","","NA"
"-73.74","45.47","MONTREAL/PIERRE ELLIOTT TRUDEAU INTL","702S006","2016-12-10 14:00","2016","12","10","14:00","-5.2","","-12.8","","55","","27","","12","","","","102.23","","","","-10","","NA"
"-73.74","45.47","MONTREAL/PIERRE ELLIOTT TRUDEAU INTL","702S006","2016-12-10 15:00","2016","12","10","15:00","-5.2","","-12.5","","56","","26","","9","","","","102.27","","","","-9","","NA"
"-73.74","45.47","MONTREAL/PIERRE ELLIOTT TRUDEAU INTL","702S006","2016-12-10 16:00","2016","12","10","16:00","-5.4","","-12.5","","57","","24","","11","","","","102.29","","","","-10","","NA"
"-73.74","45.47","MONTREAL/PIERRE ELLIOTT TRUDEAU INTL","702S006","2016-12-10 17:00","2016","12","10","17:00","-6.6","","-12.9","","61","","26","","11","","","","102.34","","","","-12","","NA"
"-73.74","45.47","MONTREAL/PIERRE ELLIOTT TRUDEAU INTL","702S006","2016-12-10 18:00","2016","12","10","18:00","-7.0","","-12.0","","68","","25","","6","","","","102.38","","","","-10","","NA"
"-73.74","45.47","MONTREAL/PIERRE ELLIOTT TRUDEAU INTL","702S006","2016-12-10 19:00","2016","12","10","19:00","-7.3","","-12.3","","67","","26","","6","","","","102.40","","","","-10","","NA"
"-73.74","45.47","MONTREAL/PIERRE ELLIOTT TRUDEAU INTL","702S006","2016-12-10 20:00","2016","12","10","20:00","-7.9","","-12.6","","69","","27","","9","","","","102.41","","","","-12","","NA"
"-73.74","45.47","MONTREAL/PIERRE ELLIOTT TRUDEAU INTL","702S006","2016-12-10 21:00","2016","12","10","21:00","-8.2","","-12.7","","70","","26","","6","","","","102.41","","","","-11","","NA"
"-73.74","45.47","MONTREAL/PIERRE ELLIOTT TRUDEAU INTL","702S006","2016-12-10 22:00","2016","12","10","22:00","-9.8","","-13.4","","75","","27","","8","","","","102.40","","","","-14","","NA"
"-73.74","45.47","MONTREAL/PIERRE ELLIOTT TRUDEAU INTL","702S006","2016-12-10 23:00","2016","12","10","23:00","-9.7","","-12.3","","81","","27","","4","","","","102.45","","","","-12","","NA"
"-73.74","45.47","MONTREAL/PIERRE ELLIOTT TRUDEAU INTL","702S006","2016-12-11 00:00","2016","12","11","00:00","-9.4","","-12.0","","82","","25","","9","","","","102.48","","","","-14","","NA"
"-73.74","45.47","MONTREAL/PIERRE ELLIOTT TRUDEAU INTL","702S006","2016-12-11 01:00","2016","12","11","01:00","-9.6","","-12.2","","82","","26","","7","","","","102.49","","","","-14","","NA"
"-73.74","45.47","MONTREAL/PIERRE ELLIOTT TRUDEAU INTL","702S006","2016-12-11 02:00","2016","12","11","02:00","-10.4","","-12.3","","86","","26","","4","","","","102.54","","","","-13","","NA"
"-73.74","45.47","MONTREAL/PIERRE ELLIOTT TRUDEAU INTL","702S006","2016-12-11 03:00","2016","12","11","03:00","-10.6","","-11.9","","90","","0","","1","","","","102.58","","","","-11","","NA"
"-73.74","45.47","MONTREAL/PIERRE ELLIOTT TRUDEAU INTL","702S006","2016-12-11 04:00","2016","12","11","04:00","-12.1","","-13.0","","93","","32","","2","","","","102.61","","","","-13","","NA"
"-73.74","45.47","MONTREAL/PIERRE ELLIOTT TRUDEAU INTL","702S006","2016-12-11 05:00","2016","12","11","05:00","-11.7","","-12.8","","91","","1","","3","","","","102.61","","","","-14","","NA"
"-73.74","45.47","MONTREAL/PIERRE ELLIOTT TRUDEAU INTL","702S006","2016-12-11 06:00","2016","12","11","06:00","-10.9","","-12.0","","92","","2","","6","","","","102.66","","","","-15","","NA"
"-73.74","45.47","MONTREAL/PIERRE ELLIOTT TRUDEAU INTL","702S006","2016-12-11 07:00","2016","12","11","07:00","-11.1","","-12.3","","91","","1","","6","","","","102.71","","","","-15","","NA"
"-73.74","45.47","MONTREAL/PIERRE ELLIOTT TRUDEAU INTL","702S006","2016-12-11 08:00","2016","12","11","08:00","-10.6","","-12.4","","87","","4","","2","","","","102.71","","","","-12","","NA"
"-73.74","45.47","MONTREAL/PIERRE ELLIOTT TRUDEAU INTL","702S006","2016-12-11 09:00","2016","12","11","09:00","-9.9","","-11.1","","90","","36","","5","","","","102.75","","","","-13","","NA"
"-73.74","45.47","MONTREAL/PIERRE ELLIOTT TRUDEAU INTL","702S006","2016-12-11 10:00","2016","12","11","10:00","-6.0","","-10.4","","71","","10","","5","","","","102.75","","","","-8","","NA"
"-73.74","45.47","MONTREAL/PIERRE ELLIOTT TRUDEAU INTL","702S006","2016-12-11 11:00","2016","12","11","11:00","-5.1","","-13.5","","52","","11","","8","","","","102.70","","","","-9","","NA"
"-73.74","45.47","MONTREAL/PIERRE ELLIOTT TRUDEAU INTL","702S006","2016-12-11 12:00","2016","12","11","12:00","-4.4","","-12.2","","54","","13","","7","","","","102.62","","","","-8","","NA"
"-73.74","45.47","MONTREAL/PIERRE ELLIOTT TRUDEAU INTL","702S006","2016-12-11 13:00","2016","12","11","13:00","-4.3","","-11.5","","57","","12","","9","","","","102.51","","","","-8","","NA"
"-73.74","45.47","MONTREAL/PIERRE ELLIOTT TRUDEAU INTL","702S006","2016-12-11 14:00","2016","12","11","14:00","-4.2","","-10.7","","61","","11","","10","","","","102.44","","","","-8","","NA"
"-73.74","45.47","MONTREAL/PIERRE ELLIOTT TRUDEAU INTL","702S006","2016-12-11 15:00","2016","12","11","15:00","-4.4","","-10.3","","64","","9","","9","","","","102.40","","","","-8","","NA"
"-73.74","45.47","MONTREAL/PIERRE ELLIOTT TRUDEAU INTL","702S006","2016-12-11 16:00","2016","12","11","16:00","-4.7","","-9.8","","67","","7","","7","","","","102.40","","","","-8","","NA"
"-73.74","45.47","MONTREAL/PIERRE ELLIOTT TRUDEAU INTL","702S006","2016-12-11 17:00","2016","12","11","17:00","-4.9","","-9.7","","69","","7","","9","","","","102.35","","","","-9","","NA"
"-73.74","45.47","MONTREAL/PIERRE ELLIOTT TRUDEAU INTL","702S006","2016-12-11 18:00","2016","12","11","18:00","-4.9","","-9.4","","71","","6","","7","","","","102.34","","","","-8","","NA"
"-73.74","45.47","MONTREAL/PIERRE ELLIOTT TRUDEAU INTL","702S006","2016-12-11 19:00","2016","12","11","19:00","-4.6","","-9.1","","70","","8","","9","","","","102.27","","","","-8","","NA"
"-73.74","45.47","MONTREAL/PIERRE ELLIOTT TRUDEAU INTL","702S006","2016-12-11 20:00","2016","12","11","20:00","-4.3","","-9.2","","69","","8","","11","","","","102.16","","","","-9","","NA"
"-73.74","45.47","MONTREAL/PIERRE ELLIOTT TRUDEAU INTL","702S006","2016-12-11 21:00","2016","12","11","21:00","-4.3","","-8.2","","74","","7","","10","","","","102.10","","","","-8","","NA"
"-73.74","45.47","MONTREAL/PIERRE ELLIOTT TRUDEAU INTL","702S006","2016-12-11 22:00","2016","12","11","22:00","-4.8","","-6.5","","88","","5","","12","","","","101.97","","","","-10","","NA"
"-73.74","45.47","MONTREAL/PIERRE ELLIOTT TRUDEAU INTL","702S006","2016-12-11 23:00","2016","12","11","23:00","-4.4","","-6.1","","88","","6","","9","","","","101.86","","","","-8","","NA"
"-73.74","45.47","MONTREAL/PIERRE ELLIOTT TRUDEAU INTL","702S006","2016-12-12 00:00","2016","12","12","00:00","-3.6","","-5.9","","84","","9","","12","","","","101.70","","","","-8","","NA"
"-73.74","45.47","MONTREAL/PIERRE ELLIOTT TRUDEAU INTL","702S006","2016-12-12 01:00","2016","12","12","01:00","-4.0","","-5.9","","86","","7","","12","","","","101.54","","","","-9","","NA"
"-73.74","45.47","MONTREAL/PIERRE ELLIOTT TRUDEAU INTL","702S006","2016-12-12 02:00","2016","12","12","02:00","-4.1","","-5.2","","92","","9","","17","","","","101.35","","","","-10","","NA"
"-73.74","45.47","MONTREAL/PIERRE ELLIOTT TRUDEAU INTL","702S006","2016-12-12 03:00","2016","12","12","03:00","-4.2","","-5.0","","94","","10","","12","","","","101.15","","","","-9","","NA"
"-73.74","45.47","MONTREAL/PIERRE ELLIOTT TRUDEAU INTL","702S006","2016-12-12 04:00","2016","12","12","04:00","-4.1","","-4.6","","96","","11","","20","","","","101.00","","","","-10","","NA"
"-73.74","45.47","MONTREAL/PIERRE ELLIOTT TRUDEAU INTL","702S006","2016-12-12 05:00","2016","12","12","05:00","-3.9","","-4.4","","96","","8","","14","","","","100.78","","","","-9","","NA"
"-73.74","45.47","MONTREAL/PIERRE ELLIOTT TRUDEAU INTL","702S006","2016-12-12 06:00","2016","12","12","06:00","-3.9","","-4.4","","96","","9","","14","","","","100.59","","","","-9","","NA"
"-73.74","45.47","MONTREAL/PIERRE ELLIOTT TRUDEAU INTL","702S006","2016-12-12 07:00","2016","12","12","07:00","-3.6","","-4.2","","95","","10","","11","","","","100.50","","","","-8","","NA"
"-73.74","45.47","MONTREAL/PIERRE ELLIOTT TRUDEAU INTL","702S006","2016-12-12 08:00","2016","12","12","08:00","-3.0","","-3.7","","95","","9","","6","","","","100.44","","","","-5","","NA"
"-73.74","45.47","MONTREAL/PIERRE ELLIOTT TRUDEAU INTL","702S006","2016-12-12 09:00","2016","12","12","09:00","-2.7","","-3.3","","95","","6","","6","","","","100.35","","","","-5","","NA"
"-73.74","45.47","MONTREAL/PIERRE ELLIOTT TRUDEAU INTL","702S006","2016-12-12 10:00","2016","12","12","10:00","-2.2","","-3.0","","94","","5","","3","","","","100.29","","","","-3","","NA"
"-73.74","45.47","MONTREAL/PIERRE ELLIOTT TRUDEAU INTL","702S006","2016-12-12 11:00","2016","12","12","11:00","-3.1","","-3.9","","94","","1","","13","","","","100.23","","","","-8","","NA"
"-73.74","45.47","MONTREAL/PIERRE ELLIOTT TRUDEAU INTL","702S006","2016-12-12 12:00","2016","12","12","12:00","-3.9","","-4.9","","93","","2","","16","","","","100.12","","","","-9","","NA"
"-73.74","45.47","MONTREAL/PIERRE ELLIOTT TRUDEAU INTL","702S006","2016-12-12 13:00","2016","12","12","13:00","-4.5","","-5.4","","94","","2","","17","","","","100.05","","","","-10","","NA"
"-73.74","45.47","MONTREAL/PIERRE ELLIOTT TRUDEAU INTL","702S006","2016-12-12 14:00","2016","12","12","14:00","-4.8","","-5.7","","93","","2","","17","","","","100.05","","","","-11","","NA"
"-73.74","45.47","MONTREAL/PIERRE ELLIOTT TRUDEAU INTL","702S006","2016-12-12 15:00","2016","12","12","15:00","-5.0","","-5.7","","95","","2","","14","","","","100.04","","","","-10","","NA"
"-73.74","45.47","MONTREAL/PIERRE ELLIOTT TRUDEAU INTL","702S006","2016-12-12 16:00","2016","12","12","16:00","-5.2","","-6.1","","94","","36","","13","","","","100.08","","","","-10","","NA"
"-73.74","45.47","MONTREAL/PIERRE ELLIOTT TRUDEAU INTL","702S006","2016-12-12 17:00","2016","12","12","17:00","-5.2","","-6.1","","93","","1","","13","","","","100.13","","","","-10","","NA"
"-73.74","45.47","MONTREAL/PIERRE ELLIOTT TRUDEAU INTL","702S006","2016-12-12 18:00","2016","12","12","18:00","-6.2","","-7.2","","93","","36","","8","","","","100.21","","","","-10","","NA"
"-73.74","45.47","MONTREAL/PIERRE ELLIOTT TRUDEAU INTL","702S006","2016-12-12 19:00","2016","12","12","19:00","-5.4","","-6.6","","92","","3","","14","","","","100.26","","","","-11","","NA"
"-73.74","45.47","MONTREAL/PIERRE ELLIOTT TRUDEAU INTL","702S006","2016-12-12 20:00","2016","12","12","20:00","-5.5","","-6.6","","91","","36","","12","","","","100.38","","","","-10","","NA"
"-73.74","45.47","MONTREAL/PIERRE ELLIOTT TRUDEAU INTL","702S006","2016-12-12 21:00","2016","12","12","21:00","-5.5","","-7.0","","89","","1","","10","","","","100.46","","","","-10","","NA"
"-73.74","45.47","MONTREAL/PIERRE ELLIOTT TRUDEAU INTL","702S006","2016-12-12 22:00","2016","12","12","22:00","-5.9","","-7.2","","90","","28","","7","","","","100.58","","","","-9","","NA"
"-73.74","45.47","MONTREAL/PIERRE ELLIOTT TRUDEAU INTL","702S006","2016-12-12 23:00","2016","12","12","23:00","-5.1","","-6.2","","91","","0","","1","","","","100.70","","","","-6","","NA"
"-73.74","45.47","MONTREAL/PIERRE ELLIOTT TRUDEAU INTL","702S006","2016-12-13 00:00","2016","12","13","00:00","-3.9","","-5.5","","89","","28","","8","","","","100.83","","","","-7","","NA"
"-73.74","45.47","MONTREAL/PIERRE ELLIOTT TRUDEAU INTL","702S006","2016-12-13 01:00","2016","12","13","01:00","-3.7","","-6.9","","79","","28","","16","","","","100.95","","","","-9","","NA"
"-73.74","45.47","MONTREAL/PIERRE ELLIOTT TRUDEAU INTL","702S006","2016-12-13 02:00","2016","12","13","02:00","-4.3","","-7.3","","80","","29","","19","","","","101.06","","","","-10","","NA"
"-73.74","45.47","MONTREAL/PIERRE ELLIOTT TRUDEAU INTL","702S006","2016-12-13 03:00","2016","12","13","03:00","-4.4","","-7.6","","78","","29","","17","","","","101.14","","","","-10","","NA"
"-73.74","45.47","MONTREAL/PIERRE ELLIOTT TRUDEAU INTL","702S006","2016-12-13 04:00","2016","12","13","04:00","-4.7","","-8.0","","78","","29","","14","","","","101.23","","","","-10","","NA"
"-73.74","45.47","MONTREAL/PIERRE ELLIOTT TRUDEAU INTL","702S006","2016-12-13 05:00","2016","12","13","05:00","-4.9","","-8.0","","79","","30","","12","","","","101.29","","","","-10","","NA"
"-73.74","45.47","MONTREAL/PIERRE ELLIOTT TRUDEAU INTL","702S006","2016-12-13 06:00","2016","12","13","06:00","-5.3","","-8.0","","81","","29","","5","","","","101.32","","","","-8","","NA"
"-73.74","45.47","MONTREAL/PIERRE ELLIOTT TRUDEAU INTL","702S006","2016-12-13 07:00","2016","12","13","07:00","-5.9","","-8.3","","83","","36","","2","","","","101.35","","","","-7","","NA"
"-73.74","45.47","MONTREAL/PIERRE ELLIOTT TRUDEAU INTL","702S006","2016-12-13 08:00","2016","12","13","08:00","-5.5","","-8.1","","82","","13","","4","","","","101.40","","","","-7","","NA"
"-73.74","45.47","MONTREAL/PIERRE ELLIOTT TRUDEAU INTL","702S006","2016-12-13 09:00","2016","12","13","09:00","-4.5","","-6.8","","84","","12","","5","","","","101.46","","","","-7","","NA"
"-73.74","45.47","MONTREAL/PIERRE ELLIOTT TRUDEAU INTL","702S006","2016-12-13 10:00","2016","12","13","10:00","-3.1","","-5.8","","81","","15","","8","","","","101.45","","","","-6","","NA"
"-73.74","45.47","MONTREAL/PIERRE ELLIOTT TRUDEAU INTL","702S006","2016-12-13 11:00","2016","12","13","11:00","-1.9","","-5.2","","78","","14","","11","","","","101.32","","","","-6","","NA"
"-73.74","45.47","MONTREAL/PIERRE ELLIOTT TRUDEAU INTL","702S006","2016-12-13 12:00","2016","12","13","12:00","-1.5","","-4.3","","81","","16","","14","","","","101.20","","","","-6","","NA"
"-73.74","45.47","MONTREAL/PIERRE ELLIOTT TRUDEAU INTL","702S006","2016-12-13 13:00","2016","12","13","13:00","-0.7","","-4.1","","78","","16","","16","","","","101.08","","","","-5","","NA"
"-73.74","45.47","MONTREAL/PIERRE ELLIOTT TRUDEAU INTL","702S006","2016-12-13 14:00","2016","12","13","14:00","-0.1","","-3.5","","78","","16","","13","","","","101.02","","","","-4","","NA"
"-73.74","45.47","MONTREAL/PIERRE ELLIOTT TRUDEAU INTL","702S006","2016-12-13 15:00","2016","12","13","15:00","0.3","","-2.9","","79","","17","","13","","","","101.00","","","","","","NA"
"-73.74","45.47","MONTREAL/PIERRE ELLIOTT TRUDEAU INTL","702S006","2016-12-13 16:00","2016","12","13","16:00","0.2","","-2.6","","81","","15","","12","","","","100.93","","","","","","NA"
"-73.74","45.47","MONTREAL/PIERRE ELLIOTT TRUDEAU INTL","702S006","2016-12-13 17:00","2016","12","13","17:00","2.0","","-3.5","","67","","19","","20","","","","100.88","","","","","","NA"
"-73.74","45.47","MONTREAL/PIERRE ELLIOTT TRUDEAU INTL","702S006","2016-12-13 18:00","2016","12","13","18:00","1.6","","-3.4","","69","","21","","28","","","","100.83","","","","","","NA"
"-73.74","45.47","MONTREAL/PIERRE ELLIOTT TRUDEAU INTL","702S006","2016-12-13 19:00","2016","12","13","19:00","1.3","","-2.2","","77","","22","","17","","","","100.81","","","","","","NA"
"-73.74","45.47","MONTREAL/PIERRE ELLIOTT TRUDEAU INTL","702S006","2016-12-13 20:00","2016","12","13","20:00","1.4","","-2.8","","73","","21","","16","","","","100.75","","","","","","NA"
"-73.74","45.47","MONTREAL/PIERRE ELLIOTT TRUDEAU INTL","702S006","2016-12-13 21:00","2016","12","13","21:00","0.8","","-2.5","","79","","23","","16","","","","100.75","","","","","","NA"
"-73.74","45.47","MONTREAL/PIERRE ELLIOTT TRUDEAU INTL","702S006","2016-12-13 22:00","2016","12","13","22:00","0.3","","-2.1","","84","","23","","18","","","","100.69","","","","","","NA"
"-73.74","45.47","MONTREAL/PIERRE ELLIOTT TRUDEAU INTL","702S006","2016-12-13 23:00","2016","12","13","23:00","0.4","","-2.1","","83","","22","","21","","","","100.65","","","","","","NA"
"-73.74","45.47","MONTREAL/PIERRE ELLIOTT TRUDEAU INTL","702S006","2016-12-14 00:00","2016","12","14","00:00","-0.6","","-1.5","","93","","22","","14","","","","100.64","","","","-5","","NA"
"-73.74","45.47","MONTREAL/PIERRE ELLIOTT TRUDEAU INTL","702S006","2016-12-14 01:00","2016","12","14","01:00","-0.6","","-1.9","","91","","25","","22","","","","100.64","","","","-6","","NA"
"-73.74","45.47","MONTREAL/PIERRE ELLIOTT TRUDEAU INTL","702S006","2016-12-14 02:00","2016","12","14","02:00","-0.9","","-4.7","","75","","25","","28","","","","100.67","","","","-7","","NA"
"-73.74","45.47","MONTREAL/PIERRE ELLIOTT TRUDEAU INTL","702S006","2016-12-14 03:00","2016","12","14","03:00","-1.8","","-6.7","","69","","25","","26","","","","100.73","","","","-8","","NA"
"-73.74","45.47","MONTREAL/PIERRE ELLIOTT TRUDEAU INTL","702S006","2016-12-14 04:00","2016","12","14","04:00","-3.0","","-7.8","","69","","26","","21","","","","100.73","","","","-9","","NA"
"-73.74","45.47","MONTREAL/PIERRE ELLIOTT TRUDEAU INTL","702S006","2016-12-14 05:00","2016","12","14","05:00","-3.4","","-7.2","","75","","27","","21","","","","100.80","","","","-10","","NA"
"-73.74","45.47","MONTREAL/PIERRE ELLIOTT TRUDEAU INTL","702S006","2016-12-14 06:00","2016","12","14","06:00","-4.3","","-8.9","","70","","30","","16","","","","100.86","","","","-10","","NA"
"-73.74","45.47","MONTREAL/PIERRE ELLIOTT TRUDEAU INTL","702S006","2016-12-14 07:00","2016","12","14","07:00","-5.0","","-10.5","","65","","30","","17","","","","100.91","","","","-11","","NA"
"-73.74","45.47","MONTREAL/PIERRE ELLIOTT TRUDEAU INTL","702S006","2016-12-14 08:00","2016","12","14","08:00","-5.4","","-10.2","","69","","31","","10","","","","100.97","","","","-10","","NA"
"-73.74","45.47","MONTREAL/PIERRE ELLIOTT TRUDEAU INTL","702S006","2016-12-14 09:00","2016","12","14","09:00","-5.6","","-8.9","","77","","26","","7","","","","100.97","","","","-9","","NA"
"-73.74","45.47","MONTREAL/PIERRE ELLIOTT TRUDEAU INTL","702S006","2016-12-14 10:00","2016","12","14","10:00","-5.5","","-7.8","","84","","27","","5","","","","100.97","","","","-8","","NA"
"-73.74","45.47","MONTREAL/PIERRE ELLIOTT TRUDEAU INTL","702S006","2016-12-14 11:00","2016","12","14","11:00","-4.7","","-7.7","","80","","23","","17","","","","100.90","","","","-11","","NA"
"-73.74","45.47","MONTREAL/PIERRE ELLIOTT TRUDEAU INTL","702S006","2016-12-14 12:00","2016","12","14","12:00","-4.8","","-8.9","","73","","24","","18","","","","100.82","","","","-11","","NA"
"-73.74","45.47","MONTREAL/PIERRE ELLIOTT TRUDEAU INTL","702S006","2016-12-14 13:00","2016","12","14","13:00","-5.1","","-11.5","","61","","24","","14","","","","100.70","","","","-10","","NA"
"-73.74","45.47","MONTREAL/PIERRE ELLIOTT TRUDEAU INTL","702S006","2016-12-14 14:00","2016","12","14","14:00","-4.4","","-12.6","","53","","24","","18","","","","100.59","","","","-10","","NA"
"-73.74","45.47","MONTREAL/PIERRE ELLIOTT TRUDEAU INTL","702S006","2016-12-14 15:00","2016","12","14","15:00","-4.2","","-12.2","","54","","24","","14","","","","100.50","","","","-9","","NA"
"-73.74","45.47","MONTREAL/PIERRE ELLIOTT TRUDEAU INTL","702S006","2016-12-14 16:00","2016","12","14","16:00","-4.0","","-8.4","","71","","23","","30","","","","100.44","","","","-12","","NA"
"-73.74","45.47","MONTREAL/PIERRE ELLIOTT TRUDEAU INTL","702S006","2016-12-14 17:00","2016","12","14","17:00","-5.3","","-12.9","","55","","25","","23","","","","100.40","","","","-12","","NA"
"-73.74","45.47","MONTREAL/PIERRE ELLIOTT TRUDEAU INTL","702S006","2016-12-14 18:00","2016","12","14","18:00","-4.5","","-8.0","","76","","23","","25","","","","100.33","","","","-12","","NA"
"-73.74","45.47","MONTREAL/PIERRE ELLIOTT TRUDEAU INTL","702S006","2016-12-14 19:00","2016","12","14","19:00","-4.1","","-9.3","","67","","23","","23","","","","100.25","","","","-11","","NA"
"-73.74","45.47","MONTREAL/PIERRE ELLIOTT TRUDEAU INTL","702S006","2016-12-14 20:00","2016","12","14","20:00","-4.4","","-9.2","","69","","22","","24","","","","100.20","","","","-11","","NA"
"-73.74","45.47","MONTREAL/PIERRE ELLIOTT TRUDEAU INTL","702S006","2016-12-14 21:00","2016","12","14","21:00","-4.7","","-9.7","","68","","23","","23","","","","100.15","","","","-12","","NA"
"-73.74","45.47","MONTREAL/PIERRE ELLIOTT TRUDEAU INTL","702S006","2016-12-14 22:00","2016","12","14","22:00","-5.4","","-11.2","","63","","24","","15","","","","100.08","","","","-11","","NA"
"-73.74","45.47","MONTREAL/PIERRE ELLIOTT TRUDEAU INTL","702S006","2016-12-14 23:00","2016","12","14","23:00","-8.0","","-12.4","","71","","31","","9","","","","100.05","","","","-13","","NA"
"-73.74","45.47","MONTREAL/PIERRE ELLIOTT TRUDEAU INTL","702S006","2016-12-15 00:00","2016","12","15","00:00","-7.9","","-11.5","","75","","35","","5","","","","100.00","","","","-11","","NA"
"-73.74","45.47","MONTREAL/PIERRE ELLIOTT TRUDEAU INTL","702S006","2016-12-15 01:00","2016","12","15","01:00","-7.7","","-12.4","","69","","26","","4","","","","99.95","","","","-10","","NA"
"-73.74","45.47","MONTREAL/PIERRE ELLIOTT TRUDEAU INTL","702S006","2016-12-15 02:00","2016","12","15","02:00","-10.1","","-12.5","","83","","29","","6","","","","99.94","","","","-14","","NA"
"-73.74","45.47","MONTREAL/PIERRE ELLIOTT TRUDEAU INTL","702S006","2016-12-15 03:00","2016","12","15","03:00","-9.8","","-11.2","","90","","29","","4","","","","99.90","","","","-12","","NA"
"-73.74","45.47","MONTREAL/PIERRE ELLIOTT TRUDEAU INTL","702S006","2016-12-15 04:00","2016","12","15","04:00","-9.3","","-10.5","","91","","34","","4","","","","99.85","","","","-12","","NA"
"-73.74","45.47","MONTREAL/PIERRE ELLIOTT TRUDEAU INTL","702S006","2016-12-15 05:00","2016","12","15","05:00","-9.5","","-10.9","","89","","31","","6","","","","99.82","","","","-13","","NA"
"-73.74","45.47","MONTREAL/PIERRE ELLIOTT TRUDEAU INTL","702S006","2016-12-15 06:00","2016","12","15","06:00","-9.0","","-11.0","","85","","28","","18","","","","99.87","","","","-16","","NA"
"-73.74","45.47","MONTREAL/PIERRE ELLIOTT TRUDEAU INTL","702S006","2016-12-15 07:00","2016","12","15","07:00","-9.1","","-11.9","","80","","28","","23","","","","99.93","","","","-17","","NA"
"-73.74","45.47","MONTREAL/PIERRE ELLIOTT TRUDEAU INTL","702S006","2016-12-15 08:00","2016","12","15","08:00","-9.4","","-12.8","","76","","28","","30","","","","100.05","","","","-19","","NA"
"-73.74","45.47","MONTREAL/PIERRE ELLIOTT TRUDEAU INTL","702S006","2016-12-15 09:00","2016","12","15","09:00","-11.2","","-18.3","","56","","29","","30","","","","100.20","","","","-21","","NA"
"-73.74","45.47","MONTREAL/PIERRE ELLIOTT TRUDEAU INTL","702S006","2016-12-15 10:00","2016","12","15","10:00","-12.5","","-22.2","","44","","27","","28","","","","100.37","","","","-22","","NA"
"-73.74","45.47","MONTREAL/PIERRE ELLIOTT TRUDEAU INTL","702S006","2016-12-15 11:00","2016","12","15","11:00","-13.5","","-19.9","","58","","29","","31","","","","100.38","","","","-24","","NA"
"-73.74","45.47","MONTREAL/PIERRE ELLIOTT TRUDEAU INTL","702S006","2016-12-15 12:00","2016","12","15","12:00","-13.2","","-22.9","","44","","29","","28","","","","100.33","","","","-23","","NA"
"-73.74","45.47","MONTREAL/PIERRE ELLIOTT TRUDEAU INTL","702S006","2016-12-15 13:00","2016","12","15","13:00","-12.8","","-22.7","","43","","27","","27","","","","100.33","","","","-23","","NA"
"-73.74","45.47","MONTREAL/PIERRE ELLIOTT TRUDEAU INTL","702S006","2016-12-15 14:00","2016","12","15","14:00","-13.1","","-21.3","","50","","27","","22","","","","100.34","","","","-22","","NA"
"-73.74","45.47","MONTREAL/PIERRE ELLIOTT TRUDEAU INTL","702S006","2016-12-15 15:00","2016","12","15","15:00","-13.9","","-20.4","","58","","28","","24","","","","100.37","","","","-24","","NA"
"-73.74","45.47","MONTREAL/PIERRE ELLIOTT TRUDEAU INTL","702S006","2016-12-15 16:00","2016","12","15","16:00","-15.5","","-19.6","","71","","32","","30","","","","100.50","","","","-27","","NA"
"-73.74","45.47","MONTREAL/PIERRE ELLIOTT TRUDEAU INTL","702S006","2016-12-15 17:00","2016","12","15","17:00","-17.3","","-24.0","","56","","31","","21","","","","100.72","","","","-27","","NA"
"-73.74","45.47","MONTREAL/PIERRE ELLIOTT TRUDEAU INTL","702S006","2016-12-15 18:00","2016","12","15","18:00","-17.7","","-24.6","","55","","31","","35","","","","100.92","","","","-30","","NA"
"-73.74","45.47","MONTREAL/PIERRE ELLIOTT TRUDEAU INTL","702S006","2016-12-15 19:00","2016","12","15","19:00","-18.4","","-26.7","","48","","30","","39","","","","101.12","","","","-32","","NA"
"-73.74","45.47","MONTREAL/PIERRE ELLIOTT TRUDEAU INTL","702S006","2016-12-15 20:00","2016","12","15","20:00","-19.1","","-29.0","","41","","31","","28","","","","101.28","","","","-31","","NA"
"-73.74","45.47","MONTREAL/PIERRE ELLIOTT TRUDEAU INTL","702S006","2016-12-15 21:00","2016","12","15","21:00","-19.7","","-27.4","","50","","30","","20","","","","101.35","","","","-30","","NA"
"-73.74","45.47","MONTREAL/PIERRE ELLIOTT TRUDEAU INTL","702S006","2016-12-15 22:00","2016","12","15","22:00","-19.4","","-25.9","","57","","30","","23","","","","101.45","","","","-30","","NA"
"-73.74","45.47","MONTREAL/PIERRE ELLIOTT TRUDEAU INTL","702S006","2016-12-15 23:00","2016","12","15","23:00","-19.9","","-28.1","","48","","28","","19","","","","101.55","","","","-30","","NA"
"-73.74","45.47","MONTREAL/PIERRE ELLIOTT TRUDEAU INTL","702S006","2016-12-16 00:00","2016","12","16","00:00","-20.4","","-28.0","","50","","30","","23","","","","101.63","","","","-32","","NA"
"-73.74","45.47","MONTREAL/PIERRE ELLIOTT TRUDEAU INTL","702S006","2016-12-16 01:00","2016","12","16","01:00","-20.5","","-27.3","","55","","29","","19","","","","101.73","","","","-31","","NA"
"-73.74","45.47","MONTREAL/PIERRE ELLIOTT TRUDEAU INTL","702S006","2016-12-16 02:00","2016","12","16","02:00","-21.0","","-27.2","","57","","31","","22","","","","101.86","","","","-32","","NA"
"-73.74","45.47","MONTREAL/PIERRE ELLIOTT TRUDEAU INTL","702S006","2016-12-16 03:00","2016","12","16","03:00","-22.3","","-27.9","","60","","29","","14","","","","101.97","","","","-32","","NA"
"-73.74","45.47","MONTREAL/PIERRE ELLIOTT TRUDEAU INTL","702S006","2016-12-16 04:00","2016","12","16","04:00","-22.3","","-30.1","","49","","30","","21","","","","102.09","","","","-34","","NA"
"-73.74","45.47","MONTREAL/PIERRE ELLIOTT TRUDEAU INTL","702S006","2016-12-16 05:00","2016","12","16","05:00","-22.9","","-30.0","","52","","29","","16","","","","102.18","","","","-33","","NA"
"-73.74","45.47","MONTREAL/PIERRE ELLIOTT TRUDEAU INTL","702S006","2016-12-16 06:00","2016","12","16","06:00","-23.0","","-29.7","","54","","28","","10","","","","102.28","","","","-31","","NA"
"-73.74","45.47","MONTREAL/PIERRE ELLIOTT TRUDEAU INTL","702S006","2016-12-16 07:00","2016","12","16","07:00","-23.5","","-29.9","","55","","28","","8","","","","102.34","","","","-30","","NA"
"-73.74","45.47","MONTREAL/PIERRE ELLIOTT TRUDEAU INTL","702S006","2016-12-16 08:00","2016","12","16","08:00","-23.0","","-27.6","","66","","27","","3","","","","102.41","","","","-26","","NA"
"-73.74","45.47","MONTREAL/PIERRE ELLIOTT TRUDEAU INTL","702S006","2016-12-16 09:00","2016","12","16","09:00","-20.9","","-26.5","","60","","27","","1","","","","102.47","","","","-22","","NA"
"-73.74","45.47","MONTREAL/PIERRE ELLIOTT TRUDEAU INTL","702S006","2016-12-16 10:00","2016","12","16","10:00","-20.3","","-26.8","","56","","28","","8","","","","102.52","","","","-27","","NA"
"-73.74","45.47","MONTREAL/PIERRE ELLIOTT TRUDEAU INTL","702S006","2016-12-16 11:00","2016","12","16","11:00","-19.1","","-27.8","","46","","25","","13","","","","102.46","","","","-27","","NA"
"-73.74","45.47","MONTREAL/PIERRE ELLIOTT TRUDEAU INTL","702S006","2016-12-16 12:00","2016","12","16","12:00","-18.7","","-26.9","","49","","29","","5","","","","102.39","","","","-23","","NA"
"-73.74","45.47","MONTREAL/PIERRE ELLIOTT TRUDEAU INTL","702S006","2016-12-16 13:00","2016","12","16","13:00","-17.9","","-26.5","","47","","25","","13","","","","102.34","","","","-26","","NA"
"-73.74","45.47","MONTREAL/PIERRE ELLIOTT TRUDEAU INTL","702S006","2016-12-16 14:00","2016","12","16","14:00","-17.4","","-24.8","","52","","24","","13","","","","102.34","","","","-25","","NA"
"-73.74","45.47","MONTREAL/PIERRE ELLIOTT TRUDEAU INTL","702S006","2016-12-16 15:00","2016","12","16","15:00","-17.1","","-23.7","","57","","28","","8","","","","102.29","","","","-23","","NA"
"-73.74","45.47","MONTREAL/PIERRE ELLIOTT TRUDEAU INTL","702S006","2016-12-16 16:00","2016","12","16","16:00","-17.2","","-23.5","","58","","33","","2","","","","102.28","","","","-19","","NA"
"-73.74","45.47","MONTREAL/PIERRE ELLIOTT TRUDEAU INTL","702S006","2016-12-16 17:00","2016","12","16","17:00","-16.6","","-20.3","","73","","14","","7","","","","102.26","","","","-22","","NA"
"-73.74","45.47","MONTREAL/PIERRE ELLIOTT TRUDEAU INTL","702S006","2016-12-16 18:00","2016","12","16","18:00","-16.5","","-19.7","","76","","10","","8","","","","102.18","","","","-22","","NA"
"-73.74","45.47","MONTREAL/PIERRE ELLIOTT TRUDEAU INTL","702S006","2016-12-16 19:00","2016","12","16","19:00","-16.2","","-18.9","","80","","8","","5","","","","102.11","","","","-20","","NA"
"-73.74","45.47","MONTREAL/PIERRE ELLIOTT TRUDEAU INTL","702S006","2016-12-16 20:00","2016","12","16","20:00","-15.5","","-18.2","","79","","6","","6","","","","102.11","","","","-20","","NA"
"-73.74","45.47","MONTREAL/PIERRE ELLIOTT TRUDEAU INTL","702S006","2016-12-16 21:00","2016","12","16","21:00","-15.6","","-18.1","","81","","2","","7","","","","102.04","","","","-21","","NA"
"-73.74","45.47","MONTREAL/PIERRE ELLIOTT TRUDEAU INTL","702S006","2016-12-16 22:00","2016","12","16","22:00","-15.2","","-17.8","","81","","1","","7","","","","102.05","","","","-20","","NA"
"-73.74","45.47","MONTREAL/PIERRE ELLIOTT TRUDEAU INTL","702S006","2016-12-16 23:00","2016","12","16","23:00","-16.0","","-18.3","","82","","3","","7","","","","102.00","","","","-21","","NA"
"-73.74","45.47","MONTREAL/PIERRE ELLIOTT TRUDEAU INTL","702S006","2016-12-17 00:00","2016","12","17","00:00","-15.6","","-17.9","","83","","3","","9","","","","101.96","","","","-22","","NA"
"-73.74","45.47","MONTREAL/PIERRE ELLIOTT TRUDEAU INTL","702S006","2016-12-17 01:00","2016","12","17","01:00","-15.6","","-17.7","","84","","1","","12","","","","101.97","","","","-23","","NA"
"-73.74","45.47","MONTREAL/PIERRE ELLIOTT TRUDEAU INTL","702S006","2016-12-17 02:00","2016","12","17","02:00","-15.4","","-17.4","","85","","1","","11","","","","101.94","","","","-22","","NA"
"-73.74","45.47","MONTREAL/PIERRE ELLIOTT TRUDEAU INTL","702S006","2016-12-17 03:00","2016","12","17","03:00","-15.1","","-17.1","","85","","2","","12","","","","101.83","","","","-22","","NA"
"-73.74","45.47","MONTREAL/PIERRE ELLIOTT TRUDEAU INTL","702S006","2016-12-17 04:00","2016","12","17","04:00","-14.7","","-16.6","","85","","2","","14","","","","101.68","","","","-22","","NA"
"-73.74","45.47","MONTREAL/PIERRE ELLIOTT TRUDEAU INTL","702S006","2016-12-17 05:00","2016","12","17","05:00","-14.2","","-16.1","","86","","1","","15","","","","101.58","","","","-22","","NA"
"-73.74","45.47","MONTREAL/PIERRE ELLIOTT TRUDEAU INTL","702S006","2016-12-17 06:00","2016","12","17","06:00","-14.1","","-16.0","","86","","1","","16","","","","101.49","","","","-22","","NA"
"-73.74","45.47","MONTREAL/PIERRE ELLIOTT TRUDEAU INTL","702S006","2016-12-17 07:00","2016","12","17","07:00","-13.7","","-15.6","","85","","3","","18","","","","101.37","","","","-22","","NA"
"-73.74","45.47","MONTREAL/PIERRE ELLIOTT TRUDEAU INTL","702S006","2016-12-17 08:00","2016","12","17","08:00","-13.8","","-15.7","","85","","3","","20","","","","101.29","","","","-23","","NA"
"-73.74","45.47","MONTREAL/PIERRE ELLIOTT TRUDEAU INTL","702S006","2016-12-17 09:00","2016","12","17","09:00","-13.9","","-15.7","","86","","2","","19","","","","101.20","","","","-23","","NA"
"-73.74","45.47","MONTREAL/PIERRE ELLIOTT TRUDEAU INTL","702S006","2016-12-17 10:00","2016","12","17","10:00","-13.6","","-15.5","","86","","2","","20","","","","101.12","","","","-22","","NA"
"-73.74","45.47","MONTREAL/PIERRE ELLIOTT TRUDEAU INTL","702S006","2016-12-17 11:00","2016","12","17","11:00","-13.2","","-15.0","","86","","2","","22","","","","101.00","","","","-22","","NA"
"-73.74","45.47","MONTREAL/PIERRE ELLIOTT TRUDEAU INTL","702S006","2016-12-17 12:00","2016","12","17","12:00","-12.3","","-14.2","","86","","2","","20","","","","100.91","","","","-21","","NA"
"-73.74","45.47","MONTREAL/PIERRE ELLIOTT TRUDEAU INTL","702S006","2016-12-17 13:00","2016","12","17","13:00","-11.0","","-13.3","","84","","2","","15","","","","100.77","","","","-18","","NA"
"-73.74","45.47","MONTREAL/PIERRE ELLIOTT TRUDEAU INTL","702S006","2016-12-17 14:00","2016","12","17","14:00","-10.2","","-12.3","","84","","1","","16","","","","100.74","","","","-17","","NA"
"-73.74","45.47","MONTREAL/PIERRE ELLIOTT TRUDEAU INTL","702S006","2016-12-17 15:00","2016","12","17","15:00","-10.0","","-12.0","","85","","2","","16","","","","100.72","","","","-17","","NA"
"-73.74","45.47","MONTREAL/PIERRE ELLIOTT TRUDEAU INTL","702S006","2016-12-17 16:00","2016","12","17","16:00","-9.8","","-11.7","","86","","2","","16","","","","100.70","","","","-17","","NA"
"-73.74","45.47","MONTREAL/PIERRE ELLIOTT TRUDEAU INTL","702S006","2016-12-17 17:00","2016","12","17","17:00","-9.3","","-11.1","","87","","1","","12","","","","100.69","","","","-15","","NA"
"-73.74","45.47","MONTREAL/PIERRE ELLIOTT TRUDEAU INTL","702S006","2016-12-17 18:00","2016","12","17","18:00","-9.4","","-11.1","","87","","2","","15","","","","100.64","","","","-16","","NA"
"-73.74","45.47","MONTREAL/PIERRE ELLIOTT TRUDEAU INTL","702S006","2016-12-17 19:00","2016","12","17","19:00","-9.3","","-10.9","","88","","2","","14","","","","100.62","","","","-16","","NA"
"-73.74","45.47","MONTREAL/PIERRE ELLIOTT TRUDEAU INTL","702S006","2016-12-17 20:00","2016","12","17","20:00","-8.9","","-10.6","","88","","3","","11","","","","100.55","","","","-14","","NA"
"-73.74","45.47","MONTREAL/PIERRE ELLIOTT TRUDEAU INTL","702S006","2016-12-17 21:00","2016","12","17","21:00","-8.7","","-10.1","","89","","2","","16","","","","100.55","","","","-15","","NA"
"-73.74","45.47","MONTREAL/PIERRE ELLIOTT TRUDEAU INTL","702S006","2016-12-17 22:00","2016","12","17","22:00","-8.4","","-9.8","","89","","3","","16","","","","100.48","","","","-15","","NA"
"-73.74","45.47","MONTREAL/PIERRE ELLIOTT TRUDEAU INTL","702S006","2016-12-17 23:00","2016","12","17","23:00","-8.1","","-9.4","","90","","3","","15","","","","100.41","","","","-14","","NA"
"-73.74","45.47","MONTREAL/PIERRE ELLIOTT TRUDEAU INTL","702S006","2016-12-18 00:00","2016","12","18","00:00","-7.8","","-8.9","","92","","3","","18","","","","100.32","","","","-15","","NA"
"-73.74","45.47","MONTREAL/PIERRE ELLIOTT TRUDEAU INTL","702S006","2016-12-18 01:00","2016","12","18","01:00","-7.5","","-8.5","","92","","3","","15","","","","100.28","","","","-14","","NA"
"-73.74","45.47","MONTREAL/PIERRE ELLIOTT TRUDEAU INTL","702S006","2016-12-18 02:00","2016","12","18","02:00","-7.3","","-8.2","","93","","2","","16","","","","100.11","","","","-14","","NA"
"-73.74","45.47","MONTREAL/PIERRE ELLIOTT TRUDEAU INTL","702S006","2016-12-18 03:00","2016","12","18","03:00","-7.0","","-8.0","","93","","2","","18","","","","100.06","","","","-14","","NA"
"-73.74","45.47","MONTREAL/PIERRE ELLIOTT TRUDEAU INTL","702S006","2016-12-18 04:00","2016","12","18","04:00","-6.7","","-7.7","","93","","3","","18","","","","99.90","","","","-13","","NA"
"-73.74","45.47","MONTREAL/PIERRE ELLIOTT TRUDEAU INTL","702S006","2016-12-18 05:00","2016","12","18","05:00","-6.5","","-7.3","","94","","3","","17","","","","99.80","","","","-13","","NA"
"-73.74","45.47","MONTREAL/PIERRE ELLIOTT TRUDEAU INTL","702S006","2016-12-18 06:00","2016","12","18","06:00","-6.2","","-6.8","","95","","3","","12","","","","99.66","","","","-11","","NA"
"-73.74","45.47","MONTREAL/PIERRE ELLIOTT TRUDEAU INTL","702S006","2016-12-18 07:00","2016","12","18","07:00","-5.8","","-6.3","","96","","2","","14","","","","99.67","","","","-11","","NA"
"-73.74","45.47","MONTREAL/PIERRE ELLIOTT TRUDEAU INTL","702S006","2016-12-18 08:00","2016","12","18","08:00","-5.4","","-5.9","","96","","7","","8","","","","99.62","","","","-9","","NA"
"-73.74","45.47","MONTREAL/PIERRE ELLIOTT TRUDEAU INTL","702S006","2016-12-18 09:00","2016","12","18","09:00","-4.7","","-5.5","","94","","2","","4","","","","99.47","","","","-6","","NA"
"-73.74","45.47","MONTREAL/PIERRE ELLIOTT TRUDEAU INTL","702S006","2016-12-18 10:00","2016","12","18","10:00","-4.4","","-5.4","","92","","29","","11","","","","99.93","","","","-9","","NA"
"-73.74","45.47","MONTREAL/PIERRE ELLIOTT TRUDEAU INTL","702S006","2016-12-18 11:00","2016","12","18","11:00","-4.1","","-4.6","","97","","27","","9","","","","100.09","","","","-8","","NA"
"-73.74","45.47","MONTREAL/PIERRE ELLIOTT TRUDEAU INTL","702S006","2016-12-18 12:00","2016","12","18","12:00","-3.8","","-4.3","","97","","26","","18","","","","100.31","","","","-10","","NA"
"-73.74","45.47","MONTREAL/PIERRE ELLIOTT TRUDEAU INTL","702S006","2016-12-18 13:00","2016","12","18","13:00","-3.9","","-5.4","","89","","27","","21","","","","100.52","","","","-10","","NA"
"-73.74","45.47","MONTREAL/PIERRE ELLIOTT TRUDEAU INTL","702S006","2016-12-18 14:00","2016","12","18","14:00","-4.4","","-6.9","","83","","27","","21","","","","100.75","","","","-11","","NA"
"-73.74","45.47","MONTREAL/PIERRE ELLIOTT TRUDEAU INTL","702S006","2016-12-18 15:00","2016","12","18","15:00","-4.2","","-7.8","","76","","27","","20","","","","101.06","","","","-11","","NA"
"-73.74","45.47","MONTREAL/PIERRE ELLIOTT TRUDEAU INTL","702S006","2016-12-18 16:00","2016","12","18","16:00","-4.7","","-7.8","","79","","26","","15","","","","101.38","","","","-10","","NA"
"-73.74","45.47","MONTREAL/PIERRE ELLIOTT TRUDEAU INTL","702S006","2016-12-18 17:00","2016","12","18","17:00","-7.1","","-10.2","","79","","26","","20","","","","101.68","","","","-14","","NA"
"-73.74","45.47","MONTREAL/PIERRE ELLIOTT TRUDEAU INTL","702S006","2016-12-18 18:00","2016","12","18","18:00","-8.9","","-12.5","","75","","27","","18","","","","101.91","","","","-16","","NA"
"-73.74","45.47","MONTREAL/PIERRE ELLIOTT TRUDEAU INTL","702S006","2016-12-18 19:00","2016","12","18","19:00","-10.1","","-13.8","","74","","28","","17","","","","102.18","","","","-17","","NA"
"-73.74","45.47","MONTREAL/PIERRE ELLIOTT TRUDEAU INTL","702S006","2016-12-18 20:00","2016","12","18","20:00","-11.6","","-15.8","","71","","29","","21","","","","102.44","","","","-20","","NA"
"-73.74","45.47","MONTREAL/PIERRE ELLIOTT TRUDEAU INTL","702S006","2016-12-18 21:00","2016","12","18","21:00","-13.1","","-17.7","","68","","29","","14","","","","102.71","","","","-20","","NA"
"-73.74","45.47","MONTREAL/PIERRE ELLIOTT TRUDEAU INTL","702S006","2016-12-18 22:00","2016","12","18","22:00","-14.1","","-18.4","","70","","28","","15","","","","102.91","","","","-22","","NA"
"-73.74","45.47","MONTREAL/PIERRE ELLIOTT TRUDEAU INTL","702S006","2016-12-18 23:00","2016","12","18","23:00","-15.1","","-20.0","","66","","28","","14","","","","103.07","","","","-23","","NA"
"-73.74","45.47","MONTREAL/PIERRE ELLIOTT TRUDEAU INTL","702S006","2016-12-19 00:00","2016","12","19","00:00","-16.0","","-20.1","","71","","27","","11","","","","103.20","","","","-23","","NA"
"-73.74","45.47","MONTREAL/PIERRE ELLIOTT TRUDEAU INTL","702S006","2016-12-19 01:00","2016","12","19","01:00","-17.1","","-21.1","","71","","28","","10","","","","103.34","","","","-24","","NA"
"-73.74","45.47","MONTREAL/PIERRE ELLIOTT TRUDEAU INTL","702S006","2016-12-19 02:00","2016","12","19","02:00","-17.9","","-21.4","","74","","26","","6","","","","103.46","","","","-23","","NA"
"-73.74","45.47","MONTREAL/PIERRE ELLIOTT TRUDEAU INTL","702S006","2016-12-19 03:00","2016","12","19","03:00","-18.5","","-21.9","","74","","25","","6","","","","103.54","","","","-23","","NA"
"-73.74","45.47","MONTREAL/PIERRE ELLIOTT TRUDEAU INTL","702S006","2016-12-19 04:00","2016","12","19","04:00","-19.9","","-22.6","","79","","27","","5","","","","103.59","","","","-24","","NA"
"-73.74","45.47","MONTREAL/PIERRE ELLIOTT TRUDEAU INTL","702S006","2016-12-19 05:00","2016","12","19","05:00","-21.5","","-24.3","","78","","28","","5","","","","103.62","","","","-26","","NA"
"-73.74","45.47","MONTREAL/PIERRE ELLIOTT TRUDEAU INTL","702S006","2016-12-19 06:00","2016","12","19","06:00","-21.0","","-23.4","","81","","27","","5","","","","103.67","","","","-25","","NA"
"-73.74","45.47","MONTREAL/PIERRE ELLIOTT TRUDEAU INTL","702S006","2016-12-19 07:00","2016","12","19","07:00","-21.2","","-23.5","","81","","25","","2","","","","103.80","","","","-23","","NA"
"-73.74","45.47","MONTREAL/PIERRE ELLIOTT TRUDEAU INTL","702S006","2016-12-19 08:00","2016","12","19","08:00","-21.1","","-23.4","","82","","34","","3","","","","103.88","","","","-24","","NA"
"-73.74","45.47","MONTREAL/PIERRE ELLIOTT TRUDEAU INTL","702S006","2016-12-19 09:00","2016","12","19","09:00","-19.5","","-22.8","","75","","32","","2","","","","103.95","","","","-21","","NA"
"-73.74","45.47","MONTREAL/PIERRE ELLIOTT TRUDEAU INTL","702S006","2016-12-19 10:00","2016","12","19","10:00","-17.8","","-21.5","","73","","35","","4","","","","103.98","","","","-21","","NA"
"-73.74","45.47","MONTREAL/PIERRE ELLIOTT TRUDEAU INTL","702S006","2016-12-19 11:00","2016","12","19","11:00","-16.1","","-20.5","","69","","0","","1","","","","103.91","","","","-17","","NA"
"-73.74","45.47","MONTREAL/PIERRE ELLIOTT TRUDEAU INTL","702S006","2016-12-19 12:00","2016","12","19","12:00","-15.4","","-19.5","","70","","34","","3","","","","103.78","","","","-18","","NA"
"-73.74","45.47","MONTREAL/PIERRE ELLIOTT TRUDEAU INTL","702S006","2016-12-19 13:00","2016","12","19","13:00","-14.3","","-17.9","","74","","14","","8","","","","103.75","","","","-20","","NA"
"-73.74","45.47","MONTREAL/PIERRE ELLIOTT TRUDEAU INTL","702S006","2016-12-19 14:00","2016","12","19","14:00","-14.5","","-19.6","","65","","12","","10","","","","103.65","","","","-21","","NA"
"-73.74","45.47","MONTREAL/PIERRE ELLIOTT TRUDEAU INTL","702S006","2016-12-19 15:00","2016","12","19","15:00","-14.3","","-18.3","","71","","10","","6","","","","103.64","","","","-18","","NA"
"-73.74","45.47","MONTREAL/PIERRE ELLIOTT TRUDEAU INTL","702S006","2016-12-19 16:00","2016","12","19","16:00","-14.3","","-17.8","","75","","10","","5","","","","103.57","","","","-18","","NA"
"-73.74","45.47","MONTREAL/PIERRE ELLIOTT TRUDEAU INTL","702S006","2016-12-19 17:00","2016","12","19","17:00","-13.9","","-16.8","","79","","6","","3","","","","103.50","","","","-16","","NA"
"-73.74","45.47","MONTREAL/PIERRE ELLIOTT TRUDEAU INTL","702S006","2016-12-19 18:00","2016","12","19","18:00","-13.5","","-16.4","","79","","8","","6","","","","103.43","","","","-18","","NA"
"-73.74","45.47","MONTREAL/PIERRE ELLIOTT TRUDEAU INTL","702S006","2016-12-19 19:00","2016","12","19","19:00","-12.7","","-15.7","","78","","5","","4","","","","103.42","","","","-15","","NA"
"-73.74","45.47","MONTREAL/PIERRE ELLIOTT TRUDEAU INTL","702S006","2016-12-19 20:00","2016","12","19","20:00","-12.3","","-15.4","","77","","8","","6","","","","103.37","","","","-16","","NA"
"-73.74","45.47","MONTREAL/PIERRE ELLIOTT TRUDEAU INTL","702S006","2016-12-19 21:00","2016","12","19","21:00","-11.6","","-14.7","","78","","5","","3","","","","103.31","","","","-13","","NA"
"-73.74","45.47","MONTREAL/PIERRE ELLIOTT TRUDEAU INTL","702S006","2016-12-19 22:00","2016","12","19","22:00","-11.4","","-14.0","","81","","10","","5","","","","103.26","","","","-15","","NA"
"-73.74","45.47","MONTREAL/PIERRE ELLIOTT TRUDEAU INTL","702S006","2016-12-19 23:00","2016","12","19","23:00","-11.0","","-13.6","","81","","9","","5","","","","103.21","","","","-14","","NA"
"-73.74","45.47","MONTREAL/PIERRE ELLIOTT TRUDEAU INTL","702S006","2016-12-20 00:00","2016","12","20","00:00","-12.1","","-14.1","","85","","0","","1","","","","103.09","","","","-13","","NA"
"-73.74","45.47","MONTREAL/PIERRE ELLIOTT TRUDEAU INTL","702S006","2016-12-20 01:00","2016","12","20","01:00","-14.2","","-16.0","","86","","","","0","","","","103.00","","","","","","NA"
"-73.74","45.47","MONTREAL/PIERRE ELLIOTT TRUDEAU INTL","702S006","2016-12-20 02:00","2016","12","20","02:00","-15.0","","-16.6","","87","","1","","2","","","","103.01","","","","-16","","NA"
"-73.74","45.47","MONTREAL/PIERRE ELLIOTT TRUDEAU INTL","702S006","2016-12-20 03:00","2016","12","20","03:00","-16.7","","-18.5","","86","","33","","6","","","","103.00","","","","-21","","NA"
"-73.74","45.47","MONTREAL/PIERRE ELLIOTT TRUDEAU INTL","702S006","2016-12-20 04:00","2016","12","20","04:00","-16.2","","-17.8","","88","","","","0","","","","102.92","","","","","","NA"
"-73.74","45.47","MONTREAL/PIERRE ELLIOTT TRUDEAU INTL","702S006","2016-12-20 05:00","2016","12","20","05:00","-10.3","","-12.9","","81","","16","","17","","","","102.81","","","","-18","","NA"
"-73.74","45.47","MONTREAL/PIERRE ELLIOTT TRUDEAU INTL","702S006","2016-12-20 06:00","2016","12","20","06:00","-9.8","","-12.8","","79","","17","","15","","","","102.80","","","","-16","","NA"
"-73.74","45.47","MONTREAL/PIERRE ELLIOTT TRUDEAU INTL","702S006","2016-12-20 07:00","2016","12","20","07:00","-8.8","","-11.9","","78","","16","","16","","","","102.72","","","","-16","","NA"
"-73.74","45.47","MONTREAL/PIERRE ELLIOTT TRUDEAU INTL","702S006","2016-12-20 08:00","2016","12","20","08:00","-7.9","","-11.2","","78","","16","","15","","","","102.65","","","","-14","","NA"
"-73.74","45.47","MONTREAL/PIERRE ELLIOTT TRUDEAU INTL","702S006","2016-12-20 09:00","2016","12","20","09:00","-7.2","","-11.0","","75","","17","","16","","","","102.63","","","","-14","","NA"
"-73.74","45.47","MONTREAL/PIERRE ELLIOTT TRUDEAU INTL","702S006","2016-12-20 10:00","2016","12","20","10:00","-6.6","","-10.4","","75","","18","","18","","","","102.55","","","","-13","","NA"
"-73.74","45.47","MONTREAL/PIERRE ELLIOTT TRUDEAU INTL","702S006","2016-12-20 11:00","2016","12","20","11:00","-5.8","","-9.4","","76","","16","","15","","","","102.36","","","","-12","","NA"
"-73.74","45.47","MONTREAL/PIERRE ELLIOTT TRUDEAU INTL","702S006","2016-12-20 12:00","2016","12","20","12:00","-4.3","","-9.0","","70","","17","","17","","","","102.21","","","","-10","","NA"
"-73.74","45.47","MONTREAL/PIERRE ELLIOTT TRUDEAU INTL","702S006","2016-12-20 13:00","2016","12","20","13:00","-4.7","","-8.8","","73","","16","","19","","","","102.02","","","","-11","","NA"
"-73.74","45.47","MONTREAL/PIERRE ELLIOTT TRUDEAU INTL","702S006","2016-12-20 14:00","2016","12","20","14:00","-4.7","","-8.8","","73","","14","","20","","","","101.83","","","","-11","","NA"
"-73.74","45.47","MONTREAL/PIERRE ELLIOTT TRUDEAU INTL","702S006","2016-12-20 15:00","2016","12","20","15:00","-4.9","","-8.9","","74","","15","","21","","","","101.68","","","","-12","","NA"
"-73.74","45.47","MONTREAL/PIERRE ELLIOTT TRUDEAU INTL","702S006","2016-12-20 16:00","2016","12","20","16:00","-5.2","","-9.1","","74","","14","","13","","","","101.45","","","","-10","","NA"
"-73.74","45.47","MONTREAL/PIERRE ELLIOTT TRUDEAU INTL","702S006","2016-12-20 17:00","2016","12","20","17:00","-4.9","","-9.5","","70","","15","","24","","","","101.32","","","","-12","","NA"
"-73.74","45.47","MONTREAL/PIERRE ELLIOTT TRUDEAU INTL","702S006","2016-12-20 18:00","2016","12","20","18:00","-4.9","","-9.8","","68","","15","","29","","","","101.15","","","","-13","","NA"
"-73.74","45.47","MONTREAL/PIERRE ELLIOTT TRUDEAU INTL","702S006","2016-12-20 19:00","2016","12","20","19:00","-4.7","","-10.1","","66","","15","","27","","","","100.96","","","","-12","","NA"
"-73.74","45.47","MONTREAL/PIERRE ELLIOTT TRUDEAU INTL","702S006","2016-12-20 20:00","2016","12","20","20:00","-4.7","","-10.5","","64","","16","","25","","","","100.93","","","","-12","","NA"
"-73.74","45.47","MONTREAL/PIERRE ELLIOTT TRUDEAU INTL","702S006","2016-12-20 21:00","2016","12","20","21:00","-4.6","","-9.9","","67","","15","","22","","","","100.86","","","","-11","","NA"
"-73.74","45.47","MONTREAL/PIERRE ELLIOTT TRUDEAU INTL","702S006","2016-12-20 22:00","2016","12","20","22:00","-3.6","","-9.3","","65","","15","","16","","","","100.83","","","","-9","","NA"
"-73.74","45.47","MONTREAL/PIERRE ELLIOTT TRUDEAU INTL","702S006","2016-12-20 23:00","2016","12","20","23:00","-3.1","","-8.4","","67","","18","","14","","","","100.81","","","","-8","","NA"
"-73.74","45.47","MONTREAL/PIERRE ELLIOTT TRUDEAU INTL","702S006","2016-12-21 00:00","2016","12","21","00:00","-0.3","","-7.3","","59","","23","","18","","","","100.76","","","","-5","","NA"
"-73.74","45.47","MONTREAL/PIERRE ELLIOTT TRUDEAU INTL","702S006","2016-12-21 01:00","2016","12","21","01:00","0.9","","-5.9","","61","","23","","23","","","","100.73","","","","","","NA"
"-73.74","45.47","MONTREAL/PIERRE ELLIOTT TRUDEAU INTL","702S006","2016-12-21 02:00","2016","12","21","02:00","0.3","","-5.4","","65","","23","","20","","","","100.75","","","","","","NA"
"-73.74","45.47","MONTREAL/PIERRE ELLIOTT TRUDEAU INTL","702S006","2016-12-21 03:00","2016","12","21","03:00","0.7","","-4.7","","67","","23","","26","","","","100.76","","","","","","NA"
"-73.74","45.47","MONTREAL/PIERRE ELLIOTT TRUDEAU INTL","702S006","2016-12-21 04:00","2016","12","21","04:00","0.6","","-4.3","","70","","24","","21","","","","100.74","","","","","","NA"
"-73.74","45.47","MONTREAL/PIERRE ELLIOTT TRUDEAU INTL","702S006","2016-12-21 05:00","2016","12","21","05:00","0.6","","-3.8","","72","","23","","21","","","","100.77","","","","","","NA"
"-73.74","45.47","MONTREAL/PIERRE ELLIOTT TRUDEAU INTL","702S006","2016-12-21 06:00","2016","12","21","06:00","0.7","","-3.6","","73","","24","","22","","","","100.81","","","","","","NA"
"-73.74","45.47","MONTREAL/PIERRE ELLIOTT TRUDEAU INTL","702S006","2016-12-21 07:00","2016","12","21","07:00","0.8","","-4.1","","70","","24","","22","","","","100.88","","","","","","NA"
"-73.74","45.47","MONTREAL/PIERRE ELLIOTT TRUDEAU INTL","702S006","2016-12-21 08:00","2016","12","21","08:00","0.3","","-4.4","","70","","24","","24","","","","100.94","","","","","","NA"
"-73.74","45.47","MONTREAL/PIERRE ELLIOTT TRUDEAU INTL","702S006","2016-12-21 09:00","2016","12","21","09:00","0.3","","-4.3","","72","","24","","22","","","","100.98","","","","","","NA"
"-73.74","45.47","MONTREAL/PIERRE ELLIOTT TRUDEAU INTL","702S006","2016-12-21 10:00","2016","12","21","10:00","0.4","","-4.1","","72","","24","","16","","","","101.00","","","","","","NA"
"-73.74","45.47","MONTREAL/PIERRE ELLIOTT TRUDEAU INTL","702S006","2016-12-21 11:00","2016","12","21","11:00","1.0","","-3.9","","70","","25","","25","","","","101.02","","","","","","NA"
"-73.74","45.47","MONTREAL/PIERRE ELLIOTT TRUDEAU INTL","702S006","2016-12-21 12:00","2016","12","21","12:00","1.5","","-3.6","","68","","25","","31","","","","101.00","","","","","","NA"
"-73.74","45.47","MONTREAL/PIERRE ELLIOTT TRUDEAU INTL","702S006","2016-12-21 13:00","2016","12","21","13:00","1.9","","-3.4","","68","","25","","28","","","","101.02","","","","","","NA"
"-73.74","45.47","MONTREAL/PIERRE ELLIOTT TRUDEAU INTL","702S006","2016-12-21 14:00","2016","12","21","14:00","2.3","","-3.4","","66","","26","","28","","","","101.05","","","","","","NA"
"-73.74","45.47","MONTREAL/PIERRE ELLIOTT TRUDEAU INTL","702S006","2016-12-21 15:00","2016","12","21","15:00","2.5","","-3.4","","65","","25","","24","","","","101.14","","","","","","NA"
"-73.74","45.47","MONTREAL/PIERRE ELLIOTT TRUDEAU INTL","702S006","2016-12-21 16:00","2016","12","21","16:00","2.0","","-3.4","","67","","24","","15","","","","101.20","","","","","","NA"
"-73.74","45.47","MONTREAL/PIERRE ELLIOTT TRUDEAU INTL","702S006","2016-12-21 17:00","2016","12","21","17:00","1.4","","-3.3","","71","","24","","11","","","","101.24","","","","","","NA"
"-73.74","45.47","MONTREAL/PIERRE ELLIOTT TRUDEAU INTL","702S006","2016-12-21 18:00","2016","12","21","18:00","1.6","","-3.2","","71","","24","","12","","","","101.27","","","","","","NA"
"-73.74","45.47","MONTREAL/PIERRE ELLIOTT TRUDEAU INTL","702S006","2016-12-21 19:00","2016","12","21","19:00","1.3","","-2.5","","76","","24","","14","","","","101.32","","","","","","NA"
"-73.74","45.47","MONTREAL/PIERRE ELLIOTT TRUDEAU INTL","702S006","2016-12-21 20:00","2016","12","21","20:00","0.7","","-2.3","","81","","23","","16","","","","101.34","","","","","","NA"
"-73.74","45.47","MONTREAL/PIERRE ELLIOTT TRUDEAU INTL","702S006","2016-12-21 21:00","2016","12","21","21:00","0.6","","-2.0","","83","","22","","12","","","","101.34","","","","","","NA"
"-73.74","45.47","MONTREAL/PIERRE ELLIOTT TRUDEAU INTL","702S006","2016-12-21 22:00","2016","12","21","22:00","0.8","","-1.8","","83","","24","","15","","","","101.35","","","","","","NA"
"-73.74","45.47","MONTREAL/PIERRE ELLIOTT TRUDEAU INTL","702S006","2016-12-21 23:00","2016","12","21","23:00","0.9","","-1.5","","84","","22","","12","","","","101.31","","","","","","NA"
"-73.74","45.47","MONTREAL/PIERRE ELLIOTT TRUDEAU INTL","702S006","2016-12-22 00:00","2016","12","22","00:00","0.8","","-1.6","","84","","22","","11","","","","101.28","","","","","","NA"
"-73.74","45.47","MONTREAL/PIERRE ELLIOTT TRUDEAU INTL","702S006","2016-12-22 01:00","2016","12","22","01:00","0.8","","-1.5","","85","","22","","9","","","","101.23","","","","","","NA"
"-73.74","45.47","MONTREAL/PIERRE ELLIOTT TRUDEAU INTL","702S006","2016-12-22 02:00","2016","12","22","02:00","0.5","","-1.9","","84","","20","","8","","","","101.20","","","","","","NA"
"-73.74","45.47","MONTREAL/PIERRE ELLIOTT TRUDEAU INTL","702S006","2016-12-22 03:00","2016","12","22","03:00","-0.3","","-1.9","","89","","15","","6","","","","101.12","","","","-2","","NA"
"-73.74","45.47","MONTREAL/PIERRE ELLIOTT TRUDEAU INTL","702S006","2016-12-22 04:00","2016","12","22","04:00","0.2","","-1.9","","85","","19","","6","","","","101.05","","","","","","NA"
"-73.74","45.47","MONTREAL/PIERRE ELLIOTT TRUDEAU INTL","702S006","2016-12-22 05:00","2016","12","22","05:00","0.7","","-1.8","","83","","18","","9","","","","100.96","","","","","","NA"
"-73.74","45.47","MONTREAL/PIERRE ELLIOTT TRUDEAU INTL","702S006","2016-12-22 06:00","2016","12","22","06:00","0.8","","-1.9","","82","","18","","11","","","","100.94","","","","","","NA"
"-73.74","45.47","MONTREAL/PIERRE ELLIOTT TRUDEAU INTL","702S006","2016-12-22 07:00","2016","12","22","07:00","-0.2","","-0.8","","95","","17","","9","","","","100.91","","","","-3","","NA"
"-73.74","45.47","MONTREAL/PIERRE ELLIOTT TRUDEAU INTL","702S006","2016-12-22 08:00","2016","12","22","08:00","-0.3","","-0.7","","97","","14","","10","","","","100.90","","","","-4","","NA"
"-73.74","45.47","MONTREAL/PIERRE ELLIOTT TRUDEAU INTL","702S006","2016-12-22 09:00","2016","12","22","09:00","-0.2","","-0.6","","97","","13","","8","","","","100.89","","","","-3","","NA"
"-73.74","45.47","MONTREAL/PIERRE ELLIOTT TRUDEAU INTL","702S006","2016-12-22 10:00","2016","12","22","10:00","0.1","","-0.5","","96","","14","","8","","","","100.90","","","","","","NA"
"-73.74","45.47","MONTREAL/PIERRE ELLIOTT TRUDEAU INTL","702S006","2016-12-22 11:00","2016","12","22","11:00","0.0","","-0.5","","97","","15","","5","","","","100.85","","","","-2","","NA"
"-73.74","45.47","MONTREAL/PIERRE ELLIOTT TRUDEAU INTL","702S006","2016-12-22 12:00","2016","12","22","12:00","0.5","","-0.2","","95","","16","","3","","","","100.78","","","","","","NA"
"-73.74","45.47","MONTREAL/PIERRE ELLIOTT TRUDEAU INTL","702S006","2016-12-22 13:00","2016","12","22","13:00","0.7","","-0.3","","93","","","","0","","","","100.77","","","","","","NA"
"-73.74","45.47","MONTREAL/PIERRE ELLIOTT TRUDEAU INTL","702S006","2016-12-22 14:00","2016","12","22","14:00","0.5","","-0.5","","93","","26","","6","","","","100.79","","","","","","NA"
"-73.74","45.47","MONTREAL/PIERRE ELLIOTT TRUDEAU INTL","702S006","2016-12-22 15:00","2016","12","22","15:00","0.8","","0.0","","94","","27","","3","","","","100.90","","","","","","NA"
"-73.74","45.47","MONTREAL/PIERRE ELLIOTT TRUDEAU INTL","702S006","2016-12-22 16:00","2016","12","22","16:00","0.9","","-0.2","","92","","27","","8","","","","100.98","","","","","","NA"
"-73.74","45.47","MONTREAL/PIERRE ELLIOTT TRUDEAU INTL","702S006","2016-12-22 17:00","2016","12","22","17:00","0.8","","-0.3","","92","","26","","7","","","","101.07","","","","","","NA"
"-73.74","45.47","MONTREAL/PIERRE ELLIOTT TRUDEAU INTL","702S006","2016-12-22 18:00","2016","12","22","18:00","0.9","","-0.3","","92","","26","","10","","","","101.19","","","","","","NA"
"-73.74","45.47","MONTREAL/PIERRE ELLIOTT TRUDEAU INTL","702S006","2016-12-22 19:00","2016","12","22","19:00","0.7","","-0.6","","91","","28","","11","","","","101.24","","","","","","NA"
"-73.74","45.47","MONTREAL/PIERRE ELLIOTT TRUDEAU INTL","702S006","2016-12-22 20:00","2016","12","22","20:00","0.7","","-0.8","","90","","28","","13","","","","101.34","","","","","","NA"
"-73.74","45.47","MONTREAL/PIERRE ELLIOTT TRUDEAU INTL","702S006","2016-12-22 21:00","2016","12","22","21:00","0.5","","-1.0","","90","","28","","15","","","","101.42","","","","","","NA"
"-73.74","45.47","MONTREAL/PIERRE ELLIOTT TRUDEAU INTL","702S006","2016-12-22 22:00","2016","12","22","22:00","0.9","","-1.3","","85","","27","","15","","","","101.48","","","","","","NA"
"-73.74","45.47","MONTREAL/PIERRE ELLIOTT TRUDEAU INTL","702S006","2016-12-22 23:00","2016","12","22","23:00","0.7","","-1.6","","84","","25","","12","","","","101.55","","","","","","NA"
"-73.74","45.47","MONTREAL/PIERRE ELLIOTT TRUDEAU INTL","702S006","2016-12-23 00:00","2016","12","23","00:00","0.5","","-1.6","","86","","26","","10","","","","101.58","","","","","","NA"
"-73.74","45.47","MONTREAL/PIERRE ELLIOTT TRUDEAU INTL","702S006","2016-12-23 01:00","2016","12","23","01:00","0.2","","-1.9","","86","","26","","14","","","","101.63","","","","","","NA"
"-73.74","45.47","MONTREAL/PIERRE ELLIOTT TRUDEAU INTL","702S006","2016-12-23 02:00","2016","12","23","02:00","0.3","","-2.3","","83","","27","","10","","","","101.69","","","","","","NA"
"-73.74","45.47","MONTREAL/PIERRE ELLIOTT TRUDEAU INTL","702S006","2016-12-23 03:00","2016","12","23","03:00","-0.1","","-2.7","","83","","24","","17","","","","101.69","","","","-5","","NA"
"-73.74","45.47","MONTREAL/PIERRE ELLIOTT TRUDEAU INTL","702S006","2016-12-23 04:00","2016","12","23","04:00","0.2","","-1.9","","86","","23","","18","","","","101.67","","","","","","NA"
"-73.74","45.47","MONTREAL/PIERRE ELLIOTT TRUDEAU INTL","702S006","2016-12-23 05:00","2016","12","23","05:00","0.6","","-1.5","","86","","22","","15","","","","101.67","","","","","","NA"
"-73.74","45.47","MONTREAL/PIERRE ELLIOTT TRUDEAU INTL","702S006","2016-12-23 06:00","2016","12","23","06:00","0.9","","-1.5","","84","","24","","14","","","","101.73","","","","","","NA"
"-73.74","45.47","MONTREAL/PIERRE ELLIOTT TRUDEAU INTL","702S006","2016-12-23 07:00","2016","12","23","07:00","1.1","","-1.8","","81","","24","","18","","","","101.79","","","","","","NA"
"-73.74","45.47","MONTREAL/PIERRE ELLIOTT TRUDEAU INTL","702S006","2016-12-23 08:00","2016","12","23","08:00","1.0","","-2.0","","80","","25","","20","","","","101.83","","","","","","NA"
"-73.74","45.47","MONTREAL/PIERRE ELLIOTT TRUDEAU INTL","702S006","2016-12-23 09:00","2016","12","23","09:00","1.1","","-2.0","","79","","25","","23","","","","101.85","","","","","","NA"
"-73.74","45.47","MONTREAL/PIERRE ELLIOTT TRUDEAU INTL","702S006","2016-12-23 10:00","2016","12","23","10:00","1.0","","-1.8","","82","","25","","21","","","","101.87","","","","","","NA"
"-73.74","45.47","MONTREAL/PIERRE ELLIOTT TRUDEAU INTL","702S006","2016-12-23 11:00","2016","12","23","11:00","1.1","","-1.7","","82","","25","","22","","","","101.88","","","","","","NA"
"-73.74","45.47","MONTREAL/PIERRE ELLIOTT TRUDEAU INTL","702S006","2016-12-23 12:00","2016","12","23","12:00","1.4","","-1.9","","78","","26","","24","","","","101.84","","","","","","NA"
"-73.74","45.47","MONTREAL/PIERRE ELLIOTT TRUDEAU INTL","702S006","2016-12-23 13:00","2016","12","23","13:00","1.4","","-2.1","","77","","26","","21","","","","101.85","","","","","","NA"
"-73.74","45.47","MONTREAL/PIERRE ELLIOTT TRUDEAU INTL","702S006","2016-12-23 14:00","2016","12","23","14:00","1.3","","-2.6","","75","","25","","22","","","","101.87","","","","","","NA"
"-73.74","45.47","MONTREAL/PIERRE ELLIOTT TRUDEAU INTL","702S006","2016-12-23 15:00","2016","12","23","15:00","1.8","","-2.1","","75","","27","","15","","","","101.87","","","","","","NA"
"-73.74","45.47","MONTREAL/PIERRE ELLIOTT TRUDEAU INTL","702S006","2016-12-23 16:00","2016","12","23","16:00","2.3","","-2.0","","73","","24","","12","","","","101.85","","","","","","NA"
"-73.74","45.47","MONTREAL/PIERRE ELLIOTT TRUDEAU INTL","702S006","2016-12-23 17:00","2016","12","23","17:00","1.8","","-1.0","","81","","20","","13","","","","101.87","","","","","","NA"
"-73.74","45.47","MONTREAL/PIERRE ELLIOTT TRUDEAU INTL","702S006","2016-12-23 18:00","2016","12","23","18:00","1.2","","-1.6","","81","","19","","13","","","","101.86","","","","","","NA"
"-73.74","45.47","MONTREAL/PIERRE ELLIOTT TRUDEAU INTL","702S006","2016-12-23 19:00","2016","12","23","19:00","1.2","","-1.2","","84","","19","","12","","","","101.84","","","","","","NA"
"-73.74","45.47","MONTREAL/PIERRE ELLIOTT TRUDEAU INTL","702S006","2016-12-23 20:00","2016","12","23","20:00","1.4","","-1.2","","83","","20","","14","","","","101.82","","","","","","NA"
"-73.74","45.47","MONTREAL/PIERRE ELLIOTT TRUDEAU INTL","702S006","2016-12-23 21:00","2016","12","23","21:00","2.0","","-2.3","","73","","23","","14","","","","101.78","","","","","","NA"
"-73.74","45.47","MONTREAL/PIERRE ELLIOTT TRUDEAU INTL","702S006","2016-12-23 22:00","2016","12","23","22:00","2.0","","-2.4","","72","","24","","13","","","","101.78","","","","","","NA"
"-73.74","45.47","MONTREAL/PIERRE ELLIOTT TRUDEAU INTL","702S006","2016-12-23 23:00","2016","12","23","23:00","2.0","","-2.6","","71","","22","","14","","","","101.75","","","","","","NA"
"-73.74","45.47","MONTREAL/PIERRE ELLIOTT TRUDEAU INTL","702S006","2016-12-24 00:00","2016","12","24","00:00","1.8","","-2.4","","74","","21","","13","","","","101.69","","","","","","NA"
"-73.74","45.47","MONTREAL/PIERRE ELLIOTT TRUDEAU INTL","702S006","2016-12-24 01:00","2016","12","24","01:00","1.4","","-2.4","","76","","19","","11","","","","101.62","","","","","","NA"
"-73.74","45.47","MONTREAL/PIERRE ELLIOTT TRUDEAU INTL","702S006","2016-12-24 02:00","2016","12","24","02:00","1.5","","-3.2","","71","","20","","13","","","","101.68","","","","","","NA"
"-73.74","45.47","MONTREAL/PIERRE ELLIOTT TRUDEAU INTL","702S006","2016-12-24 03:00","2016","12","24","03:00","0.3","","-3.7","","75","","12","","7","","","","101.56","","","","","","NA"
"-73.74","45.47","MONTREAL/PIERRE ELLIOTT TRUDEAU INTL","702S006","2016-12-24 04:00","2016","12","24","04:00","0.2","","-4.1","","73","","10","","12","","","","101.37","","","","","","NA"
"-73.74","45.47","MONTREAL/PIERRE ELLIOTT TRUDEAU INTL","702S006","2016-12-24 05:00","2016","12","24","05:00","0.9","","-3.9","","70","","7","","8","","","","101.19","","","","","","NA"
"-73.74","45.47","MONTREAL/PIERRE ELLIOTT TRUDEAU INTL","702S006","2016-12-24 06:00","2016","12","24","06:00","0.8","","-3.6","","73","","9","","4","","","","101.16","","","","","","NA"
"-73.74","45.47","MONTREAL/PIERRE ELLIOTT TRUDEAU INTL","702S006","2016-12-24 07:00","2016","12","24","07:00","1.1","","-3.6","","71","","17","","8","","","","101.03","","","","","","NA"
"-73.74","45.47","MONTREAL/PIERRE ELLIOTT TRUDEAU INTL","702S006","2016-12-24 08:00","2016","12","24","08:00","0.0","","-2.6","","82","","31","","11","","","","101.00","","","","-4","","NA"
"-73.74","45.47","MONTREAL/PIERRE ELLIOTT TRUDEAU INTL","702S006","2016-12-24 09:00","2016","12","24","09:00","0.1","","-1.0","","92","","35","","2","","","","100.92","","","","","","NA"
"-73.74","45.47","MONTREAL/PIERRE ELLIOTT TRUDEAU INTL","702S006","2016-12-24 10:00","2016","12","24","10:00","0.1","","-0.3","","97","","15","","13","","","","100.84","","","","","","NA"
"-73.74","45.47","MONTREAL/PIERRE ELLIOTT TRUDEAU INTL","702S006","2016-12-24 11:00","2016","12","24","11:00","0.1","","-0.2","","98","","16","","13","","","","100.77","","","","","","NA"
"-73.74","45.47","MONTREAL/PIERRE ELLIOTT TRUDEAU INTL","702S006","2016-12-24 12:00","2016","12","24","12:00","0.6","","0.4","","98","","18","","15","","","","100.72","","","","","","NA"
"-73.74","45.47","MONTREAL/PIERRE ELLIOTT TRUDEAU INTL","702S006","2016-12-24 13:00","2016","12","24","13:00","2.4","","1.1","","91","","25","","22","","","","100.71","","","","","","NA"
"-73.74","45.47","MONTREAL/PIERRE ELLIOTT TRUDEAU INTL","702S006","2016-12-24 14:00","2016","12","24","14:00","2.7","","1.0","","89","","25","","20","","","","100.80","","","","","","NA"
"-73.74","45.47","MONTREAL/PIERRE ELLIOTT TRUDEAU INTL","702S006","2016-12-24 15:00","2016","12","24","15:00","2.9","","0.0","","81","","27","","23","","","","100.93","","","","","","NA"
"-73.74","45.47","MONTREAL/PIERRE ELLIOTT TRUDEAU INTL","702S006","2016-12-24 16:00","2016","12","24","16:00","3.0","","-0.2","","80","","26","","21","","","","101.06","","","","","","NA"
"-73.74","45.47","MONTREAL/PIERRE ELLIOTT TRUDEAU INTL","702S006","2016-12-24 17:00","2016","12","24","17:00","2.9","","-0.3","","80","","26","","19","","","","101.19","","","","","","NA"
"-73.74","45.47","MONTREAL/PIERRE ELLIOTT TRUDEAU INTL","702S006","2016-12-24 18:00","2016","12","24","18:00","2.7","","-0.7","","78","","25","","21","","","","101.31","","","","","","NA"
"-73.74","45.47","MONTREAL/PIERRE ELLIOTT TRUDEAU INTL","702S006","2016-12-24 19:00","2016","12","24","19:00","2.8","","-1.0","","76","","25","","21","","","","101.40","","","","","","NA"
"-73.74","45.47","MONTREAL/PIERRE ELLIOTT TRUDEAU INTL","702S006","2016-12-24 20:00","2016","12","24","20:00","2.9","","-0.8","","76","","24","","16","","","","101.45","","","","","","NA"
"-73.74","45.47","MONTREAL/PIERRE ELLIOTT TRUDEAU INTL","702S006","2016-12-24 21:00","2016","12","24","21:00","2.7","","-0.7","","78","","24","","17","","","","101.52","","","","","","NA"
"-73.74","45.47","MONTREAL/PIERRE ELLIOTT TRUDEAU INTL","702S006","2016-12-24 22:00","2016","12","24","22:00","2.9","","-0.6","","78","","25","","17","","","","101.59","","","","","","NA"
"-73.74","45.47","MONTREAL/PIERRE ELLIOTT TRUDEAU INTL","702S006","2016-12-24 23:00","2016","12","24","23:00","3.0","","-0.7","","76","","25","","22","","","","101.62","","","","","","NA"
"-73.74","45.47","MONTREAL/PIERRE ELLIOTT TRUDEAU INTL","702S006","2016-12-25 00:00","2016","12","25","00:00","3.0","","-0.8","","76","","26","","22","","","","101.63","","","","","","NA"
"-73.74","45.47","MONTREAL/PIERRE ELLIOTT TRUDEAU INTL","702S006","2016-12-25 01:00","2016","12","25","01:00","2.8","","-0.7","","77","","26","","20","","","","101.72","","","","","","NA"
"-73.74","45.47","MONTREAL/PIERRE ELLIOTT TRUDEAU INTL","702S006","2016-12-25 02:00","2016","12","25","02:00","1.4","","-0.4","","88","","30","","28","","","","101.93","","","","","","NA"
"-73.74","45.47","MONTREAL/PIERRE ELLIOTT TRUDEAU INTL","702S006","2016-12-25 03:00","2016","12","25","03:00","0.1","","-4.6","","70","","29","","27","","","","102.07","","","","","","NA"
"-73.74","45.47","MONTREAL/PIERRE ELLIOTT TRUDEAU INTL","702S006","2016-12-25 04:00","2016","12","25","04:00","-1.9","","-7.7","","65","","31","","29","","","","102.23","","","","-9","","NA"
"-73.74","45.47","MONTREAL/PIERRE ELLIOTT TRUDEAU INTL","702S006","2016-12-25 05:00","2016","12","25","05:00","-1.9","","-7.7","","65","","31","","20","","","","102.37","","","","-8","","NA"
"-73.74","45.47","MONTREAL/PIERRE ELLIOTT TRUDEAU INTL","702S006","2016-12-25 06:00","2016","12","25","06:00","-3.0","","-7.7","","70","","29","","16","","","","102.56","","","","-8","","NA"
"-73.74","45.47","MONTREAL/PIERRE ELLIOTT TRUDEAU INTL","702S006","2016-12-25 07:00","2016","12","25","07:00","-3.7","","-9.3","","65","","31","","23","","","","102.77","","","","-10","","NA"
"-73.74","45.47","MONTREAL/PIERRE ELLIOTT TRUDEAU INTL","702S006","2016-12-25 08:00","2016","12","25","08:00","-5.1","","-10.7","","65","","30","","26","","","","103.00","","","","-13","","NA"
"-73.74","45.47","MONTREAL/PIERRE ELLIOTT TRUDEAU INTL","702S006","2016-12-25 09:00","2016","12","25","09:00","-5.5","","-11.3","","63","","31","","21","","","","103.20","","","","-12","","NA"
"-73.74","45.47","MONTREAL/PIERRE ELLIOTT TRUDEAU INTL","702S006","2016-12-25 10:00","2016","12","25","10:00","-5.3","","-12.4","","57","","32","","20","","","","103.35","","","","-12","","NA"
"-73.74","45.47","MONTREAL/PIERRE ELLIOTT TRUDEAU INTL","702S006","2016-12-25 11:00","2016","12","25","11:00","-5.0","","-12.4","","56","","33","","18","","","","103.40","","","","-11","","NA"
"-73.74","45.47","MONTREAL/PIERRE ELLIOTT TRUDEAU INTL","702S006","2016-12-25 12:00","2016","12","25","12:00","-4.6","","-14.7","","45","","34","","20","","","","103.41","","","","-11","","NA"
"-73.74","45.47","MONTREAL/PIERRE ELLIOTT TRUDEAU INTL","702S006","2016-12-25 13:00","2016","12","25","13:00","-4.2","","-15.4","","41","","34","","13","","","","103.45","","","","-9","","NA"
"-73.74","45.47","MONTREAL/PIERRE ELLIOTT TRUDEAU INTL","702S006","2016-12-25 14:00","2016","12","25","14:00","-4.3","","-15.8","","40","","34","","14","","","","103.49","","","","-9","","NA"
"-73.74","45.47","MONTREAL/PIERRE ELLIOTT TRUDEAU INTL","702S006","2016-12-25 15:00","2016","12","25","15:00","-4.2","","-16.5","","38","","31","","12","","","","103.54","","","","-9","","NA"
"-73.74","45.47","MONTREAL/PIERRE ELLIOTT TRUDEAU INTL","702S006","2016-12-25 16:00","2016","12","25","16:00","-5.5","","-15.7","","45","","33","","8","","","","103.59","","","","-9","","NA"
"-73.74","45.47","MONTREAL/PIERRE ELLIOTT TRUDEAU INTL","702S006","2016-12-25 17:00","2016","12","25","17:00","-6.5","","-15.7","","48","","33","","3","","","","103.66","","","","-8","","NA"
"-73.74","45.47","MONTREAL/PIERRE ELLIOTT TRUDEAU INTL","702S006","2016-12-25 18:00","2016","12","25","18:00","-5.8","","-16.1","","44","","4","","4","","","","103.75","","","","-8","","NA"
"-73.74","45.47","MONTREAL/PIERRE ELLIOTT TRUDEAU INTL","702S006","2016-12-25 19:00","2016","12","25","19:00","-5.6","","-16.8","","41","","4","","14","","","","103.83","","","","-11","","NA"
"-73.74","45.47","MONTREAL/PIERRE ELLIOTT TRUDEAU INTL","702S006","2016-12-25 20:00","2016","12","25","20:00","-6.7","","-17.2","","43","","4","","15","","","","103.92","","","","-13","","NA"
"-73.74","45.47","MONTREAL/PIERRE ELLIOTT TRUDEAU INTL","702S006","2016-12-25 21:00","2016","12","25","21:00","-7.6","","-16.8","","48","","4","","15","","","","103.95","","","","-14","","NA"
"-73.74","45.47","MONTREAL/PIERRE ELLIOTT TRUDEAU INTL","702S006","2016-12-25 22:00","2016","12","25","22:00","-8.5","","-16.6","","52","","3","","12","","","","104.00","","","","-14","","NA"
"-73.74","45.47","MONTREAL/PIERRE ELLIOTT TRUDEAU INTL","702S006","2016-12-25 23:00","2016","12","25","23:00","-9.1","","-16.6","","54","","4","","14","","","","104.07","","","","-15","","NA"
"-73.74","45.47","MONTREAL/PIERRE ELLIOTT TRUDEAU INTL","702S006","2016-12-26 00:00","2016","12","26","00:00","-10.4","","-16.3","","62","","2","","11","","","","104.05","","","","-16","","NA"
"-73.74","45.47","MONTREAL/PIERRE ELLIOTT TRUDEAU INTL","702S006","2016-12-26 01:00","2016","12","26","01:00","-10.3","","-16.2","","62","","3","","13","","","","104.07","","","","-17","","NA"
"-73.74","45.47","MONTREAL/PIERRE ELLIOTT TRUDEAU INTL","702S006","2016-12-26 02:00","2016","12","26","02:00","-10.7","","-16.2","","64","","4","","13","","","","104.08","","","","-17","","NA"
"-73.74","45.47","MONTREAL/PIERRE ELLIOTT TRUDEAU INTL","702S006","2016-12-26 03:00","2016","12","26","03:00","-10.9","","-16.4","","64","","5","","14","","","","103.97","","","","-18","","NA"
"-73.74","45.47","MONTREAL/PIERRE ELLIOTT TRUDEAU INTL","702S006","2016-12-26 04:00","2016","12","26","04:00","-11.3","","-16.8","","64","","5","","15","","","","103.91","","","","-18","","NA"
"-73.74","45.47","MONTREAL/PIERRE ELLIOTT TRUDEAU INTL","702S006","2016-12-26 05:00","2016","12","26","05:00","-11.6","","-16.8","","65","","5","","16","","","","103.84","","","","-19","","NA"
"-73.74","45.47","MONTREAL/PIERRE ELLIOTT TRUDEAU INTL","702S006","2016-12-26 06:00","2016","12","26","06:00","-11.9","","-16.7","","68","","4","","15","","","","103.72","","","","-19","","NA"
"-73.74","45.47","MONTREAL/PIERRE ELLIOTT TRUDEAU INTL","702S006","2016-12-26 07:00","2016","12","26","07:00","-12.1","","-16.8","","68","","5","","19","","","","103.64","","","","-20","","NA"
"-73.74","45.47","MONTREAL/PIERRE ELLIOTT TRUDEAU INTL","702S006","2016-12-26 08:00","2016","12","26","08:00","-12.2","","-16.7","","69","","4","","22","","","","103.55","","","","-21","","NA"
"-73.74","45.47","MONTREAL/PIERRE ELLIOTT TRUDEAU INTL","702S006","2016-12-26 09:00","2016","12","26","09:00","-11.8","","-16.0","","71","","4","","18","","","","103.44","","","","-20","","NA"
"-73.74","45.47","MONTREAL/PIERRE ELLIOTT TRUDEAU INTL","702S006","2016-12-26 10:00","2016","12","26","10:00","-11.3","","-15.5","","71","","4","","14","","","","103.20","","","","-18","","NA"
"-73.74","45.47","MONTREAL/PIERRE ELLIOTT TRUDEAU INTL","702S006","2016-12-26 11:00","2016","12","26","11:00","-10.8","","-15.5","","68","","4","","14","","","","102.94","","","","-17","","NA"
"-73.74","45.47","MONTREAL/PIERRE ELLIOTT TRUDEAU INTL","702S006","2016-12-26 12:00","2016","12","26","12:00","-10.1","","-14.4","","70","","4","","13","","","","102.67","","","","-16","","NA"
"-73.74","45.47","MONTREAL/PIERRE ELLIOTT TRUDEAU INTL","702S006","2016-12-26 13:00","2016","12","26","13:00","-7.0","","-12.9","","63","","6","","12","","","","102.24","","","","-12","","NA"
"-73.74","45.47","MONTREAL/PIERRE ELLIOTT TRUDEAU INTL","702S006","2016-12-26 14:00","2016","12","26","14:00","-5.5","","-10.0","","71","","4","","13","","","","102.01","","","","-11","","NA"
"-73.74","45.47","MONTREAL/PIERRE ELLIOTT TRUDEAU INTL","702S006","2016-12-26 15:00","2016","12","26","15:00","-3.0","","-6.2","","79","","8","","6","","","","101.65","","","","-5","","NA"
"-73.74","45.47","MONTREAL/PIERRE ELLIOTT TRUDEAU INTL","702S006","2016-12-26 16:00","2016","12","26","16:00","-0.7","","-3.6","","81","","14","","13","","","","101.58","","","","-5","","NA"
"-73.74","45.47","MONTREAL/PIERRE ELLIOTT TRUDEAU INTL","702S006","2016-12-26 17:00","2016","12","26","17:00","-3.1","","-3.5","","97","","3","","7","","","","101.37","","","","-6","","NA"
"-73.74","45.47","MONTREAL/PIERRE ELLIOTT TRUDEAU INTL","702S006","2016-12-26 18:00","2016","12","26","18:00","0.2","","-0.4","","96","","14","","5","","","","101.20","","","","","","NA"
"-73.74","45.47","MONTREAL/PIERRE ELLIOTT TRUDEAU INTL","702S006","2016-12-26 19:00","2016","12","26","19:00","0.5","","-0.3","","95","","15","","9","","","","101.01","","","","","","NA"
"-73.74","45.47","MONTREAL/PIERRE ELLIOTT TRUDEAU INTL","702S006","2016-12-26 20:00","2016","12","26","20:00","0.7","","0.0","","95","","15","","11","","","","100.80","","","","","","NA"
"-73.74","45.47","MONTREAL/PIERRE ELLIOTT TRUDEAU INTL","702S006","2016-12-26 21:00","2016","12","26","21:00","0.9","","0.3","","96","","14","","22","","","","100.49","","","","","","NA"
"-73.74","45.47","MONTREAL/PIERRE ELLIOTT TRUDEAU INTL","702S006","2016-12-26 22:00","2016","12","26","22:00","1.5","","0.7","","95","","15","","16","","","","100.34","","","","","","NA"
"-73.74","45.47","MONTREAL/PIERRE ELLIOTT TRUDEAU INTL","702S006","2016-12-26 23:00","2016","12","26","23:00","1.4","","1.0","","97","","15","","32","","","","100.06","","","","","","NA"
"-73.74","45.47","MONTREAL/PIERRE ELLIOTT TRUDEAU INTL","702S006","2016-12-27 00:00","2016","12","27","00:00","1.7","","1.3","","97","","15","","29","","","","99.86","","","","","","NA"
"-73.74","45.47","MONTREAL/PIERRE ELLIOTT TRUDEAU INTL","702S006","2016-12-27 01:00","2016","12","27","01:00","2.0","","1.6","","97","","15","","22","","","","99.63","","","","","","NA"
"-73.74","45.47","MONTREAL/PIERRE ELLIOTT TRUDEAU INTL","702S006","2016-12-27 02:00","2016","12","27","02:00","2.5","","2.2","","98","","16","","18","","","","99.62","","","","","","NA"
"-73.74","45.47","MONTREAL/PIERRE ELLIOTT TRUDEAU INTL","702S006","2016-12-27 03:00","2016","12","27","03:00","6.8","","6.6","","98","","24","","17","","","","99.57","","","","","","NA"
"-73.74","45.47","MONTREAL/PIERRE ELLIOTT TRUDEAU INTL","702S006","2016-12-27 04:00","2016","12","27","04:00","7.1","","4.8","","86","","22","","31","","","","99.44","","","","","","NA"
"-73.74","45.47","MONTREAL/PIERRE ELLIOTT TRUDEAU INTL","702S006","2016-12-27 05:00","2016","12","27","05:00","7.1","","3.3","","76","","24","","32","","","","99.47","","","","","","NA"
"-73.74","45.47","MONTREAL/PIERRE ELLIOTT TRUDEAU INTL","702S006","2016-12-27 06:00","2016","12","27","06:00","6.1","","2.1","","75","","26","","28","","","","99.66","","","","","","NA"
"-73.74","45.47","MONTREAL/PIERRE ELLIOTT TRUDEAU INTL","702S006","2016-12-27 07:00","2016","12","27","07:00","5.5","","-0.7","","64","","26","","31","","","","99.78","","","","","","NA"
"-73.74","45.47","MONTREAL/PIERRE ELLIOTT TRUDEAU INTL","702S006","2016-12-27 08:00","2016","12","27","08:00","4.8","","-1.4","","64","","25","","32","","","","99.82","","","","","","NA"
"-73.74","45.47","MONTREAL/PIERRE ELLIOTT TRUDEAU INTL","702S006","2016-12-27 09:00","2016","12","27","09:00","4.2","","-1.5","","66","","25","","32","","","","99.90","","","","","","NA"
"-73.74","45.47","MONTREAL/PIERRE ELLIOTT TRUDEAU INTL","702S006","2016-12-27 10:00","2016","12","27","10:00","3.8","","-1.1","","70","","25","","29","","","","100.01","","","","","","NA"
"-73.74","45.47","MONTREAL/PIERRE ELLIOTT TRUDEAU INTL","702S006","2016-12-27 11:00","2016","12","27","11:00","3.5","","-1.1","","72","","26","","22","","","","100.07","","","","","","NA"
"-73.74","45.47","MONTREAL/PIERRE ELLIOTT TRUDEAU INTL","702S006","2016-12-27 12:00","2016","12","27","12:00","3.3","","-1.7","","70","","26","","21","","","","100.14","","","","","","NA"
"-73.74","45.47","MONTREAL/PIERRE ELLIOTT TRUDEAU INTL","702S006","2016-12-27 13:00","2016","12","27","13:00","3.1","","-2.0","","69","","26","","22","","","","100.18","","","","","","NA"
"-73.74","45.47","MONTREAL/PIERRE ELLIOTT TRUDEAU INTL","702S006","2016-12-27 14:00","2016","12","27","14:00","3.2","","-2.4","","67","","27","","21","","","","100.21","","","","","","NA"
"-73.74","45.47","MONTREAL/PIERRE ELLIOTT TRUDEAU INTL","702S006","2016-12-27 15:00","2016","12","27","15:00","2.7","","-1.8","","72","","26","","14","","","","100.27","","","","","","NA"
"-73.74","45.47","MONTREAL/PIERRE ELLIOTT TRUDEAU INTL","702S006","2016-12-27 16:00","2016","12","27","16:00","2.1","","-0.9","","80","","26","","22","","","","100.36","","","","","","NA"
"-73.74","45.47","MONTREAL/PIERRE ELLIOTT TRUDEAU INTL","702S006","2016-12-27 17:00","2016","12","27","17:00","1.3","","-0.2","","90","","25","","18","","","","100.44","","","","","","NA"
"-73.74","45.47","MONTREAL/PIERRE ELLIOTT TRUDEAU INTL","702S006","2016-12-27 18:00","2016","12","27","18:00","1.7","","-0.7","","84","","25","","18","","","","100.48","","","","","","NA"
"-73.74","45.47","MONTREAL/PIERRE ELLIOTT TRUDEAU INTL","702S006","2016-12-27 19:00","2016","12","27","19:00","1.3","","-0.7","","87","","24","","17","","","","100.51","","","","","","NA"
"-73.74","45.47","MONTREAL/PIERRE ELLIOTT TRUDEAU INTL","702S006","2016-12-27 20:00","2016","12","27","20:00","0.9","","-0.8","","89","","24","","18","","","","100.52","","","","","","NA"
"-73.74","45.47","MONTREAL/PIERRE ELLIOTT TRUDEAU INTL","702S006","2016-12-27 21:00","2016","12","27","21:00","0.7","","-0.6","","91","","25","","18","","","","100.52","","","","","","NA"
"-73.74","45.47","MONTREAL/PIERRE ELLIOTT TRUDEAU INTL","702S006","2016-12-27 22:00","2016","12","27","22:00","0.5","","-1.1","","89","","24","","18","","","","100.55","","","","","","NA"
"-73.74","45.47","MONTREAL/PIERRE ELLIOTT TRUDEAU INTL","702S006","2016-12-27 23:00","2016","12","27","23:00","0.4","","-1.7","","86","","25","","21","","","","100.59","","","","","","NA"
"-73.74","45.47","MONTREAL/PIERRE ELLIOTT TRUDEAU INTL","702S006","2016-12-28 00:00","2016","12","28","00:00","0.2","","-1.9","","86","","25","","22","","","","100.59","","","","","","NA"
"-73.74","45.47","MONTREAL/PIERRE ELLIOTT TRUDEAU INTL","702S006","2016-12-28 01:00","2016","12","28","01:00","0.0","","-1.7","","89","","25","","23","","","","100.63","","","","-6","","NA"
"-73.74","45.47","MONTREAL/PIERRE ELLIOTT TRUDEAU INTL","702S006","2016-12-28 02:00","2016","12","28","02:00","-0.2","","-1.7","","89","","26","","16","","","","100.69","","","","-5","","NA"
"-73.74","45.47","MONTREAL/PIERRE ELLIOTT TRUDEAU INTL","702S006","2016-12-28 03:00","2016","12","28","03:00","-0.8","","-3.1","","84","","31","","13","","","","100.74","","","","-5","","NA"
"-73.74","45.47","MONTREAL/PIERRE ELLIOTT TRUDEAU INTL","702S006","2016-12-28 04:00","2016","12","28","04:00","-1.2","","-4.1","","81","","32","","11","","","","100.81","","","","-5","","NA"
"-73.74","45.47","MONTREAL/PIERRE ELLIOTT TRUDEAU INTL","702S006","2016-12-28 05:00","2016","12","28","05:00","-1.3","","-4.2","","81","","30","","10","","","","100.89","","","","-5","","NA"
"-73.74","45.47","MONTREAL/PIERRE ELLIOTT TRUDEAU INTL","702S006","2016-12-28 06:00","2016","12","28","06:00","-1.8","","-5.8","","74","","31","","22","","","","100.98","","","","-8","","NA"
"-73.74","45.47","MONTREAL/PIERRE ELLIOTT TRUDEAU INTL","702S006","2016-12-28 07:00","2016","12","28","07:00","-2.9","","-8.0","","68","","32","","22","","","","101.10","","","","-9","","NA"
"-73.74","45.47","MONTREAL/PIERRE ELLIOTT TRUDEAU INTL","702S006","2016-12-28 08:00","2016","12","28","08:00","-3.4","","-8.0","","71","","30","","14","","","","101.21","","","","-8","","NA"
"-73.74","45.47","MONTREAL/PIERRE ELLIOTT TRUDEAU INTL","702S006","2016-12-28 09:00","2016","12","28","09:00","-3.7","","-8.9","","67","","30","","20","","","","101.32","","","","-10","","NA"
"-73.74","45.47","MONTREAL/PIERRE ELLIOTT TRUDEAU INTL","702S006","2016-12-28 10:00","2016","12","28","10:00","-4.0","","-9.3","","67","","30","","16","","","","101.43","","","","-10","","NA"
"-73.74","45.47","MONTREAL/PIERRE ELLIOTT TRUDEAU INTL","702S006","2016-12-28 11:00","2016","12","28","11:00","-3.8","","-9.3","","66","","29","","16","","","","101.46","","","","-9","","NA"
"-73.74","45.47","MONTREAL/PIERRE ELLIOTT TRUDEAU INTL","702S006","2016-12-28 12:00","2016","12","28","12:00","-4.2","","-10.9","","60","","28","","16","","","","101.45","","","","-10","","NA"
"-73.74","45.47","MONTREAL/PIERRE ELLIOTT TRUDEAU INTL","702S006","2016-12-28 13:00","2016","12","28","13:00","-4.4","","-10.5","","62","","28","","14","","","","101.45","","","","-10","","NA"
"-73.74","45.47","MONTREAL/PIERRE ELLIOTT TRUDEAU INTL","702S006","2016-12-28 14:00","2016","12","28","14:00","-4.3","","-10.9","","60","","31","","14","","","","101.46","","","","-9","","NA"
"-73.74","45.47","MONTREAL/PIERRE ELLIOTT TRUDEAU INTL","702S006","2016-12-28 15:00","2016","12","28","15:00","-4.3","","-11.1","","59","","30","","12","","","","101.53","","","","-9","","NA"
"-73.74","45.47","MONTREAL/PIERRE ELLIOTT TRUDEAU INTL","702S006","2016-12-28 16:00","2016","12","28","16:00","-4.9","","-11.3","","61","","25","","15","","","","101.59","","","","-10","","NA"
"-73.74","45.47","MONTREAL/PIERRE ELLIOTT TRUDEAU INTL","702S006","2016-12-28 17:00","2016","12","28","17:00","-5.9","","-11.1","","67","","28","","6","","","","101.63","","","","-9","","NA"
"-73.74","45.47","MONTREAL/PIERRE ELLIOTT TRUDEAU INTL","702S006","2016-12-28 18:00","2016","12","28","18:00","-6.4","","-11.1","","69","","28","","6","","","","101.66","","","","-9","","NA"
"-73.74","45.47","MONTREAL/PIERRE ELLIOTT TRUDEAU INTL","702S006","2016-12-28 19:00","2016","12","28","19:00","-6.5","","-11.0","","71","","27","","4","","","","101.66","","","","-8","","NA"
"-73.74","45.47","MONTREAL/PIERRE ELLIOTT TRUDEAU INTL","702S006","2016-12-28 20:00","2016","12","28","20:00","-6.5","","-10.8","","71","","35","","1","","","","101.65","","","","-7","","NA"
"-73.74","45.47","MONTREAL/PIERRE ELLIOTT TRUDEAU INTL","702S006","2016-12-28 21:00","2016","12","28","21:00","-6.6","","-9.0","","83","","11","","8","","","","101.67","","","","-10","","NA"
"-73.74","45.47","MONTREAL/PIERRE ELLIOTT TRUDEAU INTL","702S006","2016-12-28 22:00","2016","12","28","22:00","-7.1","","-9.0","","86","","12","","9","","","","101.67","","","","-11","","NA"
"-73.74","45.47","MONTREAL/PIERRE ELLIOTT TRUDEAU INTL","702S006","2016-12-28 23:00","2016","12","28","23:00","-6.7","","-8.9","","84","","11","","10","","","","101.60","","","","-11","","NA"
"-73.74","45.47","MONTREAL/PIERRE ELLIOTT TRUDEAU INTL","702S006","2016-12-29 00:00","2016","12","29","00:00","-6.6","","-8.6","","86","","11","","12","","","","101.51","","","","-12","","NA"
"-73.74","45.47","MONTREAL/PIERRE ELLIOTT TRUDEAU INTL","702S006","2016-12-29 01:00","2016","12","29","01:00","-6.4","","-8.7","","84","","10","","8","","","","101.42","","","","-10","","NA"
"-73.74","45.47","MONTREAL/PIERRE ELLIOTT TRUDEAU INTL","702S006","2016-12-29 02:00","2016","12","29","02:00","-5.9","","-9.2","","77","","6","","7","","","","101.40","","","","-9","","NA"
"-73.74","45.47","MONTREAL/PIERRE ELLIOTT TRUDEAU INTL","702S006","2016-12-29 03:00","2016","12","29","03:00","-5.3","","-10.0","","70","","6","","8","","","","101.33","","","","-9","","NA"
"-73.74","45.47","MONTREAL/PIERRE ELLIOTT TRUDEAU INTL","702S006","2016-12-29 04:00","2016","12","29","04:00","-5.4","","-10.0","","70","","5","","11","","","","101.19","","","","-10","","NA"
"-73.74","45.47","MONTREAL/PIERRE ELLIOTT TRUDEAU INTL","702S006","2016-12-29 05:00","2016","12","29","05:00","-5.5","","-9.3","","75","","4","","12","","","","101.03","","","","-10","","NA"
"-73.74","45.47","MONTREAL/PIERRE ELLIOTT TRUDEAU INTL","702S006","2016-12-29 06:00","2016","12","29","06:00","-5.5","","-9.3","","74","","4","","13","","","","100.87","","","","-11","","NA"
"-73.74","45.47","MONTREAL/PIERRE ELLIOTT TRUDEAU INTL","702S006","2016-12-29 07:00","2016","12","29","07:00","-5.4","","-9.1","","75","","4","","15","","","","100.81","","","","-11","","NA"
"-73.74","45.47","MONTREAL/PIERRE ELLIOTT TRUDEAU INTL","702S006","2016-12-29 08:00","2016","12","29","08:00","-5.5","","-8.6","","79","","4","","17","","","","100.70","","","","-12","","NA"
"-73.74","45.47","MONTREAL/PIERRE ELLIOTT TRUDEAU INTL","702S006","2016-12-29 09:00","2016","12","29","09:00","-4.9","","-8.0","","79","","4","","15","","","","100.54","","","","-10","","NA"
"-73.74","45.47","MONTREAL/PIERRE ELLIOTT TRUDEAU INTL","702S006","2016-12-29 10:00","2016","12","29","10:00","-3.8","","-5.5","","88","","6","","10","","","","100.43","","","","-8","","NA"
"-73.74","45.47","MONTREAL/PIERRE ELLIOTT TRUDEAU INTL","702S006","2016-12-29 11:00","2016","12","29","11:00","-3.2","","-3.6","","97","","7","","12","","","","100.20","","","","-8","","NA"
"-73.74","45.47","MONTREAL/PIERRE ELLIOTT TRUDEAU INTL","702S006","2016-12-29 12:00","2016","12","29","12:00","-1.8","","-1.9","","99","","10","","13","","","","100.01","","","","-6","","NA"
"-73.74","45.47","MONTREAL/PIERRE ELLIOTT TRUDEAU INTL","702S006","2016-12-29 13:00","2016","12","29","13:00","-1.8","","-1.9","","99","","12","","19","","","","99.83","","","","-7","","NA"
"-73.74","45.47","MONTREAL/PIERRE ELLIOTT TRUDEAU INTL","702S006","2016-12-29 14:00","2016","12","29","14:00","-1.4","","-1.5","","99","","13","","19","","","","99.67","","","","-7","","NA"
"-73.74","45.47","MONTREAL/PIERRE ELLIOTT TRUDEAU INTL","702S006","2016-12-29 15:00","2016","12","29","15:00","-1.1","","-1.2","","99","","13","","18","","","","99.58","","","","-6","","NA"
"-73.74","45.47","MONTREAL/PIERRE ELLIOTT TRUDEAU INTL","702S006","2016-12-29 16:00","2016","12","29","16:00","-0.9","","-1.0","","99","","13","","17","","","","99.48","","","","-6","","NA"
"-73.74","45.47","MONTREAL/PIERRE ELLIOTT TRUDEAU INTL","702S006","2016-12-29 17:00","2016","12","29","17:00","-0.4","","-0.5","","100","","15","","27","","","","99.45","","","","-7","","NA"
"-73.74","45.47","MONTREAL/PIERRE ELLIOTT TRUDEAU INTL","702S006","2016-12-29 18:00","2016","12","29","18:00","0.0","","-0.3","","98","","15","","24","","","","99.41","","","","-6","","NA"
"-73.74","45.47","MONTREAL/PIERRE ELLIOTT TRUDEAU INTL","702S006","2016-12-29 19:00","2016","12","29","19:00","-0.1","","-0.2","","99","","15","","23","","","","99.32","","","","-6","","NA"
"-73.74","45.47","MONTREAL/PIERRE ELLIOTT TRUDEAU INTL","702S006","2016-12-29 20:00","2016","12","29","20:00","0.0","","-0.1","","99","","16","","14","","","","99.24","","","","-4","","NA"
"-73.74","45.47","MONTREAL/PIERRE ELLIOTT TRUDEAU INTL","702S006","2016-12-29 21:00","2016","12","29","21:00","0.2","","-0.2","","97","","17","","12","","","","99.20","","","","","","NA"
"-73.74","45.47","MONTREAL/PIERRE ELLIOTT TRUDEAU INTL","702S006","2016-12-29 22:00","2016","12","29","22:00","0.7","","0.2","","97","","21","","11","","","","99.17","","","","","","NA"
"-73.74","45.47","MONTREAL/PIERRE ELLIOTT TRUDEAU INTL","702S006","2016-12-29 23:00","2016","12","29","23:00","-0.2","","-0.9","","95","","28","","18","","","","99.11","","","","-5","","NA"
"-73.74","45.47","MONTREAL/PIERRE ELLIOTT TRUDEAU INTL","702S006","2016-12-30 00:00","2016","12","30","00:00","-1.0","","-1.8","","94","","28","","16","","","","98.99","","","","-6","","NA"
"-73.74","45.47","MONTREAL/PIERRE ELLIOTT TRUDEAU INTL","702S006","2016-12-30 01:00","2016","12","30","01:00","-1.5","","-2.2","","95","","27","","11","","","","98.91","","","","-5","","NA"
"-73.74","45.47","MONTREAL/PIERRE ELLIOTT TRUDEAU INTL","702S006","2016-12-30 02:00","2016","12","30","02:00","-2.6","","-3.5","","93","","29","","16","","","","98.85","","","","-8","","NA"
"-73.74","45.47","MONTREAL/PIERRE ELLIOTT TRUDEAU INTL","702S006","2016-12-30 03:00","2016","12","30","03:00","-3.3","","-3.7","","96","","29","","12","","","","98.82","","","","-8","","NA"
"-73.74","45.47","MONTREAL/PIERRE ELLIOTT TRUDEAU INTL","702S006","2016-12-30 04:00","2016","12","30","04:00","-2.1","","-3.2","","92","","26","","17","","","","98.78","","","","-7","","NA"
"-73.74","45.47","MONTREAL/PIERRE ELLIOTT TRUDEAU INTL","702S006","2016-12-30 05:00","2016","12","30","05:00","-1.8","","-2.8","","92","","28","","19","","","","98.71","","","","-7","","NA"
"-73.74","45.47","MONTREAL/PIERRE ELLIOTT TRUDEAU INTL","702S006","2016-12-30 06:00","2016","12","30","06:00","-1.6","","-3.0","","90","","27","","26","","","","98.74","","","","-8","","NA"
"-73.74","45.47","MONTREAL/PIERRE ELLIOTT TRUDEAU INTL","702S006","2016-12-30 07:00","2016","12","30","07:00","-1.7","","-3.3","","89","","27","","20","","","","98.79","","","","-7","","NA"
"-73.74","45.47","MONTREAL/PIERRE ELLIOTT TRUDEAU INTL","702S006","2016-12-30 08:00","2016","12","30","08:00","-1.9","","-4.0","","86","","28","","25","","","","98.85","","","","-8","","NA"
"-73.74","45.47","MONTREAL/PIERRE ELLIOTT TRUDEAU INTL","702S006","2016-12-30 09:00","2016","12","30","09:00","-2.3","","-5.3","","80","","28","","24","","","","98.93","","","","-9","","NA"
"-73.74","45.47","MONTREAL/PIERRE ELLIOTT TRUDEAU INTL","702S006","2016-12-30 10:00","2016","12","30","10:00","-2.8","","-6.9","","74","","28","","32","","","","99.03","","","","-10","","NA"
"-73.74","45.47","MONTREAL/PIERRE ELLIOTT TRUDEAU INTL","702S006","2016-12-30 11:00","2016","12","30","11:00","-2.8","","-5.3","","83","","26","","26","","","","99.08","","","","-10","","NA"
"-73.74","45.47","MONTREAL/PIERRE ELLIOTT TRUDEAU INTL","702S006","2016-12-30 12:00","2016","12","30","12:00","-3.9","","-7.6","","76","","27","","33","","","","99.13","","","","-12","","NA"
"-73.74","45.47","MONTREAL/PIERRE ELLIOTT TRUDEAU INTL","702S006","2016-12-30 13:00","2016","12","30","13:00","-4.8","","-8.4","","76","","27","","30","","","","99.25","","","","-13","","NA"
"-73.74","45.47","MONTREAL/PIERRE ELLIOTT TRUDEAU INTL","702S006","2016-12-30 14:00","2016","12","30","14:00","-5.3","","-9.9","","70","","27","","34","","","","99.34","","","","-14","","NA"
"-73.74","45.47","MONTREAL/PIERRE ELLIOTT TRUDEAU INTL","702S006","2016-12-30 15:00","2016","12","30","15:00","-6.0","","-10.6","","70","","27","","37","","","","99.52","","","","-15","","NA"
"-73.74","45.47","MONTREAL/PIERRE ELLIOTT TRUDEAU INTL","702S006","2016-12-30 16:00","2016","12","30","16:00","-6.8","","-11.6","","68","","27","","33","","","","99.68","","","","-16","","NA"
"-73.74","45.47","MONTREAL/PIERRE ELLIOTT TRUDEAU INTL","702S006","2016-12-30 17:00","2016","12","30","17:00","-7.0","","-12.0","","68","","27","","30","","","","99.88","","","","-16","","NA"
"-73.74","45.47","MONTREAL/PIERRE ELLIOTT TRUDEAU INTL","702S006","2016-12-30 18:00","2016","12","30","18:00","-7.5","","-12.7","","66","","27","","25","","","","100.06","","","","-16","","NA"
"-73.74","45.47","MONTREAL/PIERRE ELLIOTT TRUDEAU INTL","702S006","2016-12-30 19:00","2016","12","30","19:00","-8.3","","-12.7","","70","","28","","26","","","","100.22","","","","-17","","NA"
"-73.74","45.47","MONTREAL/PIERRE ELLIOTT TRUDEAU INTL","702S006","2016-12-30 20:00","2016","12","30","20:00","-8.5","","-13.1","","69","","27","","25","","","","100.32","","","","-17","","NA"
"-73.74","45.47","MONTREAL/PIERRE ELLIOTT TRUDEAU INTL","702S006","2016-12-30 21:00","2016","12","30","21:00","-9.1","","-14.1","","67","","27","","21","","","","100.45","","","","-17","","NA"
"-73.74","45.47","MONTREAL/PIERRE ELLIOTT TRUDEAU INTL","702S006","2016-12-30 22:00","2016","12","30","22:00","-9.3","","-14.3","","67","","27","","22","","","","100.58","","","","-17","","NA"
"-73.74","45.47","MONTREAL/PIERRE ELLIOTT TRUDEAU INTL","702S006","2016-12-30 23:00","2016","12","30","23:00","-9.8","","-14.5","","68","","27","","19","","","","100.65","","","","-17","","NA"
"-73.74","45.47","MONTREAL/PIERRE ELLIOTT TRUDEAU INTL","702S006","2016-12-31 00:00","2016","12","31","00:00","-10.0","","-14.9","","67","","27","","19","","","","100.73","","","","-18","","NA"
"-73.74","45.47","MONTREAL/PIERRE ELLIOTT TRUDEAU INTL","702S006","2016-12-31 01:00","2016","12","31","01:00","-10.8","","-15.7","","68","","26","","16","","","","100.84","","","","-18","","NA"
"-73.74","45.47","MONTREAL/PIERRE ELLIOTT TRUDEAU INTL","702S006","2016-12-31 02:00","2016","12","31","02:00","-11.5","","-16.3","","68","","26","","13","","","","100.97","","","","-18","","NA"
"-73.74","45.47","MONTREAL/PIERRE ELLIOTT TRUDEAU INTL","702S006","2016-12-31 03:00","2016","12","31","03:00","-11.9","","-16.7","","68","","27","","16","","","","101.04","","","","-19","","NA"
"-73.74","45.47","MONTREAL/PIERRE ELLIOTT TRUDEAU INTL","702S006","2016-12-31 04:00","2016","12","31","04:00","-12.3","","-16.9","","68","","25","","6","","","","101.09","","","","-16","","NA"
"-73.74","45.47","MONTREAL/PIERRE ELLIOTT TRUDEAU INTL","702S006","2016-12-31 05:00","2016","12","31","05:00","-12.9","","-17.3","","70","","27","","7","","","","101.09","","","","-17","","NA"
"-73.74","45.47","MONTREAL/PIERRE ELLIOTT TRUDEAU INTL","702S006","2016-12-31 06:00","2016","12","31","06:00","-14.1","","-17.4","","76","","33","","7","","","","101.12","","","","-19","","NA"
"-73.74","45.47","MONTREAL/PIERRE ELLIOTT TRUDEAU INTL","702S006","2016-12-31 07:00","2016","12","31","07:00","-12.7","","-16.7","","72","","14","","2","","","","101.18","","","","-14","","NA"
"-73.74","45.47","MONTREAL/PIERRE ELLIOTT TRUDEAU INTL","702S006","2016-12-31 08:00","2016","12","31","08:00","-11.5","","-16.4","","67","","14","","6","","","","101.22","","","","-15","","NA"
"-73.74","45.47","MONTREAL/PIERRE ELLIOTT TRUDEAU INTL","702S006","2016-12-31 09:00","2016","12","31","09:00","-10.8","","-15.6","","68","","7","","7","","","","101.20","","","","-15","","NA"
"-73.74","45.47","MONTREAL/PIERRE ELLIOTT TRUDEAU INTL","702S006","2016-12-31 10:00","2016","12","31","10:00","-10.0","","-15.0","","67","","8","","8","","","","101.16","","","","-14","","NA"
"-73.74","45.47","MONTREAL/PIERRE ELLIOTT TRUDEAU INTL","702S006","2016-12-31 11:00","2016","12","31","11:00","-9.1","","-13.4","","70","","6","","9","","","","101.01","","","","-14","","NA"
"-73.74","45.47","MONTREAL/PIERRE ELLIOTT TRUDEAU INTL","702S006","2016-12-31 12:00","2016","12","31","12:00","-8.4","","-12.1","","75","","5","","10","","","","100.87","","","","-13","","NA"
"-73.74","45.47","MONTREAL/PIERRE ELLIOTT TRUDEAU INTL","702S006","2016-12-31 13:00","2016","12","31","13:00","-9.3","","-11.7","","83","","4","","16","","","","100.71","","","","-16","","NA"
"-73.74","45.47","MONTREAL/PIERRE ELLIOTT TRUDEAU INTL","702S006","2016-12-31 14:00","2016","12","31","14:00","-9.5","","-11.2","","87","","4","","20","","","","100.55","","","","-17","","NA"
"-73.74","45.47","MONTREAL/PIERRE ELLIOTT TRUDEAU INTL","702S006","2016-12-31 15:00","2016","12","31","15:00","-9.8","","-11.7","","86","","3","","21","","","","100.53","","","","-18","","NA"
"-73.74","45.47","MONTREAL/PIERRE ELLIOTT TRUDEAU INTL","702S006","2016-12-31 16:00","2016","12","31","16:00","-10.1","","-11.5","","89","","4","","24","","","","100.44","","","","-19","","NA"
"-73.74","45.47","MONTREAL/PIERRE ELLIOTT TRUDEAU INTL","702S006","2016-12-31 17:00","2016","12","31","17:00","-10.0","","-11.3","","90","","4","","19","","","","100.43","","","","-18","","NA"
"-73.74","45.47","MONTREAL/PIERRE ELLIOTT TRUDEAU INTL","702S006","2016-12-31 18:00","2016","12","31","18:00","-9.9","","-11.3","","89","","3","","20","","","","100.36","","","","-18","","NA"
"-73.74","45.47","MONTREAL/PIERRE ELLIOTT TRUDEAU INTL","702S006","2016-12-31 19:00","2016","12","31","19:00","-9.6","","-10.9","","90","","3","","19","","","","100.28","","","","-17","","NA"
"-73.74","45.47","MONTREAL/PIERRE ELLIOTT TRUDEAU INTL","702S006","2016-12-31 20:00","2016","12","31","20:00","-9.0","","-10.1","","91","","2","","17","","","","100.23","","","","-16","","NA"
"-73.74","45.47","MONTREAL/PIERRE ELLIOTT TRUDEAU INTL","702S006","2016-12-31 21:00","2016","12","31","21:00","-9.1","","-10.2","","92","","1","","15","","","","100.19","","","","-16","","NA"
"-73.74","45.47","MONTREAL/PIERRE ELLIOTT TRUDEAU INTL","702S006","2016-12-31 22:00","2016","12","31","22:00","-9.9","","-11.3","","90","","1","","16","","","","100.09","","","","-17","","NA"
"-73.74","45.47","MONTREAL/PIERRE ELLIOTT TRUDEAU INTL","702S006","2016-12-31 23:00","2016","12","31","23:00","-9.3","","-10.5","","91","","2","","12","","","","100.03","","","","-15","","NA"
