"Longitude (x)","Latitude (y)","Station Name","Climate ID","Date/Time","Year","Month","Day","Time","Temp (°C)","Temp Flag","Dew Point Temp (°C)","Dew Point Temp Flag","Rel Hum (%)","Rel Hum Flag","Wind Dir (10s deg)","Wind Dir Flag","Wind Spd (km/h)","Wind Spd Flag","Visibility (km)","Visibility Flag","Stn Press (kPa)","Stn Press Flag","Hmdx","Hmdx Flag","Wind Chill","Wind Chill Flag","Weather"
"-73.74","45.47","MONTREAL/PIERRE ELLIOTT TRUDEAU INTL","702S006","2014-02-01 00:00","2014","02","01","00:00","-4.8","","-10.4","","65","","24","","6","","","","101.70","","","","-8","","NA"
"-73.74","45.47","MONTREAL/PIERRE ELLIOTT TRUDEAU INTL","702S006","2014-02-01 01:00","2014","02","01","01:00","-5.4","","-11.0","","65","","24","","9","","","","101.81","","","","-9","","NA"
"-73.74","45.47","MONTREAL/PIERRE ELLIOTT TRUDEAU INTL","702S006","2014-02-01 02:00","2014","02","01","02:00","-5.7","","-11.3","","65","","25","","7","","","","101.82","","","","-9","","NA"
"-73.74","45.47","MONTREAL/PIERRE ELLIOTT TRUDEAU INTL","702S006","2014-02-01 03:00","2014","02","01","03:00","-6.2","","-10.9","","69","","25","","7","","","","101.92","","","","-10","","NA"
"-73.74","45.47","MONTREAL/PIERRE ELLIOTT TRUDEAU INTL","702S006","2014-02-01 04:00","2014","02","01","04:00","-7.3","","-11.0","","75","","24","","5","","","","101.96","","","","-10","","NA"
"-73.74","45.47","MONTREAL/PIERRE ELLIOTT TRUDEAU INTL","702S006","2014-02-01 05:00","2014","02","01","05:00","-7.9","","-11.3","","76","","26","","5","","","","102.04","","","","-11","","NA"
"-73.74","45.47","MONTREAL/PIERRE ELLIOTT TRUDEAU INTL","702S006","2014-02-01 06:00","2014","02","01","06:00","-8.2","","-11.5","","77","","23","","5","","","","102.06","","","","-11","","NA"
"-73.74","45.47","MONTREAL/PIERRE ELLIOTT TRUDEAU INTL","702S006","2014-02-01 07:00","2014","02","01","07:00","-7.4","","-10.7","","77","","22","","7","","","","102.10","","","","-11","","NA"
"-73.74","45.47","MONTREAL/PIERRE ELLIOTT TRUDEAU INTL","702S006","2014-02-01 08:00","2014","02","01","08:00","-7.5","","-11.0","","76","","24","","5","","","","102.14","","","","-10","","NA"
"-73.74","45.47","MONTREAL/PIERRE ELLIOTT TRUDEAU INTL","702S006","2014-02-01 09:00","2014","02","01","09:00","-6.2","","-10.5","","71","","16","","3","","","","102.10","","","","-8","","NA"
"-73.74","45.47","MONTREAL/PIERRE ELLIOTT TRUDEAU INTL","702S006","2014-02-01 10:00","2014","02","01","10:00","-5.1","","-10.3","","67","","2","","3","","","","102.14","","","","-6","","NA"
"-73.74","45.47","MONTREAL/PIERRE ELLIOTT TRUDEAU INTL","702S006","2014-02-01 11:00","2014","02","01","11:00","-3.6","","-9.9","","61","","1","","3","","","","102.07","","","","-5","","NA"
"-73.74","45.47","MONTREAL/PIERRE ELLIOTT TRUDEAU INTL","702S006","2014-02-01 12:00","2014","02","01","12:00","-2.7","","-9.8","","58","","8","","6","","","","101.97","","","","-5","","NA"
"-73.74","45.47","MONTREAL/PIERRE ELLIOTT TRUDEAU INTL","702S006","2014-02-01 13:00","2014","02","01","13:00","-2.4","","-8.8","","61","","8","","8","","","","101.88","","","","-6","","NA"
"-73.74","45.47","MONTREAL/PIERRE ELLIOTT TRUDEAU INTL","702S006","2014-02-01 14:00","2014","02","01","14:00","-1.6","","-8.2","","61","","7","","5","","","","101.74","","","","-3","","NA"
"-73.74","45.47","MONTREAL/PIERRE ELLIOTT TRUDEAU INTL","702S006","2014-02-01 15:00","2014","02","01","15:00","-1.1","","-7.0","","64","","5","","7","","","","101.68","","","","-4","","NA"
"-73.74","45.47","MONTREAL/PIERRE ELLIOTT TRUDEAU INTL","702S006","2014-02-01 16:00","2014","02","01","16:00","-3.1","","-5.0","","86","","2","","14","","","","101.59","","","","-8","","NA"
"-73.74","45.47","MONTREAL/PIERRE ELLIOTT TRUDEAU INTL","702S006","2014-02-01 17:00","2014","02","01","17:00","-3.1","","-4.1","","92","","7","","9","","","","101.39","","","","-7","","NA"
"-73.74","45.47","MONTREAL/PIERRE ELLIOTT TRUDEAU INTL","702S006","2014-02-01 18:00","2014","02","01","18:00","-2.5","","-3.7","","91","","7","","9","","","","101.26","","","","-6","","NA"
"-73.74","45.47","MONTREAL/PIERRE ELLIOTT TRUDEAU INTL","702S006","2014-02-01 19:00","2014","02","01","19:00","-1.4","","-2.4","","92","","7","","5","","","","101.17","","","","-3","","NA"
"-73.74","45.47","MONTREAL/PIERRE ELLIOTT TRUDEAU INTL","702S006","2014-02-01 20:00","2014","02","01","20:00","-2.8","","-3.6","","94","","3","","11","","","","101.01","","","","-7","","NA"
"-73.74","45.47","MONTREAL/PIERRE ELLIOTT TRUDEAU INTL","702S006","2014-02-01 21:00","2014","02","01","21:00","-3.5","","-4.2","","94","","3","","13","","","","100.92","","","","-8","","NA"
"-73.74","45.47","MONTREAL/PIERRE ELLIOTT TRUDEAU INTL","702S006","2014-02-01 22:00","2014","02","01","22:00","-3.6","","-4.3","","95","","2","","9","","","","100.77","","","","-7","","NA"
"-73.74","45.47","MONTREAL/PIERRE ELLIOTT TRUDEAU INTL","702S006","2014-02-01 23:00","2014","02","01","23:00","-3.8","","-4.5","","94","","1","","7","","","","100.68","","","","-7","","NA"
"-73.74","45.47","MONTREAL/PIERRE ELLIOTT TRUDEAU INTL","702S006","2014-02-02 00:00","2014","02","02","00:00","-4.1","","-4.9","","94","","35","","7","","","","100.61","","","","-7","","NA"
"-73.74","45.47","MONTREAL/PIERRE ELLIOTT TRUDEAU INTL","702S006","2014-02-02 01:00","2014","02","02","01:00","-4.2","","-5.0","","94","","35","","9","","","","100.62","","","","-8","","NA"
"-73.74","45.47","MONTREAL/PIERRE ELLIOTT TRUDEAU INTL","702S006","2014-02-02 02:00","2014","02","02","02:00","-4.2","","-5.0","","94","","36","","7","","","","100.55","","","","-7","","NA"
"-73.74","45.47","MONTREAL/PIERRE ELLIOTT TRUDEAU INTL","702S006","2014-02-02 03:00","2014","02","02","03:00","-3.9","","-4.6","","94","","36","","5","","","","100.54","","","","-6","","NA"
"-73.74","45.47","MONTREAL/PIERRE ELLIOTT TRUDEAU INTL","702S006","2014-02-02 04:00","2014","02","02","04:00","-3.7","","-4.4","","94","","32","","3","","","","100.58","","","","-5","","NA"
"-73.74","45.47","MONTREAL/PIERRE ELLIOTT TRUDEAU INTL","702S006","2014-02-02 05:00","2014","02","02","05:00","-3.4","","-4.1","","95","","29","","2","","","","100.60","","","","-4","","NA"
"-73.74","45.47","MONTREAL/PIERRE ELLIOTT TRUDEAU INTL","702S006","2014-02-02 06:00","2014","02","02","06:00","-2.7","","-3.5","","95","","23","","2","","","","100.60","","","","-3","","NA"
"-73.74","45.47","MONTREAL/PIERRE ELLIOTT TRUDEAU INTL","702S006","2014-02-02 07:00","2014","02","02","07:00","-1.8","","-2.6","","94","","26","","9","","","","100.70","","","","-5","","NA"
"-73.74","45.47","MONTREAL/PIERRE ELLIOTT TRUDEAU INTL","702S006","2014-02-02 08:00","2014","02","02","08:00","-1.7","","-2.6","","94","","28","","12","","","","100.80","","","","-6","","NA"
"-73.74","45.47","MONTREAL/PIERRE ELLIOTT TRUDEAU INTL","702S006","2014-02-02 09:00","2014","02","02","09:00","-1.7","","-2.8","","92","","26","","10","","","","100.86","","","","-5","","NA"
"-73.74","45.47","MONTREAL/PIERRE ELLIOTT TRUDEAU INTL","702S006","2014-02-02 10:00","2014","02","02","10:00","-1.5","","-3.3","","88","","26","","9","","","","100.87","","","","-5","","NA"
"-73.74","45.47","MONTREAL/PIERRE ELLIOTT TRUDEAU INTL","702S006","2014-02-02 11:00","2014","02","02","11:00","-1.2","","-3.5","","85","","26","","11","","","","100.90","","","","-5","","NA"
"-73.74","45.47","MONTREAL/PIERRE ELLIOTT TRUDEAU INTL","702S006","2014-02-02 12:00","2014","02","02","12:00","-1.1","","-3.6","","83","","25","","10","","","","100.93","","","","-5","","NA"
"-73.74","45.47","MONTREAL/PIERRE ELLIOTT TRUDEAU INTL","702S006","2014-02-02 13:00","2014","02","02","13:00","-1.4","","-4.5","","80","","27","","18","","","","100.89","","","","-7","","NA"
"-73.74","45.47","MONTREAL/PIERRE ELLIOTT TRUDEAU INTL","702S006","2014-02-02 14:00","2014","02","02","14:00","-1.7","","-4.8","","79","","27","","21","","","","100.96","","","","-8","","NA"
"-73.74","45.47","MONTREAL/PIERRE ELLIOTT TRUDEAU INTL","702S006","2014-02-02 15:00","2014","02","02","15:00","-1.5","","-4.9","","77","","27","","19","","","","101.07","","","","-7","","NA"
"-73.74","45.47","MONTREAL/PIERRE ELLIOTT TRUDEAU INTL","702S006","2014-02-02 16:00","2014","02","02","16:00","-1.5","","-5.1","","77","","26","","18","","","","101.16","","","","-7","","NA"
"-73.74","45.47","MONTREAL/PIERRE ELLIOTT TRUDEAU INTL","702S006","2014-02-02 17:00","2014","02","02","17:00","-1.9","","-5.3","","78","","25","","14","","","","101.21","","","","-7","","NA"
"-73.74","45.47","MONTREAL/PIERRE ELLIOTT TRUDEAU INTL","702S006","2014-02-02 18:00","2014","02","02","18:00","-2.4","","-5.6","","79","","25","","19","","","","101.29","","","","-8","","NA"
"-73.74","45.47","MONTREAL/PIERRE ELLIOTT TRUDEAU INTL","702S006","2014-02-02 19:00","2014","02","02","19:00","-2.4","","-5.7","","78","","26","","18","","","","101.41","","","","-8","","NA"
"-73.74","45.47","MONTREAL/PIERRE ELLIOTT TRUDEAU INTL","702S006","2014-02-02 20:00","2014","02","02","20:00","-3.1","","-6.8","","76","","26","","15","","","","101.49","","","","-8","","NA"
"-73.74","45.47","MONTREAL/PIERRE ELLIOTT TRUDEAU INTL","702S006","2014-02-02 21:00","2014","02","02","21:00","-5.1","","-8.3","","79","","28","","12","","","","101.53","","","","-10","","NA"
"-73.74","45.47","MONTREAL/PIERRE ELLIOTT TRUDEAU INTL","702S006","2014-02-02 22:00","2014","02","02","22:00","-6.2","","-9.2","","79","","28","","9","","","","101.63","","","","-10","","NA"
"-73.74","45.47","MONTREAL/PIERRE ELLIOTT TRUDEAU INTL","702S006","2014-02-02 23:00","2014","02","02","23:00","-7.9","","-9.9","","86","","31","","11","","","","101.73","","","","-13","","NA"
"-73.74","45.47","MONTREAL/PIERRE ELLIOTT TRUDEAU INTL","702S006","2014-02-03 00:00","2014","02","03","00:00","-8.4","","-10.8","","82","","32","","11","","","","101.85","","","","-14","","NA"
"-73.74","45.47","MONTREAL/PIERRE ELLIOTT TRUDEAU INTL","702S006","2014-02-03 01:00","2014","02","03","01:00","-9.6","","-12.5","","80","","34","","7","","","","101.83","","","","-14","","NA"
"-73.74","45.47","MONTREAL/PIERRE ELLIOTT TRUDEAU INTL","702S006","2014-02-03 02:00","2014","02","03","02:00","-8.4","","-11.8","","76","","2","","9","","","","101.96","","","","-13","","NA"
"-73.74","45.47","MONTREAL/PIERRE ELLIOTT TRUDEAU INTL","702S006","2014-02-03 03:00","2014","02","03","03:00","-9.4","","-13.0","","75","","2","","10","","","","102.02","","","","-15","","NA"
"-73.74","45.47","MONTREAL/PIERRE ELLIOTT TRUDEAU INTL","702S006","2014-02-03 04:00","2014","02","03","04:00","-9.4","","-13.4","","72","","3","","8","","","","102.03","","","","-14","","NA"
"-73.74","45.47","MONTREAL/PIERRE ELLIOTT TRUDEAU INTL","702S006","2014-02-03 05:00","2014","02","03","05:00","-9.2","","-14.1","","68","","4","","9","","","","102.11","","","","-14","","NA"
"-73.74","45.47","MONTREAL/PIERRE ELLIOTT TRUDEAU INTL","702S006","2014-02-03 06:00","2014","02","03","06:00","-9.4","","-14.7","","65","","4","","8","","","","102.12","","","","-14","","NA"
"-73.74","45.47","MONTREAL/PIERRE ELLIOTT TRUDEAU INTL","702S006","2014-02-03 07:00","2014","02","03","07:00","-10.9","","-15.1","","71","","2","","12","","","","102.13","","","","-17","","NA"
"-73.74","45.47","MONTREAL/PIERRE ELLIOTT TRUDEAU INTL","702S006","2014-02-03 08:00","2014","02","03","08:00","-11.2","","-14.9","","74","","1","","7","","","","102.19","","","","-15","","NA"
"-73.74","45.47","MONTREAL/PIERRE ELLIOTT TRUDEAU INTL","702S006","2014-02-03 09:00","2014","02","03","09:00","-10.7","","-14.7","","72","","1","","9","","","","102.21","","","","-16","","NA"
"-73.74","45.47","MONTREAL/PIERRE ELLIOTT TRUDEAU INTL","702S006","2014-02-03 10:00","2014","02","03","10:00","-9.3","","-14.6","","66","","2","","12","","","","102.28","","","","-15","","NA"
"-73.74","45.47","MONTREAL/PIERRE ELLIOTT TRUDEAU INTL","702S006","2014-02-03 11:00","2014","02","03","11:00","-8.7","","-13.9","","66","","1","","11","","","","102.28","","","","-14","","NA"
"-73.74","45.47","MONTREAL/PIERRE ELLIOTT TRUDEAU INTL","702S006","2014-02-03 12:00","2014","02","03","12:00","-7.9","","-14.4","","59","","36","","8","","","","102.19","","","","-12","","NA"
"-73.74","45.47","MONTREAL/PIERRE ELLIOTT TRUDEAU INTL","702S006","2014-02-03 13:00","2014","02","03","13:00","-7.6","","-14.6","","57","","1","","8","","","","102.14","","","","-12","","NA"
"-73.74","45.47","MONTREAL/PIERRE ELLIOTT TRUDEAU INTL","702S006","2014-02-03 14:00","2014","02","03","14:00","-6.7","","-15.4","","50","","36","","6","","","","102.12","","","","-10","","NA"
"-73.74","45.47","MONTREAL/PIERRE ELLIOTT TRUDEAU INTL","702S006","2014-02-03 15:00","2014","02","03","15:00","-6.4","","-15.6","","48","","2","","3","","","","102.13","","","","-8","","NA"
"-73.74","45.47","MONTREAL/PIERRE ELLIOTT TRUDEAU INTL","702S006","2014-02-03 16:00","2014","02","03","16:00","-5.9","","-15.7","","46","","2","","1","","","","102.13","","","","-6","","NA"
"-73.74","45.47","MONTREAL/PIERRE ELLIOTT TRUDEAU INTL","702S006","2014-02-03 17:00","2014","02","03","17:00","-8.1","","-16.2","","52","","12","","1","","","","102.15","","","","-9","","NA"
"-73.74","45.47","MONTREAL/PIERRE ELLIOTT TRUDEAU INTL","702S006","2014-02-03 18:00","2014","02","03","18:00","-11.2","","-15.6","","70","","25","","3","","","","102.18","","","","-13","","NA"
"-73.74","45.47","MONTREAL/PIERRE ELLIOTT TRUDEAU INTL","702S006","2014-02-03 19:00","2014","02","03","19:00","-10.3","","-13.7","","76","","19","","7","","","","102.25","","","","-14","","NA"
"-73.74","45.47","MONTREAL/PIERRE ELLIOTT TRUDEAU INTL","702S006","2014-02-03 20:00","2014","02","03","20:00","-12.0","","-15.3","","76","","25","","4","","","","102.31","","","","-15","","NA"
"-73.74","45.47","MONTREAL/PIERRE ELLIOTT TRUDEAU INTL","702S006","2014-02-03 21:00","2014","02","03","21:00","-12.4","","-15.0","","81","","28","","3","","","","102.33","","","","-14","","NA"
"-73.74","45.47","MONTREAL/PIERRE ELLIOTT TRUDEAU INTL","702S006","2014-02-03 22:00","2014","02","03","22:00","-12.7","","-15.5","","80","","18","","2","","","","102.36","","","","-14","","NA"
"-73.74","45.47","MONTREAL/PIERRE ELLIOTT TRUDEAU INTL","702S006","2014-02-03 23:00","2014","02","03","23:00","-13.9","","-15.8","","86","","20","","2","","","","102.34","","","","-15","","NA"
"-73.74","45.47","MONTREAL/PIERRE ELLIOTT TRUDEAU INTL","702S006","2014-02-04 00:00","2014","02","04","00:00","-14.0","","-15.6","","88","","22","","4","","","","102.36","","","","-17","","NA"
"-73.74","45.47","MONTREAL/PIERRE ELLIOTT TRUDEAU INTL","702S006","2014-02-04 01:00","2014","02","04","01:00","-13.8","","-15.6","","86","","16","","3","","","","102.39","","","","-16","","NA"
"-73.74","45.47","MONTREAL/PIERRE ELLIOTT TRUDEAU INTL","702S006","2014-02-04 02:00","2014","02","04","02:00","-15.1","","-17.0","","86","","18","","1","","","","102.43","","","","-16","","NA"
"-73.74","45.47","MONTREAL/PIERRE ELLIOTT TRUDEAU INTL","702S006","2014-02-04 03:00","2014","02","04","03:00","-14.2","","-15.9","","86","","13","","5","","","","102.39","","","","-18","","NA"
"-73.74","45.47","MONTREAL/PIERRE ELLIOTT TRUDEAU INTL","702S006","2014-02-04 04:00","2014","02","04","04:00","-13.9","","-15.6","","87","","18","","3","","","","102.48","","","","-16","","NA"
"-73.74","45.47","MONTREAL/PIERRE ELLIOTT TRUDEAU INTL","702S006","2014-02-04 05:00","2014","02","04","05:00","-14.0","","-15.7","","87","","25","","1","","","","102.53","","","","-15","","NA"
"-73.74","45.47","MONTREAL/PIERRE ELLIOTT TRUDEAU INTL","702S006","2014-02-04 06:00","2014","02","04","06:00","-13.4","","-15.1","","87","","17","","8","","","","102.56","","","","-18","","NA"
"-73.74","45.47","MONTREAL/PIERRE ELLIOTT TRUDEAU INTL","702S006","2014-02-04 07:00","2014","02","04","07:00","-11.6","","-13.0","","89","","21","","7","","","","102.60","","","","-16","","NA"
"-73.74","45.47","MONTREAL/PIERRE ELLIOTT TRUDEAU INTL","702S006","2014-02-04 08:00","2014","02","04","08:00","-11.6","","-13.5","","86","","23","","7","","","","102.66","","","","-16","","NA"
"-73.74","45.47","MONTREAL/PIERRE ELLIOTT TRUDEAU INTL","702S006","2014-02-04 09:00","2014","02","04","09:00","-11.0","","-13.2","","84","","23","","10","","","","102.73","","","","-16","","NA"
"-73.74","45.47","MONTREAL/PIERRE ELLIOTT TRUDEAU INTL","702S006","2014-02-04 10:00","2014","02","04","10:00","-9.5","","-12.5","","79","","24","","11","","","","102.79","","","","-15","","NA"
"-73.74","45.47","MONTREAL/PIERRE ELLIOTT TRUDEAU INTL","702S006","2014-02-04 11:00","2014","02","04","11:00","-8.3","","-12.6","","71","","22","","10","","","","102.77","","","","-13","","NA"
"-73.74","45.47","MONTREAL/PIERRE ELLIOTT TRUDEAU INTL","702S006","2014-02-04 12:00","2014","02","04","12:00","-7.7","","-12.7","","67","","21","","15","","","","102.74","","","","-14","","NA"
"-73.74","45.47","MONTREAL/PIERRE ELLIOTT TRUDEAU INTL","702S006","2014-02-04 13:00","2014","02","04","13:00","-6.7","","-13.2","","60","","23","","11","","","","102.71","","","","-12","","NA"
"-73.74","45.47","MONTREAL/PIERRE ELLIOTT TRUDEAU INTL","702S006","2014-02-04 14:00","2014","02","04","14:00","-6.7","","-13.4","","59","","22","","17","","","","102.67","","","","-13","","NA"
"-73.74","45.47","MONTREAL/PIERRE ELLIOTT TRUDEAU INTL","702S006","2014-02-04 15:00","2014","02","04","15:00","-6.6","","-13.3","","59","","23","","16","","","","102.59","","","","-13","","NA"
"-73.74","45.47","MONTREAL/PIERRE ELLIOTT TRUDEAU INTL","702S006","2014-02-04 16:00","2014","02","04","16:00","-6.4","","-13.3","","58","","26","","16","","","","102.63","","","","-13","","NA"
"-73.74","45.47","MONTREAL/PIERRE ELLIOTT TRUDEAU INTL","702S006","2014-02-04 17:00","2014","02","04","17:00","-7.6","","-13.5","","63","","28","","13","","","","102.59","","","","-13","","NA"
"-73.74","45.47","MONTREAL/PIERRE ELLIOTT TRUDEAU INTL","702S006","2014-02-04 18:00","2014","02","04","18:00","-9.1","","-13.8","","68","","30","","6","","","","102.62","","","","-12","","NA"
"-73.74","45.47","MONTREAL/PIERRE ELLIOTT TRUDEAU INTL","702S006","2014-02-04 19:00","2014","02","04","19:00","-8.9","","-13.9","","67","","29","","6","","","","102.60","","","","-12","","NA"
"-73.74","45.47","MONTREAL/PIERRE ELLIOTT TRUDEAU INTL","702S006","2014-02-04 20:00","2014","02","04","20:00","-7.6","","-13.6","","62","","22","","5","","","","102.60","","","","-10","","NA"
"-73.74","45.47","MONTREAL/PIERRE ELLIOTT TRUDEAU INTL","702S006","2014-02-04 21:00","2014","02","04","21:00","-8.6","","-13.6","","67","","25","","4","","","","102.59","","","","-11","","NA"
"-73.74","45.47","MONTREAL/PIERRE ELLIOTT TRUDEAU INTL","702S006","2014-02-04 22:00","2014","02","04","22:00","-8.7","","-13.1","","71","","24","","6","","","","102.61","","","","-12","","NA"
"-73.74","45.47","MONTREAL/PIERRE ELLIOTT TRUDEAU INTL","702S006","2014-02-04 23:00","2014","02","04","23:00","-8.5","","-13.0","","70","","21","","4","","","","102.52","","","","-11","","NA"
"-73.74","45.47","MONTREAL/PIERRE ELLIOTT TRUDEAU INTL","702S006","2014-02-05 00:00","2014","02","05","00:00","-8.9","","-12.1","","78","","16","","4","","","","102.41","","","","-11","","NA"
"-73.74","45.47","MONTREAL/PIERRE ELLIOTT TRUDEAU INTL","702S006","2014-02-05 01:00","2014","02","05","01:00","-9.4","","-12.5","","78","","","M","0","","","","102.30","","","","","","NA"
"-73.74","45.47","MONTREAL/PIERRE ELLIOTT TRUDEAU INTL","702S006","2014-02-05 02:00","2014","02","05","02:00","-9.3","","-12.2","","79","","31","","1","","","","102.28","","","","-10","","NA"
"-73.74","45.47","MONTREAL/PIERRE ELLIOTT TRUDEAU INTL","702S006","2014-02-05 03:00","2014","02","05","03:00","-9.1","","-12.2","","78","","30","","3","","","","102.19","","","","-11","","NA"
"-73.74","45.47","MONTREAL/PIERRE ELLIOTT TRUDEAU INTL","702S006","2014-02-05 04:00","2014","02","05","04:00","-8.1","","-12.1","","73","","1","","3","","","","102.04","","","","-10","","NA"
"-73.74","45.47","MONTREAL/PIERRE ELLIOTT TRUDEAU INTL","702S006","2014-02-05 05:00","2014","02","05","05:00","-8.8","","-12.2","","77","","33","","3","","","","102.05","","","","-10","","NA"
"-73.74","45.47","MONTREAL/PIERRE ELLIOTT TRUDEAU INTL","702S006","2014-02-05 06:00","2014","02","05","06:00","-7.8","","-11.4","","75","","2","","4","","","","101.96","","","","-10","","NA"
"-73.74","45.47","MONTREAL/PIERRE ELLIOTT TRUDEAU INTL","702S006","2014-02-05 07:00","2014","02","05","07:00","-8.4","","-12.2","","74","","2","","15","","","","101.95","","","","-15","","NA"
"-73.74","45.47","MONTREAL/PIERRE ELLIOTT TRUDEAU INTL","702S006","2014-02-05 08:00","2014","02","05","08:00","-7.9","","-12.0","","72","","5","","12","","","","101.87","","","","-13","","NA"
"-73.74","45.47","MONTREAL/PIERRE ELLIOTT TRUDEAU INTL","702S006","2014-02-05 09:00","2014","02","05","09:00","-9.1","","-12.7","","75","","4","","23","","","","101.71","","","","-17","","NA"
"-73.74","45.47","MONTREAL/PIERRE ELLIOTT TRUDEAU INTL","702S006","2014-02-05 10:00","2014","02","05","10:00","-9.1","","-11.6","","82","","4","","18","","","","101.60","","","","-16","","NA"
"-73.74","45.47","MONTREAL/PIERRE ELLIOTT TRUDEAU INTL","702S006","2014-02-05 11:00","2014","02","05","11:00","-9.6","","-11.2","","88","","4","","22","","","","101.43","","","","-18","","NA"
"-73.74","45.47","MONTREAL/PIERRE ELLIOTT TRUDEAU INTL","702S006","2014-02-05 12:00","2014","02","05","12:00","-9.4","","-11.0","","88","","3","","22","","","","101.21","","","","-17","","NA"
"-73.74","45.47","MONTREAL/PIERRE ELLIOTT TRUDEAU INTL","702S006","2014-02-05 13:00","2014","02","05","13:00","-9.6","","-11.1","","89","","3","","27","","","","101.01","","","","-19","","NA"
"-73.74","45.47","MONTREAL/PIERRE ELLIOTT TRUDEAU INTL","702S006","2014-02-05 14:00","2014","02","05","14:00","-9.8","","-11.3","","89","","2","","22","","","","100.98","","","","-18","","NA"
"-73.74","45.47","MONTREAL/PIERRE ELLIOTT TRUDEAU INTL","702S006","2014-02-05 15:00","2014","02","05","15:00","-9.6","","-11.0","","89","","2","","19","","","","100.94","","","","-17","","NA"
"-73.74","45.47","MONTREAL/PIERRE ELLIOTT TRUDEAU INTL","702S006","2014-02-05 16:00","2014","02","05","16:00","-9.7","","-11.0","","90","","2","","26","","","","100.91","","","","-19","","NA"
"-73.74","45.47","MONTREAL/PIERRE ELLIOTT TRUDEAU INTL","702S006","2014-02-05 17:00","2014","02","05","17:00","-9.6","","-10.9","","90","","1","","18","","","","100.99","","","","-17","","NA"
"-73.74","45.47","MONTREAL/PIERRE ELLIOTT TRUDEAU INTL","702S006","2014-02-05 18:00","2014","02","05","18:00","-9.6","","-10.9","","90","","1","","20","","","","101.10","","","","-17","","NA"
"-73.74","45.47","MONTREAL/PIERRE ELLIOTT TRUDEAU INTL","702S006","2014-02-05 19:00","2014","02","05","19:00","-9.9","","-11.3","","89","","1","","20","","","","101.12","","","","-18","","NA"
"-73.74","45.47","MONTREAL/PIERRE ELLIOTT TRUDEAU INTL","702S006","2014-02-05 20:00","2014","02","05","20:00","-10.1","","-12.7","","81","","36","","15","","","","101.22","","","","-17","","NA"
"-73.74","45.47","MONTREAL/PIERRE ELLIOTT TRUDEAU INTL","702S006","2014-02-05 21:00","2014","02","05","21:00","-10.6","","-16.7","","61","","36","","19","","","","101.34","","","","-18","","NA"
"-73.74","45.47","MONTREAL/PIERRE ELLIOTT TRUDEAU INTL","702S006","2014-02-05 22:00","2014","02","05","22:00","-12.0","","-17.7","","62","","1","","13","","","","101.46","","","","-19","","NA"
"-73.74","45.47","MONTREAL/PIERRE ELLIOTT TRUDEAU INTL","702S006","2014-02-05 23:00","2014","02","05","23:00","-13.2","","-18.4","","65","","36","","10","","","","101.58","","","","-19","","NA"
"-73.74","45.47","MONTREAL/PIERRE ELLIOTT TRUDEAU INTL","702S006","2014-02-06 00:00","2014","02","06","00:00","-15.1","","-18.9","","72","","34","","9","","","","101.71","","","","-21","","NA"
"-73.74","45.47","MONTREAL/PIERRE ELLIOTT TRUDEAU INTL","702S006","2014-02-06 01:00","2014","02","06","01:00","-15.2","","-19.5","","69","","1","","11","","","","101.79","","","","-22","","NA"
"-73.74","45.47","MONTREAL/PIERRE ELLIOTT TRUDEAU INTL","702S006","2014-02-06 02:00","2014","02","06","02:00","-18.4","","-22.3","","71","","33","","7","","","","101.86","","","","-24","","NA"
"-73.74","45.47","MONTREAL/PIERRE ELLIOTT TRUDEAU INTL","702S006","2014-02-06 03:00","2014","02","06","03:00","-16.3","","-19.8","","74","","1","","9","","","","101.91","","","","-22","","NA"
"-73.74","45.47","MONTREAL/PIERRE ELLIOTT TRUDEAU INTL","702S006","2014-02-06 04:00","2014","02","06","04:00","-16.9","","-20.6","","73","","28","","6","","","","101.98","","","","-21","","NA"
"-73.74","45.47","MONTREAL/PIERRE ELLIOTT TRUDEAU INTL","702S006","2014-02-06 05:00","2014","02","06","05:00","-17.8","","-20.5","","79","","22","","5","","","","102.05","","","","-22","","NA"
"-73.74","45.47","MONTREAL/PIERRE ELLIOTT TRUDEAU INTL","702S006","2014-02-06 06:00","2014","02","06","06:00","-17.6","","-20.4","","79","","25","","4","","","","102.09","","","","-21","","NA"
"-73.74","45.47","MONTREAL/PIERRE ELLIOTT TRUDEAU INTL","702S006","2014-02-06 07:00","2014","02","06","07:00","-17.7","","-20.5","","78","","22","","7","","","","102.17","","","","-23","","NA"
"-73.74","45.47","MONTREAL/PIERRE ELLIOTT TRUDEAU INTL","702S006","2014-02-06 08:00","2014","02","06","08:00","-17.9","","-20.6","","80","","20","","8","","","","102.17","","","","-24","","NA"
"-73.74","45.47","MONTREAL/PIERRE ELLIOTT TRUDEAU INTL","702S006","2014-02-06 09:00","2014","02","06","09:00","-17.6","","-20.9","","75","","23","","7","","","","102.22","","","","-23","","NA"
"-73.74","45.47","MONTREAL/PIERRE ELLIOTT TRUDEAU INTL","702S006","2014-02-06 10:00","2014","02","06","10:00","-16.4","","-20.0","","74","","23","","10","","","","102.24","","","","-23","","NA"
"-73.74","45.47","MONTREAL/PIERRE ELLIOTT TRUDEAU INTL","702S006","2014-02-06 11:00","2014","02","06","11:00","-15.1","","-19.3","","70","","21","","6","","","","102.21","","","","-19","","NA"
"-73.74","45.47","MONTREAL/PIERRE ELLIOTT TRUDEAU INTL","702S006","2014-02-06 12:00","2014","02","06","12:00","-14.2","","-18.3","","71","","20","","15","","","","102.16","","","","-22","","NA"
"-73.74","45.47","MONTREAL/PIERRE ELLIOTT TRUDEAU INTL","702S006","2014-02-06 13:00","2014","02","06","13:00","-13.4","","-18.5","","65","","21","","18","","","","102.06","","","","-22","","NA"
"-73.74","45.47","MONTREAL/PIERRE ELLIOTT TRUDEAU INTL","702S006","2014-02-06 14:00","2014","02","06","14:00","-12.0","","-17.3","","65","","22","","16","","","","101.97","","","","-19","","NA"
"-73.74","45.47","MONTREAL/PIERRE ELLIOTT TRUDEAU INTL","702S006","2014-02-06 15:00","2014","02","06","15:00","-10.9","","-17.4","","59","","24","","19","","","","101.95","","","","-19","","NA"
"-73.74","45.47","MONTREAL/PIERRE ELLIOTT TRUDEAU INTL","702S006","2014-02-06 16:00","2014","02","06","16:00","-10.5","","-16.9","","59","","23","","13","","","","101.89","","","","-17","","NA"
"-73.74","45.47","MONTREAL/PIERRE ELLIOTT TRUDEAU INTL","702S006","2014-02-06 17:00","2014","02","06","17:00","-11.1","","-17.2","","60","","22","","9","","","","101.84","","","","-16","","NA"
"-73.74","45.47","MONTREAL/PIERRE ELLIOTT TRUDEAU INTL","702S006","2014-02-06 18:00","2014","02","06","18:00","-12.4","","-16.8","","70","","15","","13","","","","101.80","","","","-19","","NA"
"-73.74","45.47","MONTREAL/PIERRE ELLIOTT TRUDEAU INTL","702S006","2014-02-06 19:00","2014","02","06","19:00","-12.7","","-16.6","","73","","16","","14","","","","101.76","","","","-20","","NA"
"-73.74","45.47","MONTREAL/PIERRE ELLIOTT TRUDEAU INTL","702S006","2014-02-06 20:00","2014","02","06","20:00","-11.6","","-15.4","","73","","16","","13","","","","101.71","","","","-18","","NA"
"-73.74","45.47","MONTREAL/PIERRE ELLIOTT TRUDEAU INTL","702S006","2014-02-06 21:00","2014","02","06","21:00","-11.0","","-14.8","","74","","19","","16","","","","101.64","","","","-18","","NA"
"-73.74","45.47","MONTREAL/PIERRE ELLIOTT TRUDEAU INTL","702S006","2014-02-06 22:00","2014","02","06","22:00","-10.0","","-13.0","","79","","20","","14","","","","101.59","","","","-16","","NA"
"-73.74","45.47","MONTREAL/PIERRE ELLIOTT TRUDEAU INTL","702S006","2014-02-06 23:00","2014","02","06","23:00","-9.4","","-12.3","","80","","20","","17","","","","101.53","","","","-16","","NA"
"-73.74","45.47","MONTREAL/PIERRE ELLIOTT TRUDEAU INTL","702S006","2014-02-07 00:00","2014","02","07","00:00","-10.3","","-12.9","","81","","25","","6","","","","101.54","","","","-14","","NA"
"-73.74","45.47","MONTREAL/PIERRE ELLIOTT TRUDEAU INTL","702S006","2014-02-07 01:00","2014","02","07","01:00","-9.1","","-11.6","","82","","24","","15","","","","101.51","","","","-16","","NA"
"-73.74","45.47","MONTREAL/PIERRE ELLIOTT TRUDEAU INTL","702S006","2014-02-07 02:00","2014","02","07","02:00","-9.8","","-12.9","","78","","22","","11","","","","101.51","","","","-15","","NA"
"-73.74","45.47","MONTREAL/PIERRE ELLIOTT TRUDEAU INTL","702S006","2014-02-07 03:00","2014","02","07","03:00","-10.8","","-13.8","","78","","21","","17","","","","101.50","","","","-18","","NA"
"-73.74","45.47","MONTREAL/PIERRE ELLIOTT TRUDEAU INTL","702S006","2014-02-07 04:00","2014","02","07","04:00","-10.7","","-14.8","","72","","21","","17","","","","101.49","","","","-18","","NA"
"-73.74","45.47","MONTREAL/PIERRE ELLIOTT TRUDEAU INTL","702S006","2014-02-07 05:00","2014","02","07","05:00","-11.4","","-15.4","","72","","21","","11","","","","101.48","","","","-17","","NA"
"-73.74","45.47","MONTREAL/PIERRE ELLIOTT TRUDEAU INTL","702S006","2014-02-07 06:00","2014","02","07","06:00","-10.7","","-14.8","","72","","22","","10","","","","101.48","","","","-16","","NA"
"-73.74","45.47","MONTREAL/PIERRE ELLIOTT TRUDEAU INTL","702S006","2014-02-07 07:00","2014","02","07","07:00","-10.8","","-14.5","","74","","23","","10","","","","101.51","","","","-16","","NA"
"-73.74","45.47","MONTREAL/PIERRE ELLIOTT TRUDEAU INTL","702S006","2014-02-07 08:00","2014","02","07","08:00","-10.1","","-13.8","","75","","23","","12","","","","101.56","","","","-16","","NA"
"-73.74","45.47","MONTREAL/PIERRE ELLIOTT TRUDEAU INTL","702S006","2014-02-07 09:00","2014","02","07","09:00","-8.9","","-12.7","","74","","23","","17","","","","101.58","","","","-16","","NA"
"-73.74","45.47","MONTREAL/PIERRE ELLIOTT TRUDEAU INTL","702S006","2014-02-07 10:00","2014","02","07","10:00","-8.2","","-12.6","","71","","24","","22","","","","101.63","","","","-16","","NA"
"-73.74","45.47","MONTREAL/PIERRE ELLIOTT TRUDEAU INTL","702S006","2014-02-07 11:00","2014","02","07","11:00","-7.6","","-12.6","","67","","24","","23","","","","101.61","","","","-15","","NA"
"-73.74","45.47","MONTREAL/PIERRE ELLIOTT TRUDEAU INTL","702S006","2014-02-07 12:00","2014","02","07","12:00","-7.9","","-13.7","","63","","24","","29","","","","101.57","","","","-17","","NA"
"-73.74","45.47","MONTREAL/PIERRE ELLIOTT TRUDEAU INTL","702S006","2014-02-07 13:00","2014","02","07","13:00","-7.8","","-14.4","","59","","24","","28","","","","101.52","","","","-16","","NA"
"-73.74","45.47","MONTREAL/PIERRE ELLIOTT TRUDEAU INTL","702S006","2014-02-07 14:00","2014","02","07","14:00","-7.5","","-13.8","","61","","24","","28","","","","101.49","","","","-16","","NA"
"-73.74","45.47","MONTREAL/PIERRE ELLIOTT TRUDEAU INTL","702S006","2014-02-07 15:00","2014","02","07","15:00","-7.4","","-13.7","","61","","24","","26","","","","101.48","","","","-16","","NA"
"-73.74","45.47","MONTREAL/PIERRE ELLIOTT TRUDEAU INTL","702S006","2014-02-07 16:00","2014","02","07","16:00","-7.7","","-13.5","","63","","23","","25","","","","101.49","","","","-16","","NA"
"-73.74","45.47","MONTREAL/PIERRE ELLIOTT TRUDEAU INTL","702S006","2014-02-07 17:00","2014","02","07","17:00","-8.0","","-13.5","","64","","24","","27","","","","101.50","","","","-16","","NA"
"-73.74","45.47","MONTREAL/PIERRE ELLIOTT TRUDEAU INTL","702S006","2014-02-07 18:00","2014","02","07","18:00","-7.9","","-12.6","","69","","23","","29","","","","101.57","","","","-17","","NA"
"-73.74","45.47","MONTREAL/PIERRE ELLIOTT TRUDEAU INTL","702S006","2014-02-07 19:00","2014","02","07","19:00","-8.3","","-12.7","","71","","23","","26","","","","101.58","","","","-17","","NA"
"-73.74","45.47","MONTREAL/PIERRE ELLIOTT TRUDEAU INTL","702S006","2014-02-07 20:00","2014","02","07","20:00","-8.3","","-12.2","","74","","24","","27","","","","101.55","","","","-17","","NA"
"-73.74","45.47","MONTREAL/PIERRE ELLIOTT TRUDEAU INTL","702S006","2014-02-07 21:00","2014","02","07","21:00","-8.3","","-12.4","","72","","24","","27","","","","101.57","","","","-17","","NA"
"-73.74","45.47","MONTREAL/PIERRE ELLIOTT TRUDEAU INTL","702S006","2014-02-07 22:00","2014","02","07","22:00","-8.5","","-12.7","","72","","25","","24","","","","101.60","","","","-17","","NA"
"-73.74","45.47","MONTREAL/PIERRE ELLIOTT TRUDEAU INTL","702S006","2014-02-07 23:00","2014","02","07","23:00","-9.4","","-12.9","","76","","26","","34","","","","101.63","","","","-19","","NA"
"-73.74","45.47","MONTREAL/PIERRE ELLIOTT TRUDEAU INTL","702S006","2014-02-08 00:00","2014","02","08","00:00","-10.3","","-16.1","","63","","26","","26","","","","101.72","","","","-19","","NA"
"-73.74","45.47","MONTREAL/PIERRE ELLIOTT TRUDEAU INTL","702S006","2014-02-08 01:00","2014","02","08","01:00","-11.5","","-17.1","","63","","23","","21","","","","101.70","","","","-20","","NA"
"-73.74","45.47","MONTREAL/PIERRE ELLIOTT TRUDEAU INTL","702S006","2014-02-08 02:00","2014","02","08","02:00","-11.5","","-17.2","","63","","25","","16","","","","101.71","","","","-19","","NA"
"-73.74","45.47","MONTREAL/PIERRE ELLIOTT TRUDEAU INTL","702S006","2014-02-08 03:00","2014","02","08","03:00","-11.1","","-16.5","","65","","24","","22","","","","101.69","","","","-20","","NA"
"-73.74","45.47","MONTREAL/PIERRE ELLIOTT TRUDEAU INTL","702S006","2014-02-08 04:00","2014","02","08","04:00","-10.6","","-15.8","","65","","24","","20","","","","101.71","","","","-19","","NA"
"-73.74","45.47","MONTREAL/PIERRE ELLIOTT TRUDEAU INTL","702S006","2014-02-08 05:00","2014","02","08","05:00","-10.7","","-15.5","","68","","24","","19","","","","101.76","","","","-19","","NA"
"-73.74","45.47","MONTREAL/PIERRE ELLIOTT TRUDEAU INTL","702S006","2014-02-08 06:00","2014","02","08","06:00","-10.6","","-15.7","","66","","24","","20","","","","101.79","","","","-19","","NA"
"-73.74","45.47","MONTREAL/PIERRE ELLIOTT TRUDEAU INTL","702S006","2014-02-08 07:00","2014","02","08","07:00","-11.2","","-16.0","","67","","25","","17","","","","101.84","","","","-19","","NA"
"-73.74","45.47","MONTREAL/PIERRE ELLIOTT TRUDEAU INTL","702S006","2014-02-08 08:00","2014","02","08","08:00","-11.4","","-16.1","","68","","25","","17","","","","101.91","","","","-19","","NA"
"-73.74","45.47","MONTREAL/PIERRE ELLIOTT TRUDEAU INTL","702S006","2014-02-08 09:00","2014","02","08","09:00","-10.7","","-15.7","","67","","25","","17","","","","101.95","","","","-18","","NA"
"-73.74","45.47","MONTREAL/PIERRE ELLIOTT TRUDEAU INTL","702S006","2014-02-08 10:00","2014","02","08","10:00","-10.3","","-15.2","","67","","25","","17","","","","101.96","","","","-18","","NA"
"-73.74","45.47","MONTREAL/PIERRE ELLIOTT TRUDEAU INTL","702S006","2014-02-08 11:00","2014","02","08","11:00","-9.1","","-14.3","","66","","25","","24","","","","101.94","","","","-17","","NA"
"-73.74","45.47","MONTREAL/PIERRE ELLIOTT TRUDEAU INTL","702S006","2014-02-08 12:00","2014","02","08","12:00","-8.1","","-14.1","","62","","23","","20","","","","101.84","","","","-15","","NA"
"-73.74","45.47","MONTREAL/PIERRE ELLIOTT TRUDEAU INTL","702S006","2014-02-08 13:00","2014","02","08","13:00","-7.4","","-13.8","","60","","24","","20","","","","101.74","","","","-15","","NA"
"-73.74","45.47","MONTREAL/PIERRE ELLIOTT TRUDEAU INTL","702S006","2014-02-08 14:00","2014","02","08","14:00","-6.3","","-13.1","","58","","23","","17","","","","101.68","","","","-13","","NA"
"-73.74","45.47","MONTREAL/PIERRE ELLIOTT TRUDEAU INTL","702S006","2014-02-08 15:00","2014","02","08","15:00","-5.8","","-13.9","","53","","24","","19","","","","101.68","","","","-12","","NA"
"-73.74","45.47","MONTREAL/PIERRE ELLIOTT TRUDEAU INTL","702S006","2014-02-08 16:00","2014","02","08","16:00","-7.0","","-14.1","","57","","28","","15","","","","101.73","","","","-13","","NA"
"-73.74","45.47","MONTREAL/PIERRE ELLIOTT TRUDEAU INTL","702S006","2014-02-08 17:00","2014","02","08","17:00","-7.1","","-14.3","","57","","27","","13","","","","101.77","","","","-13","","NA"
"-73.74","45.47","MONTREAL/PIERRE ELLIOTT TRUDEAU INTL","702S006","2014-02-08 18:00","2014","02","08","18:00","-7.2","","-14.1","","57","","27","","11","","","","101.80","","","","-12","","NA"
"-73.74","45.47","MONTREAL/PIERRE ELLIOTT TRUDEAU INTL","702S006","2014-02-08 19:00","2014","02","08","19:00","-7.0","","-14.0","","57","","24","","8","","","","101.81","","","","-11","","NA"
"-73.74","45.47","MONTREAL/PIERRE ELLIOTT TRUDEAU INTL","702S006","2014-02-08 20:00","2014","02","08","20:00","-7.0","","-12.9","","63","","25","","11","","","","101.81","","","","-12","","NA"
"-73.74","45.47","MONTREAL/PIERRE ELLIOTT TRUDEAU INTL","702S006","2014-02-08 21:00","2014","02","08","21:00","-7.1","","-12.6","","65","","24","","13","","","","101.79","","","","-13","","NA"
"-73.74","45.47","MONTREAL/PIERRE ELLIOTT TRUDEAU INTL","702S006","2014-02-08 22:00","2014","02","08","22:00","-7.5","","-12.9","","66","","25","","9","","","","101.78","","","","-12","","NA"
"-73.74","45.47","MONTREAL/PIERRE ELLIOTT TRUDEAU INTL","702S006","2014-02-08 23:00","2014","02","08","23:00","-7.8","","-13.3","","64","","25","","9","","","","101.78","","","","-12","","NA"
"-73.74","45.47","MONTREAL/PIERRE ELLIOTT TRUDEAU INTL","702S006","2014-02-09 00:00","2014","02","09","00:00","-8.1","","-13.0","","68","","24","","7","","","","101.75","","","","-12","","NA"
"-73.74","45.47","MONTREAL/PIERRE ELLIOTT TRUDEAU INTL","702S006","2014-02-09 01:00","2014","02","09","01:00","-9.2","","-12.6","","76","","25","","5","","","","101.73","","","","-12","","NA"
"-73.74","45.47","MONTREAL/PIERRE ELLIOTT TRUDEAU INTL","702S006","2014-02-09 02:00","2014","02","09","02:00","-8.9","","-11.7","","80","","23","","5","","","","101.73","","","","-12","","NA"
"-73.74","45.47","MONTREAL/PIERRE ELLIOTT TRUDEAU INTL","702S006","2014-02-09 03:00","2014","02","09","03:00","-9.3","","-12.0","","81","","31","","4","","","","101.72","","","","-12","","NA"
"-73.74","45.47","MONTREAL/PIERRE ELLIOTT TRUDEAU INTL","702S006","2014-02-09 04:00","2014","02","09","04:00","-8.9","","-11.3","","83","","24","","2","","","","101.70","","","","-10","","NA"
"-73.74","45.47","MONTREAL/PIERRE ELLIOTT TRUDEAU INTL","702S006","2014-02-09 05:00","2014","02","09","05:00","-9.0","","-11.4","","83","","22","","4","","","","101.71","","","","-11","","NA"
"-73.74","45.47","MONTREAL/PIERRE ELLIOTT TRUDEAU INTL","702S006","2014-02-09 06:00","2014","02","09","06:00","-9.4","","-11.8","","83","","25","","6","","","","101.71","","","","-13","","NA"
"-73.74","45.47","MONTREAL/PIERRE ELLIOTT TRUDEAU INTL","702S006","2014-02-09 07:00","2014","02","09","07:00","-11.8","","-14.7","","79","","3","","10","","","","101.74","","","","-17","","NA"
"-73.74","45.47","MONTREAL/PIERRE ELLIOTT TRUDEAU INTL","702S006","2014-02-09 08:00","2014","02","09","08:00","-11.7","","-14.5","","79","","1","","6","","","","101.76","","","","-15","","NA"
"-73.74","45.47","MONTREAL/PIERRE ELLIOTT TRUDEAU INTL","702S006","2014-02-09 09:00","2014","02","09","09:00","-11.6","","-14.5","","79","","1","","8","","","","101.75","","","","-16","","NA"
"-73.74","45.47","MONTREAL/PIERRE ELLIOTT TRUDEAU INTL","702S006","2014-02-09 10:00","2014","02","09","10:00","-10.2","","-13.7","","76","","1","","6","","","","101.76","","","","-14","","NA"
"-73.74","45.47","MONTREAL/PIERRE ELLIOTT TRUDEAU INTL","702S006","2014-02-09 11:00","2014","02","09","11:00","-8.5","","-12.6","","72","","3","","5","","","","101.68","","","","-11","","NA"
"-73.74","45.47","MONTREAL/PIERRE ELLIOTT TRUDEAU INTL","702S006","2014-02-09 12:00","2014","02","09","12:00","-6.6","","-12.3","","64","","17","","1","","","","101.60","","","","-7","","NA"
"-73.74","45.47","MONTREAL/PIERRE ELLIOTT TRUDEAU INTL","702S006","2014-02-09 13:00","2014","02","09","13:00","-7.4","","-12.9","","65","","36","","2","","","","101.47","","","","-8","","NA"
"-73.74","45.47","MONTREAL/PIERRE ELLIOTT TRUDEAU INTL","702S006","2014-02-09 14:00","2014","02","09","14:00","-7.2","","-12.6","","65","","1","","1","","","","101.42","","","","-8","","NA"
"-73.74","45.47","MONTREAL/PIERRE ELLIOTT TRUDEAU INTL","702S006","2014-02-09 15:00","2014","02","09","15:00","-6.6","","-12.4","","63","","5","","3","","","","101.33","","","","-8","","NA"
"-73.74","45.47","MONTREAL/PIERRE ELLIOTT TRUDEAU INTL","702S006","2014-02-09 16:00","2014","02","09","16:00","-6.9","","-13.1","","61","","9","","5","","","","101.29","","","","-9","","NA"
"-73.74","45.47","MONTREAL/PIERRE ELLIOTT TRUDEAU INTL","702S006","2014-02-09 17:00","2014","02","09","17:00","-7.3","","-11.3","","73","","10","","10","","","","101.28","","","","-12","","NA"
"-73.74","45.47","MONTREAL/PIERRE ELLIOTT TRUDEAU INTL","702S006","2014-02-09 18:00","2014","02","09","18:00","-7.5","","-11.4","","74","","13","","11","","","","101.27","","","","-13","","NA"
"-73.74","45.47","MONTREAL/PIERRE ELLIOTT TRUDEAU INTL","702S006","2014-02-09 19:00","2014","02","09","19:00","-7.7","","-11.6","","73","","15","","10","","","","101.27","","","","-13","","NA"
"-73.74","45.47","MONTREAL/PIERRE ELLIOTT TRUDEAU INTL","702S006","2014-02-09 20:00","2014","02","09","20:00","-8.1","","-10.8","","81","","15","","2","","","","101.27","","","","-9","","NA"
"-73.74","45.47","MONTREAL/PIERRE ELLIOTT TRUDEAU INTL","702S006","2014-02-09 21:00","2014","02","09","21:00","-8.5","","-10.3","","87","","33","","4","","","","101.22","","","","-11","","NA"
"-73.74","45.47","MONTREAL/PIERRE ELLIOTT TRUDEAU INTL","702S006","2014-02-09 22:00","2014","02","09","22:00","-8.9","","-10.5","","88","","33","","4","","","","101.19","","","","-11","","NA"
"-73.74","45.47","MONTREAL/PIERRE ELLIOTT TRUDEAU INTL","702S006","2014-02-09 23:00","2014","02","09","23:00","-9.2","","-11.0","","87","","35","","10","","","","101.18","","","","-14","","NA"
"-73.74","45.47","MONTREAL/PIERRE ELLIOTT TRUDEAU INTL","702S006","2014-02-10 00:00","2014","02","10","00:00","-9.4","","-11.1","","88","","34","","8","","","","101.20","","","","-14","","NA"
"-73.74","45.47","MONTREAL/PIERRE ELLIOTT TRUDEAU INTL","702S006","2014-02-10 01:00","2014","02","10","01:00","-10.0","","-11.7","","87","","34","","9","","","","101.18","","","","-15","","NA"
"-73.74","45.47","MONTREAL/PIERRE ELLIOTT TRUDEAU INTL","702S006","2014-02-10 02:00","2014","02","10","02:00","-10.9","","-12.6","","87","","32","","8","","","","101.22","","","","-16","","NA"
"-73.74","45.47","MONTREAL/PIERRE ELLIOTT TRUDEAU INTL","702S006","2014-02-10 03:00","2014","02","10","03:00","-12.4","","-14.0","","88","","31","","4","","","","101.22","","","","-15","","NA"
"-73.74","45.47","MONTREAL/PIERRE ELLIOTT TRUDEAU INTL","702S006","2014-02-10 04:00","2014","02","10","04:00","-12.6","","-14.2","","87","","27","","2","","","","101.23","","","","-14","","NA"
"-73.74","45.47","MONTREAL/PIERRE ELLIOTT TRUDEAU INTL","702S006","2014-02-10 05:00","2014","02","10","05:00","-12.3","","-13.9","","88","","24","","3","","","","101.25","","","","-14","","NA"
"-73.74","45.47","MONTREAL/PIERRE ELLIOTT TRUDEAU INTL","702S006","2014-02-10 06:00","2014","02","10","06:00","-12.5","","-14.1","","88","","24","","3","","","","101.29","","","","-14","","NA"
"-73.74","45.47","MONTREAL/PIERRE ELLIOTT TRUDEAU INTL","702S006","2014-02-10 07:00","2014","02","10","07:00","-13.2","","-15.0","","87","","27","","2","","","","101.36","","","","-15","","NA"
"-73.74","45.47","MONTREAL/PIERRE ELLIOTT TRUDEAU INTL","702S006","2014-02-10 08:00","2014","02","10","08:00","-12.9","","-14.6","","87","","28","","4","","","","101.45","","","","-16","","NA"
"-73.74","45.47","MONTREAL/PIERRE ELLIOTT TRUDEAU INTL","702S006","2014-02-10 09:00","2014","02","10","09:00","-12.6","","-14.4","","86","","15","","4","","","","101.49","","","","-15","","NA"
"-73.74","45.47","MONTREAL/PIERRE ELLIOTT TRUDEAU INTL","702S006","2014-02-10 10:00","2014","02","10","10:00","-9.0","","-13.0","","72","","23","","3","","","","101.52","","","","-11","","NA"
"-73.74","45.47","MONTREAL/PIERRE ELLIOTT TRUDEAU INTL","702S006","2014-02-10 11:00","2014","02","10","11:00","-9.0","","-13.3","","71","","20","","6","","","","101.55","","","","-12","","NA"
"-73.74","45.47","MONTREAL/PIERRE ELLIOTT TRUDEAU INTL","702S006","2014-02-10 12:00","2014","02","10","12:00","-8.0","","-13.6","","64","","22","","8","","","","101.51","","","","-12","","NA"
"-73.74","45.47","MONTREAL/PIERRE ELLIOTT TRUDEAU INTL","702S006","2014-02-10 13:00","2014","02","10","13:00","-7.6","","-13.7","","62","","25","","16","","","","101.47","","","","-14","","NA"
"-73.74","45.47","MONTREAL/PIERRE ELLIOTT TRUDEAU INTL","702S006","2014-02-10 14:00","2014","02","10","14:00","-7.3","","-15.4","","52","","27","","21","","","","101.45","","","","-15","","NA"
"-73.74","45.47","MONTREAL/PIERRE ELLIOTT TRUDEAU INTL","702S006","2014-02-10 15:00","2014","02","10","15:00","-6.9","","-14.8","","53","","26","","20","","","","101.49","","","","-14","","NA"
"-73.74","45.47","MONTREAL/PIERRE ELLIOTT TRUDEAU INTL","702S006","2014-02-10 16:00","2014","02","10","16:00","-7.5","","-14.9","","56","","27","","16","","","","101.55","","","","-14","","NA"
"-73.74","45.47","MONTREAL/PIERRE ELLIOTT TRUDEAU INTL","702S006","2014-02-10 17:00","2014","02","10","17:00","-8.0","","-15.1","","57","","26","","15","","","","101.60","","","","-14","","NA"
"-73.74","45.47","MONTREAL/PIERRE ELLIOTT TRUDEAU INTL","702S006","2014-02-10 18:00","2014","02","10","18:00","-8.7","","-14.6","","62","","25","","11","","","","101.67","","","","-14","","NA"
"-73.74","45.47","MONTREAL/PIERRE ELLIOTT TRUDEAU INTL","702S006","2014-02-10 19:00","2014","02","10","19:00","-9.5","","-15.0","","64","","27","","13","","","","101.71","","","","-16","","NA"
"-73.74","45.47","MONTREAL/PIERRE ELLIOTT TRUDEAU INTL","702S006","2014-02-10 20:00","2014","02","10","20:00","-10.1","","-15.1","","67","","27","","10","","","","101.75","","","","-15","","NA"
"-73.74","45.47","MONTREAL/PIERRE ELLIOTT TRUDEAU INTL","702S006","2014-02-10 21:00","2014","02","10","21:00","-12.1","","-16.0","","73","","30","","9","","","","101.80","","","","-17","","NA"
"-73.74","45.47","MONTREAL/PIERRE ELLIOTT TRUDEAU INTL","702S006","2014-02-10 22:00","2014","02","10","22:00","-12.9","","-16.2","","76","","28","","8","","","","101.83","","","","-18","","NA"
"-73.74","45.47","MONTREAL/PIERRE ELLIOTT TRUDEAU INTL","702S006","2014-02-10 23:00","2014","02","10","23:00","-13.8","","-17.0","","77","","30","","5","","","","101.89","","","","-17","","NA"
"-73.74","45.47","MONTREAL/PIERRE ELLIOTT TRUDEAU INTL","702S006","2014-02-11 00:00","2014","02","11","00:00","-15.0","","-18.3","","76","","29","","10","","","","101.94","","","","-21","","NA"
"-73.74","45.47","MONTREAL/PIERRE ELLIOTT TRUDEAU INTL","702S006","2014-02-11 01:00","2014","02","11","01:00","-14.3","","-18.2","","72","","30","","12","","","","101.95","","","","-21","","NA"
"-73.74","45.47","MONTREAL/PIERRE ELLIOTT TRUDEAU INTL","702S006","2014-02-11 02:00","2014","02","11","02:00","-14.5","","-18.7","","70","","29","","13","","","","101.98","","","","-22","","NA"
"-73.74","45.47","MONTREAL/PIERRE ELLIOTT TRUDEAU INTL","702S006","2014-02-11 03:00","2014","02","11","03:00","-15.6","","-19.8","","71","","29","","12","","","","102.00","","","","-23","","NA"
"-73.74","45.47","MONTREAL/PIERRE ELLIOTT TRUDEAU INTL","702S006","2014-02-11 04:00","2014","02","11","04:00","-16.5","","-20.5","","71","","30","","11","","","","102.03","","","","-23","","NA"
"-73.74","45.47","MONTREAL/PIERRE ELLIOTT TRUDEAU INTL","702S006","2014-02-11 05:00","2014","02","11","05:00","-17.1","","-20.9","","72","","29","","12","","","","102.09","","","","-25","","NA"
"-73.74","45.47","MONTREAL/PIERRE ELLIOTT TRUDEAU INTL","702S006","2014-02-11 06:00","2014","02","11","06:00","-16.9","","-21.1","","70","","28","","11","","","","102.14","","","","-24","","NA"
"-73.74","45.47","MONTREAL/PIERRE ELLIOTT TRUDEAU INTL","702S006","2014-02-11 07:00","2014","02","11","07:00","-17.5","","-21.6","","70","","28","","11","","","","102.22","","","","-25","","NA"
"-73.74","45.47","MONTREAL/PIERRE ELLIOTT TRUDEAU INTL","702S006","2014-02-11 08:00","2014","02","11","08:00","-16.9","","-21.1","","70","","28","","10","","","","102.30","","","","-24","","NA"
"-73.74","45.47","MONTREAL/PIERRE ELLIOTT TRUDEAU INTL","702S006","2014-02-11 09:00","2014","02","11","09:00","-15.5","","-20.4","","66","","29","","15","","","","102.35","","","","-24","","NA"
"-73.74","45.47","MONTREAL/PIERRE ELLIOTT TRUDEAU INTL","702S006","2014-02-11 10:00","2014","02","11","10:00","-14.6","","-20.6","","60","","27","","14","","","","102.39","","","","-22","","NA"
"-73.74","45.47","MONTREAL/PIERRE ELLIOTT TRUDEAU INTL","702S006","2014-02-11 11:00","2014","02","11","11:00","-13.7","","-20.4","","57","","26","","13","","","","102.42","","","","-21","","NA"
"-73.74","45.47","MONTREAL/PIERRE ELLIOTT TRUDEAU INTL","702S006","2014-02-11 12:00","2014","02","11","12:00","-12.8","","-20.3","","53","","28","","13","","","","102.41","","","","-20","","NA"
"-73.74","45.47","MONTREAL/PIERRE ELLIOTT TRUDEAU INTL","702S006","2014-02-11 13:00","2014","02","11","13:00","-11.8","","-20.5","","48","","26","","15","","","","102.39","","","","-19","","NA"
"-73.74","45.47","MONTREAL/PIERRE ELLIOTT TRUDEAU INTL","702S006","2014-02-11 14:00","2014","02","11","14:00","-11.4","","-20.1","","48","","27","","17","","","","102.41","","","","-19","","NA"
"-73.74","45.47","MONTREAL/PIERRE ELLIOTT TRUDEAU INTL","702S006","2014-02-11 15:00","2014","02","11","15:00","-11.4","","-20.3","","48","","27","","18","","","","102.45","","","","-19","","NA"
"-73.74","45.47","MONTREAL/PIERRE ELLIOTT TRUDEAU INTL","702S006","2014-02-11 16:00","2014","02","11","16:00","-11.6","","-20.0","","50","","26","","21","","","","102.53","","","","-20","","NA"
"-73.74","45.47","MONTREAL/PIERRE ELLIOTT TRUDEAU INTL","702S006","2014-02-11 17:00","2014","02","11","17:00","-12.0","","-19.7","","53","","27","","17","","","","102.60","","","","-20","","NA"
"-73.74","45.47","MONTREAL/PIERRE ELLIOTT TRUDEAU INTL","702S006","2014-02-11 18:00","2014","02","11","18:00","-12.9","","-20.5","","53","","33","","13","","","","102.68","","","","-20","","NA"
"-73.74","45.47","MONTREAL/PIERRE ELLIOTT TRUDEAU INTL","702S006","2014-02-11 19:00","2014","02","11","19:00","-14.4","","-21.6","","54","","30","","5","","","","102.77","","","","-18","","NA"
"-73.74","45.47","MONTREAL/PIERRE ELLIOTT TRUDEAU INTL","702S006","2014-02-11 20:00","2014","02","11","20:00","-15.6","","-22.3","","56","","32","","12","","","","102.81","","","","-23","","NA"
"-73.74","45.47","MONTREAL/PIERRE ELLIOTT TRUDEAU INTL","702S006","2014-02-11 21:00","2014","02","11","21:00","-17.1","","-22.9","","61","","30","","8","","","","102.85","","","","-23","","NA"
"-73.74","45.47","MONTREAL/PIERRE ELLIOTT TRUDEAU INTL","702S006","2014-02-11 22:00","2014","02","11","22:00","-16.2","","-22.3","","59","","27","","8","","","","102.90","","","","-22","","NA"
"-73.74","45.47","MONTREAL/PIERRE ELLIOTT TRUDEAU INTL","702S006","2014-02-11 23:00","2014","02","11","23:00","-17.0","","-22.5","","62","","","M","0","","","","102.94","","","","","","NA"
"-73.74","45.47","MONTREAL/PIERRE ELLIOTT TRUDEAU INTL","702S006","2014-02-12 00:00","2014","02","12","00:00","-17.1","","-22.2","","65","","","M","0","","","","102.97","","","","","","NA"
"-73.74","45.47","MONTREAL/PIERRE ELLIOTT TRUDEAU INTL","702S006","2014-02-12 01:00","2014","02","12","01:00","-18.1","","-22.8","","67","","28","","1","","","","103.02","","","","-19","","NA"
"-73.74","45.47","MONTREAL/PIERRE ELLIOTT TRUDEAU INTL","702S006","2014-02-12 02:00","2014","02","12","02:00","-19.4","","-23.0","","73","","","M","1","","","","103.00","","","","-20","","NA"
"-73.74","45.47","MONTREAL/PIERRE ELLIOTT TRUDEAU INTL","702S006","2014-02-12 03:00","2014","02","12","03:00","-20.7","","-24.6","","71","","24","","3","","","","103.02","","","","-23","","NA"
"-73.74","45.47","MONTREAL/PIERRE ELLIOTT TRUDEAU INTL","702S006","2014-02-12 04:00","2014","02","12","04:00","-20.2","","-23.7","","74","","","M","0","","","","103.03","","","","","","NA"
"-73.74","45.47","MONTREAL/PIERRE ELLIOTT TRUDEAU INTL","702S006","2014-02-12 05:00","2014","02","12","05:00","-21.7","","-24.9","","75","","25","","3","","","","103.07","","","","-24","","NA"
"-73.74","45.47","MONTREAL/PIERRE ELLIOTT TRUDEAU INTL","702S006","2014-02-12 06:00","2014","02","12","06:00","-21.4","","-24.3","","78","","","M","0","","","","103.09","","","","","","NA"
"-73.74","45.47","MONTREAL/PIERRE ELLIOTT TRUDEAU INTL","702S006","2014-02-12 07:00","2014","02","12","07:00","-20.1","","-22.9","","78","","16","","2","","","","103.12","","","","-22","","NA"
"-73.74","45.47","MONTREAL/PIERRE ELLIOTT TRUDEAU INTL","702S006","2014-02-12 08:00","2014","02","12","08:00","-19.1","","-22.1","","77","","15","","2","","","","103.17","","","","-21","","NA"
"-73.74","45.47","MONTREAL/PIERRE ELLIOTT TRUDEAU INTL","702S006","2014-02-12 09:00","2014","02","12","09:00","-18.0","","-20.5","","81","","17","","6","","","","103.15","","","","-23","","NA"
"-73.74","45.47","MONTREAL/PIERRE ELLIOTT TRUDEAU INTL","702S006","2014-02-12 10:00","2014","02","12","10:00","-16.8","","-19.1","","82","","17","","7","","","","103.16","","","","-22","","NA"
"-73.74","45.47","MONTREAL/PIERRE ELLIOTT TRUDEAU INTL","702S006","2014-02-12 11:00","2014","02","12","11:00","-12.2","","-16.8","","69","","","M","1","","","","103.05","","","","-13","","NA"
"-73.74","45.47","MONTREAL/PIERRE ELLIOTT TRUDEAU INTL","702S006","2014-02-12 12:00","2014","02","12","12:00","-11.0","","-19.5","","50","","11","","9","","","","102.90","","","","-16","","NA"
"-73.74","45.47","MONTREAL/PIERRE ELLIOTT TRUDEAU INTL","702S006","2014-02-12 13:00","2014","02","12","13:00","-10.3","","-19.0","","49","","15","","11","","","","102.82","","","","-16","","NA"
"-73.74","45.47","MONTREAL/PIERRE ELLIOTT TRUDEAU INTL","702S006","2014-02-12 14:00","2014","02","12","14:00","-10.4","","-19.6","","47","","13","","11","","","","102.69","","","","-16","","NA"
"-73.74","45.47","MONTREAL/PIERRE ELLIOTT TRUDEAU INTL","702S006","2014-02-12 15:00","2014","02","12","15:00","-10.0","","-18.1","","52","","12","","10","","","","102.59","","","","-15","","NA"
"-73.74","45.47","MONTREAL/PIERRE ELLIOTT TRUDEAU INTL","702S006","2014-02-12 16:00","2014","02","12","16:00","-10.2","","-18.0","","53","","12","","10","","","","102.50","","","","-15","","NA"
"-73.74","45.47","MONTREAL/PIERRE ELLIOTT TRUDEAU INTL","702S006","2014-02-12 17:00","2014","02","12","17:00","-10.3","","-18.3","","52","","10","","5","","","","102.41","","","","-13","","NA"
"-73.74","45.47","MONTREAL/PIERRE ELLIOTT TRUDEAU INTL","702S006","2014-02-12 18:00","2014","02","12","18:00","-10.2","","-18.6","","50","","4","","6","","","","102.32","","","","-14","","NA"
"-73.74","45.47","MONTREAL/PIERRE ELLIOTT TRUDEAU INTL","702S006","2014-02-12 19:00","2014","02","12","19:00","-10.3","","-18.4","","51","","10","","9","","","","102.24","","","","-15","","NA"
"-73.74","45.47","MONTREAL/PIERRE ELLIOTT TRUDEAU INTL","702S006","2014-02-12 20:00","2014","02","12","20:00","-10.2","","-18.5","","51","","4","","7","","","","102.16","","","","-14","","NA"
"-73.74","45.47","MONTREAL/PIERRE ELLIOTT TRUDEAU INTL","702S006","2014-02-12 21:00","2014","02","12","21:00","-12.6","","-18.5","","61","","2","","12","","","","102.18","","","","-19","","NA"
"-73.74","45.47","MONTREAL/PIERRE ELLIOTT TRUDEAU INTL","702S006","2014-02-12 22:00","2014","02","12","22:00","-11.5","","-18.1","","58","","5","","3","","","","102.12","","","","-13","","NA"
"-73.74","45.47","MONTREAL/PIERRE ELLIOTT TRUDEAU INTL","702S006","2014-02-12 23:00","2014","02","12","23:00","-13.2","","-18.8","","63","","5","","4","","","","102.09","","","","-16","","NA"
"-73.74","45.47","MONTREAL/PIERRE ELLIOTT TRUDEAU INTL","702S006","2014-02-13 00:00","2014","02","13","00:00","-14.4","","-18.6","","70","","1","","9","","","","102.03","","","","-20","","NA"
"-73.74","45.47","MONTREAL/PIERRE ELLIOTT TRUDEAU INTL","702S006","2014-02-13 01:00","2014","02","13","01:00","-15.7","","-19.3","","74","","1","","10","","","","101.99","","","","-22","","NA"
"-73.74","45.47","MONTREAL/PIERRE ELLIOTT TRUDEAU INTL","702S006","2014-02-13 02:00","2014","02","13","02:00","-17.5","","-21.3","","72","","35","","9","","","","101.96","","","","-24","","NA"
"-73.74","45.47","MONTREAL/PIERRE ELLIOTT TRUDEAU INTL","702S006","2014-02-13 03:00","2014","02","13","03:00","-17.9","","-21.3","","75","","36","","6","","","","101.95","","","","-23","","NA"
"-73.74","45.47","MONTREAL/PIERRE ELLIOTT TRUDEAU INTL","702S006","2014-02-13 04:00","2014","02","13","04:00","-17.4","","-20.6","","76","","36","","8","","","","101.94","","","","-23","","NA"
"-73.74","45.47","MONTREAL/PIERRE ELLIOTT TRUDEAU INTL","702S006","2014-02-13 05:00","2014","02","13","05:00","-16.1","","-19.2","","77","","1","","8","","","","101.98","","","","-22","","NA"
"-73.74","45.47","MONTREAL/PIERRE ELLIOTT TRUDEAU INTL","702S006","2014-02-13 06:00","2014","02","13","06:00","-16.3","","-19.8","","74","","1","","11","","","","101.98","","","","-23","","NA"
"-73.74","45.47","MONTREAL/PIERRE ELLIOTT TRUDEAU INTL","702S006","2014-02-13 07:00","2014","02","13","07:00","-15.4","","-19.1","","73","","2","","7","","","","101.95","","","","-20","","NA"
"-73.74","45.47","MONTREAL/PIERRE ELLIOTT TRUDEAU INTL","702S006","2014-02-13 08:00","2014","02","13","08:00","-15.4","","-19.1","","74","","2","","11","","","","101.92","","","","-22","","NA"
"-73.74","45.47","MONTREAL/PIERRE ELLIOTT TRUDEAU INTL","702S006","2014-02-13 09:00","2014","02","13","09:00","-14.3","","-17.9","","74","","1","","13","","","","101.83","","","","-21","","NA"
"-73.74","45.47","MONTREAL/PIERRE ELLIOTT TRUDEAU INTL","702S006","2014-02-13 10:00","2014","02","13","10:00","-13.2","","-16.9","","74","","1","","10","","","","101.77","","","","-19","","NA"
"-73.74","45.47","MONTREAL/PIERRE ELLIOTT TRUDEAU INTL","702S006","2014-02-13 11:00","2014","02","13","11:00","-11.9","","-16.0","","72","","1","","14","","","","101.70","","","","-19","","NA"
"-73.74","45.47","MONTREAL/PIERRE ELLIOTT TRUDEAU INTL","702S006","2014-02-13 12:00","2014","02","13","12:00","-10.1","","-14.8","","69","","2","","15","","","","101.58","","","","-17","","NA"
"-73.74","45.47","MONTREAL/PIERRE ELLIOTT TRUDEAU INTL","702S006","2014-02-13 13:00","2014","02","13","13:00","-9.6","","-14.9","","65","","3","","16","","","","101.42","","","","-16","","NA"
"-73.74","45.47","MONTREAL/PIERRE ELLIOTT TRUDEAU INTL","702S006","2014-02-13 14:00","2014","02","13","14:00","-7.9","","-13.5","","64","","2","","18","","","","101.28","","","","-15","","NA"
"-73.74","45.47","MONTREAL/PIERRE ELLIOTT TRUDEAU INTL","702S006","2014-02-13 15:00","2014","02","13","15:00","-6.6","","-12.6","","62","","3","","18","","","","101.12","","","","-13","","NA"
"-73.74","45.47","MONTREAL/PIERRE ELLIOTT TRUDEAU INTL","702S006","2014-02-13 16:00","2014","02","13","16:00","-6.3","","-12.9","","59","","3","","20","","","","101.01","","","","-13","","NA"
"-73.74","45.47","MONTREAL/PIERRE ELLIOTT TRUDEAU INTL","702S006","2014-02-13 17:00","2014","02","13","17:00","-7.2","","-13.5","","61","","2","","20","","","","100.81","","","","-14","","NA"
"-73.74","45.47","MONTREAL/PIERRE ELLIOTT TRUDEAU INTL","702S006","2014-02-13 18:00","2014","02","13","18:00","-7.3","","-13.3","","62","","2","","21","","","","100.64","","","","-15","","NA"
"-73.74","45.47","MONTREAL/PIERRE ELLIOTT TRUDEAU INTL","702S006","2014-02-13 19:00","2014","02","13","19:00","-6.6","","-13.1","","60","","2","","21","","","","100.49","","","","-14","","NA"
"-73.74","45.47","MONTREAL/PIERRE ELLIOTT TRUDEAU INTL","702S006","2014-02-13 20:00","2014","02","13","20:00","-6.2","","-13.0","","59","","4","","26","","","","100.34","","","","-14","","NA"
"-73.74","45.47","MONTREAL/PIERRE ELLIOTT TRUDEAU INTL","702S006","2014-02-13 21:00","2014","02","13","21:00","-6.9","","-9.8","","80","","3","","26","","","","100.12","","","","-15","","NA"
"-73.74","45.47","MONTREAL/PIERRE ELLIOTT TRUDEAU INTL","702S006","2014-02-13 22:00","2014","02","13","22:00","-6.2","","-10.6","","71","","3","","24","","","","99.91","","","","-14","","NA"
"-73.74","45.47","MONTREAL/PIERRE ELLIOTT TRUDEAU INTL","702S006","2014-02-13 23:00","2014","02","13","23:00","-6.4","","-8.8","","83","","4","","28","","","","99.65","","","","-15","","NA"
"-73.74","45.47","MONTREAL/PIERRE ELLIOTT TRUDEAU INTL","702S006","2014-02-14 00:00","2014","02","14","00:00","-6.5","","-7.7","","91","","3","","32","","","","99.45","","","","-15","","NA"
"-73.74","45.47","MONTREAL/PIERRE ELLIOTT TRUDEAU INTL","702S006","2014-02-14 01:00","2014","02","14","01:00","-6.1","","-7.2","","92","","2","","31","","","","99.20","","","","-15","","NA"
"-73.74","45.47","MONTREAL/PIERRE ELLIOTT TRUDEAU INTL","702S006","2014-02-14 02:00","2014","02","14","02:00","-5.5","","-6.5","","93","","2","","41","","","","98.95","","","","-15","","NA"
"-73.74","45.47","MONTREAL/PIERRE ELLIOTT TRUDEAU INTL","702S006","2014-02-14 03:00","2014","02","14","03:00","-5.5","","-6.5","","93","","2","","45","","","","98.74","","","","-15","","NA"
"-73.74","45.47","MONTREAL/PIERRE ELLIOTT TRUDEAU INTL","702S006","2014-02-14 04:00","2014","02","14","04:00","-4.8","","-5.7","","93","","2","","40","","","","98.62","","","","-14","","NA"
"-73.74","45.47","MONTREAL/PIERRE ELLIOTT TRUDEAU INTL","702S006","2014-02-14 05:00","2014","02","14","05:00","-4.1","","-4.9","","94","","1","","33","","","","98.48","","","","-12","","NA"
"-73.74","45.47","MONTREAL/PIERRE ELLIOTT TRUDEAU INTL","702S006","2014-02-14 06:00","2014","02","14","06:00","-3.4","","-4.2","","95","","1","","23","","","","98.40","","","","-10","","NA"
"-73.74","45.47","MONTREAL/PIERRE ELLIOTT TRUDEAU INTL","702S006","2014-02-14 07:00","2014","02","14","07:00","-3.6","","-4.3","","95","","34","","15","","","","98.42","","","","-9","","NA"
"-73.74","45.47","MONTREAL/PIERRE ELLIOTT TRUDEAU INTL","702S006","2014-02-14 08:00","2014","02","14","08:00","-3.6","","-4.3","","95","","32","","16","","","","98.43","","","","-9","","NA"
"-73.74","45.47","MONTREAL/PIERRE ELLIOTT TRUDEAU INTL","702S006","2014-02-14 09:00","2014","02","14","09:00","-3.8","","-4.5","","95","","33","","24","","","","98.44","","","","-11","","NA"
"-73.74","45.47","MONTREAL/PIERRE ELLIOTT TRUDEAU INTL","702S006","2014-02-14 10:00","2014","02","14","10:00","-4.0","","-4.8","","94","","30","","19","","","","98.49","","","","-10","","NA"
"-73.74","45.47","MONTREAL/PIERRE ELLIOTT TRUDEAU INTL","702S006","2014-02-14 11:00","2014","02","14","11:00","-3.5","","-4.4","","94","","31","","20","","","","98.54","","","","-10","","NA"
"-73.74","45.47","MONTREAL/PIERRE ELLIOTT TRUDEAU INTL","702S006","2014-02-14 12:00","2014","02","14","12:00","-2.9","","-4.9","","86","","31","","23","","","","98.59","","","","-9","","NA"
"-73.74","45.47","MONTREAL/PIERRE ELLIOTT TRUDEAU INTL","702S006","2014-02-14 13:00","2014","02","14","13:00","-2.6","","-6.3","","76","","31","","17","","","","98.66","","","","-8","","NA"
"-73.74","45.47","MONTREAL/PIERRE ELLIOTT TRUDEAU INTL","702S006","2014-02-14 14:00","2014","02","14","14:00","-3.5","","-4.9","","90","","27","","16","","","","98.77","","","","-9","","NA"
"-73.74","45.47","MONTREAL/PIERRE ELLIOTT TRUDEAU INTL","702S006","2014-02-14 15:00","2014","02","14","15:00","-4.4","","-5.3","","93","","27","","23","","","","98.92","","","","-11","","NA"
"-73.74","45.47","MONTREAL/PIERRE ELLIOTT TRUDEAU INTL","702S006","2014-02-14 16:00","2014","02","14","16:00","-4.3","","-5.3","","93","","27","","19","","","","99.09","","","","-10","","NA"
"-73.74","45.47","MONTREAL/PIERRE ELLIOTT TRUDEAU INTL","702S006","2014-02-14 17:00","2014","02","14","17:00","-4.3","","-5.7","","90","","27","","25","","","","99.26","","","","-11","","NA"
"-73.74","45.47","MONTREAL/PIERRE ELLIOTT TRUDEAU INTL","702S006","2014-02-14 18:00","2014","02","14","18:00","-5.0","","-6.1","","92","","26","","22","","","","99.44","","","","-12","","NA"
"-73.74","45.47","MONTREAL/PIERRE ELLIOTT TRUDEAU INTL","702S006","2014-02-14 19:00","2014","02","14","19:00","-5.1","","-6.6","","90","","26","","22","","","","99.62","","","","-12","","NA"
"-73.74","45.47","MONTREAL/PIERRE ELLIOTT TRUDEAU INTL","702S006","2014-02-14 20:00","2014","02","14","20:00","-5.2","","-6.8","","89","","26","","23","","","","99.77","","","","-12","","NA"
"-73.74","45.47","MONTREAL/PIERRE ELLIOTT TRUDEAU INTL","702S006","2014-02-14 21:00","2014","02","14","21:00","-5.4","","-7.4","","86","","25","","18","","","","99.90","","","","-12","","NA"
"-73.74","45.47","MONTREAL/PIERRE ELLIOTT TRUDEAU INTL","702S006","2014-02-14 22:00","2014","02","14","22:00","-5.7","","-7.7","","86","","26","","16","","","","99.97","","","","-12","","NA"
"-73.74","45.47","MONTREAL/PIERRE ELLIOTT TRUDEAU INTL","702S006","2014-02-14 23:00","2014","02","14","23:00","-5.3","","-7.5","","84","","25","","19","","","","100.04","","","","-12","","NA"
"-73.74","45.47","MONTREAL/PIERRE ELLIOTT TRUDEAU INTL","702S006","2014-02-15 00:00","2014","02","15","00:00","-5.3","","-8.1","","81","","26","","13","","","","100.09","","","","-10","","NA"
"-73.74","45.47","MONTREAL/PIERRE ELLIOTT TRUDEAU INTL","702S006","2014-02-15 01:00","2014","02","15","01:00","-5.9","","-8.5","","81","","24","","7","","","","100.17","","","","-9","","NA"
"-73.74","45.47","MONTREAL/PIERRE ELLIOTT TRUDEAU INTL","702S006","2014-02-15 02:00","2014","02","15","02:00","-6.1","","-8.7","","82","","24","","8","","","","100.25","","","","-10","","NA"
"-73.74","45.47","MONTREAL/PIERRE ELLIOTT TRUDEAU INTL","702S006","2014-02-15 03:00","2014","02","15","03:00","-6.6","","-8.7","","85","","23","","4","","","","100.32","","","","-9","","NA"
"-73.74","45.47","MONTREAL/PIERRE ELLIOTT TRUDEAU INTL","702S006","2014-02-15 04:00","2014","02","15","04:00","-6.8","","-8.8","","86","","16","","2","","","","100.38","","","","-8","","NA"
"-73.74","45.47","MONTREAL/PIERRE ELLIOTT TRUDEAU INTL","702S006","2014-02-15 05:00","2014","02","15","05:00","-6.5","","-8.4","","87","","16","","3","","","","100.46","","","","-8","","NA"
"-73.74","45.47","MONTREAL/PIERRE ELLIOTT TRUDEAU INTL","702S006","2014-02-15 06:00","2014","02","15","06:00","-5.6","","-7.8","","84","","10","","6","","","","100.46","","","","-8","","NA"
"-73.74","45.47","MONTREAL/PIERRE ELLIOTT TRUDEAU INTL","702S006","2014-02-15 07:00","2014","02","15","07:00","-6.0","","-8.7","","81","","2","","11","","","","100.50","","","","-11","","NA"
"-73.74","45.47","MONTREAL/PIERRE ELLIOTT TRUDEAU INTL","702S006","2014-02-15 08:00","2014","02","15","08:00","-7.3","","-11.5","","72","","4","","14","","","","100.56","","","","-13","","NA"
"-73.74","45.47","MONTREAL/PIERRE ELLIOTT TRUDEAU INTL","702S006","2014-02-15 09:00","2014","02","15","09:00","-7.8","","-12.5","","69","","4","","15","","","","100.60","","","","-14","","NA"
"-73.74","45.47","MONTREAL/PIERRE ELLIOTT TRUDEAU INTL","702S006","2014-02-15 10:00","2014","02","15","10:00","-7.5","","-12.6","","67","","4","","15","","","","100.62","","","","-14","","NA"
"-73.74","45.47","MONTREAL/PIERRE ELLIOTT TRUDEAU INTL","702S006","2014-02-15 11:00","2014","02","15","11:00","-6.9","","-11.8","","68","","2","","11","","","","100.66","","","","-12","","NA"
"-73.74","45.47","MONTREAL/PIERRE ELLIOTT TRUDEAU INTL","702S006","2014-02-15 12:00","2014","02","15","12:00","-6.6","","-11.5","","68","","1","","13","","","","100.62","","","","-12","","NA"
"-73.74","45.47","MONTREAL/PIERRE ELLIOTT TRUDEAU INTL","702S006","2014-02-15 13:00","2014","02","15","13:00","-6.2","","-11.0","","69","","2","","10","","","","100.61","","","","-11","","NA"
"-73.74","45.47","MONTREAL/PIERRE ELLIOTT TRUDEAU INTL","702S006","2014-02-15 14:00","2014","02","15","14:00","-6.1","","-10.8","","69","","2","","12","","","","100.57","","","","-11","","NA"
"-73.74","45.47","MONTREAL/PIERRE ELLIOTT TRUDEAU INTL","702S006","2014-02-15 15:00","2014","02","15","15:00","-6.1","","-10.8","","70","","1","","13","","","","100.61","","","","-11","","NA"
"-73.74","45.47","MONTREAL/PIERRE ELLIOTT TRUDEAU INTL","702S006","2014-02-15 16:00","2014","02","15","16:00","-6.2","","-10.9","","69","","1","","12","","","","100.55","","","","-11","","NA"
"-73.74","45.47","MONTREAL/PIERRE ELLIOTT TRUDEAU INTL","702S006","2014-02-15 17:00","2014","02","15","17:00","-6.6","","-11.1","","70","","2","","10","","","","100.60","","","","-11","","NA"
"-73.74","45.47","MONTREAL/PIERRE ELLIOTT TRUDEAU INTL","702S006","2014-02-15 18:00","2014","02","15","18:00","-6.7","","-11.4","","69","","1","","9","","","","100.65","","","","-11","","NA"
"-73.74","45.47","MONTREAL/PIERRE ELLIOTT TRUDEAU INTL","702S006","2014-02-15 19:00","2014","02","15","19:00","-7.5","","-12.0","","70","","36","","6","","","","100.64","","","","-11","","NA"
"-73.74","45.47","MONTREAL/PIERRE ELLIOTT TRUDEAU INTL","702S006","2014-02-15 20:00","2014","02","15","20:00","-8.3","","-12.1","","74","","32","","8","","","","100.64","","","","-12","","NA"
"-73.74","45.47","MONTREAL/PIERRE ELLIOTT TRUDEAU INTL","702S006","2014-02-15 21:00","2014","02","15","21:00","-7.6","","-11.1","","76","","33","","6","","","","100.62","","","","-11","","NA"
"-73.74","45.47","MONTREAL/PIERRE ELLIOTT TRUDEAU INTL","702S006","2014-02-15 22:00","2014","02","15","22:00","-7.8","","-10.5","","81","","31","","8","","","","100.58","","","","-12","","NA"
"-73.74","45.47","MONTREAL/PIERRE ELLIOTT TRUDEAU INTL","702S006","2014-02-15 23:00","2014","02","15","23:00","-9.5","","-11.6","","85","","30","","8","","","","100.49","","","","-14","","NA"
"-73.74","45.47","MONTREAL/PIERRE ELLIOTT TRUDEAU INTL","702S006","2014-02-16 00:00","2014","02","16","00:00","-10.9","","-12.9","","85","","28","","12","","","","100.49","","","","-17","","NA"
"-73.74","45.47","MONTREAL/PIERRE ELLIOTT TRUDEAU INTL","702S006","2014-02-16 01:00","2014","02","16","01:00","-9.8","","-12.3","","82","","29","","17","","","","100.50","","","","-17","","NA"
"-73.74","45.47","MONTREAL/PIERRE ELLIOTT TRUDEAU INTL","702S006","2014-02-16 02:00","2014","02","16","02:00","-10.6","","-13.5","","79","","29","","17","","","","100.48","","","","-18","","NA"
"-73.74","45.47","MONTREAL/PIERRE ELLIOTT TRUDEAU INTL","702S006","2014-02-16 03:00","2014","02","16","03:00","-11.9","","-14.8","","79","","27","","13","","","","100.46","","","","-19","","NA"
"-73.74","45.47","MONTREAL/PIERRE ELLIOTT TRUDEAU INTL","702S006","2014-02-16 04:00","2014","02","16","04:00","-12.3","","-15.2","","79","","29","","23","","","","100.45","","","","-21","","NA"
"-73.74","45.47","MONTREAL/PIERRE ELLIOTT TRUDEAU INTL","702S006","2014-02-16 05:00","2014","02","16","05:00","-14.1","","-17.1","","78","","28","","21","","","","100.48","","","","-23","","NA"
"-73.74","45.47","MONTREAL/PIERRE ELLIOTT TRUDEAU INTL","702S006","2014-02-16 06:00","2014","02","16","06:00","-15.0","","-18.1","","77","","28","","21","","","","100.52","","","","-24","","NA"
"-73.74","45.47","MONTREAL/PIERRE ELLIOTT TRUDEAU INTL","702S006","2014-02-16 07:00","2014","02","16","07:00","-15.6","","-18.9","","76","","27","","20","","","","100.57","","","","-25","","NA"
"-73.74","45.47","MONTREAL/PIERRE ELLIOTT TRUDEAU INTL","702S006","2014-02-16 08:00","2014","02","16","08:00","-15.4","","-19.2","","73","","27","","23","","","","100.64","","","","-25","","NA"
"-73.74","45.47","MONTREAL/PIERRE ELLIOTT TRUDEAU INTL","702S006","2014-02-16 09:00","2014","02","16","09:00","-14.3","","-18.9","","68","","27","","25","","","","100.67","","","","-24","","NA"
"-73.74","45.47","MONTREAL/PIERRE ELLIOTT TRUDEAU INTL","702S006","2014-02-16 10:00","2014","02","16","10:00","-13.6","","-18.7","","65","","27","","27","","","","100.68","","","","-24","","NA"
"-73.74","45.47","MONTREAL/PIERRE ELLIOTT TRUDEAU INTL","702S006","2014-02-16 11:00","2014","02","16","11:00","-12.7","","-18.0","","64","","27","","28","","","","100.72","","","","-23","","NA"
"-73.74","45.47","MONTREAL/PIERRE ELLIOTT TRUDEAU INTL","702S006","2014-02-16 12:00","2014","02","16","12:00","-11.3","","-17.7","","59","","27","","27","","","","100.72","","","","-21","","NA"
"-73.74","45.47","MONTREAL/PIERRE ELLIOTT TRUDEAU INTL","702S006","2014-02-16 13:00","2014","02","16","13:00","-10.2","","-17.2","","56","","25","","23","","","","100.73","","","","-19","","NA"
"-73.74","45.47","MONTREAL/PIERRE ELLIOTT TRUDEAU INTL","702S006","2014-02-16 14:00","2014","02","16","14:00","-9.8","","-17.1","","55","","26","","30","","","","100.72","","","","-19","","NA"
"-73.74","45.47","MONTREAL/PIERRE ELLIOTT TRUDEAU INTL","702S006","2014-02-16 15:00","2014","02","16","15:00","-9.6","","-17.0","","55","","25","","30","","","","100.74","","","","-19","","NA"
"-73.74","45.47","MONTREAL/PIERRE ELLIOTT TRUDEAU INTL","702S006","2014-02-16 16:00","2014","02","16","16:00","-9.7","","-17.4","","54","","25","","22","","","","100.80","","","","-18","","NA"
"-73.74","45.47","MONTREAL/PIERRE ELLIOTT TRUDEAU INTL","702S006","2014-02-16 17:00","2014","02","16","17:00","-10.2","","-18.0","","53","","24","","17","","","","100.91","","","","-17","","NA"
"-73.74","45.47","MONTREAL/PIERRE ELLIOTT TRUDEAU INTL","702S006","2014-02-16 18:00","2014","02","16","18:00","-11.2","","-18.2","","56","","26","","17","","","","101.02","","","","-19","","NA"
"-73.74","45.47","MONTREAL/PIERRE ELLIOTT TRUDEAU INTL","702S006","2014-02-16 19:00","2014","02","16","19:00","-11.7","","-18.7","","56","","25","","16","","","","101.11","","","","-19","","NA"
"-73.74","45.47","MONTREAL/PIERRE ELLIOTT TRUDEAU INTL","702S006","2014-02-16 20:00","2014","02","16","20:00","-12.7","","-19.3","","58","","25","","13","","","","101.18","","","","-20","","NA"
"-73.74","45.47","MONTREAL/PIERRE ELLIOTT TRUDEAU INTL","702S006","2014-02-16 21:00","2014","02","16","21:00","-12.9","","-19.9","","56","","26","","13","","","","101.27","","","","-20","","NA"
"-73.74","45.47","MONTREAL/PIERRE ELLIOTT TRUDEAU INTL","702S006","2014-02-16 22:00","2014","02","16","22:00","-13.7","","-21.3","","53","","28","","12","","","","101.36","","","","-20","","NA"
"-73.74","45.47","MONTREAL/PIERRE ELLIOTT TRUDEAU INTL","702S006","2014-02-16 23:00","2014","02","16","23:00","-15.5","","-21.7","","59","","29","","10","","","","101.47","","","","-22","","NA"
"-73.74","45.47","MONTREAL/PIERRE ELLIOTT TRUDEAU INTL","702S006","2014-02-17 00:00","2014","02","17","00:00","-14.5","","-21.8","","54","","28","","12","","","","101.58","","","","-21","","NA"
"-73.74","45.47","MONTREAL/PIERRE ELLIOTT TRUDEAU INTL","702S006","2014-02-17 01:00","2014","02","17","01:00","-15.3","","-22.2","","56","","28","","10","","","","101.70","","","","-22","","NA"
"-73.74","45.47","MONTREAL/PIERRE ELLIOTT TRUDEAU INTL","702S006","2014-02-17 02:00","2014","02","17","02:00","-15.3","","-22.2","","56","","28","","16","","","","101.80","","","","-24","","NA"
"-73.74","45.47","MONTREAL/PIERRE ELLIOTT TRUDEAU INTL","702S006","2014-02-17 03:00","2014","02","17","03:00","-14.9","","-22.2","","54","","27","","16","","","","101.87","","","","-23","","NA"
"-73.74","45.47","MONTREAL/PIERRE ELLIOTT TRUDEAU INTL","702S006","2014-02-17 04:00","2014","02","17","04:00","-15.1","","-22.0","","56","","27","","14","","","","101.98","","","","-23","","NA"
"-73.74","45.47","MONTREAL/PIERRE ELLIOTT TRUDEAU INTL","702S006","2014-02-17 05:00","2014","02","17","05:00","-16.2","","-22.4","","59","","27","","14","","","","102.13","","","","-24","","NA"
"-73.74","45.47","MONTREAL/PIERRE ELLIOTT TRUDEAU INTL","702S006","2014-02-17 06:00","2014","02","17","06:00","-16.3","","-22.5","","59","","26","","13","","","","102.21","","","","-24","","NA"
"-73.74","45.47","MONTREAL/PIERRE ELLIOTT TRUDEAU INTL","702S006","2014-02-17 07:00","2014","02","17","07:00","-16.9","","-22.9","","60","","28","","14","","","","102.37","","","","-25","","NA"
"-73.74","45.47","MONTREAL/PIERRE ELLIOTT TRUDEAU INTL","702S006","2014-02-17 08:00","2014","02","17","08:00","-16.3","","-22.7","","58","","28","","16","","","","102.46","","","","-25","","NA"
"-73.74","45.47","MONTREAL/PIERRE ELLIOTT TRUDEAU INTL","702S006","2014-02-17 09:00","2014","02","17","09:00","-15.1","","-22.3","","54","","28","","12","","","","102.53","","","","-22","","NA"
"-73.74","45.47","MONTREAL/PIERRE ELLIOTT TRUDEAU INTL","702S006","2014-02-17 10:00","2014","02","17","10:00","-14.0","","-22.0","","51","","26","","13","","","","102.56","","","","-21","","NA"
"-73.74","45.47","MONTREAL/PIERRE ELLIOTT TRUDEAU INTL","702S006","2014-02-17 11:00","2014","02","17","11:00","-12.9","","-22.5","","44","","25","","10","","","","102.59","","","","-19","","NA"
"-73.74","45.47","MONTREAL/PIERRE ELLIOTT TRUDEAU INTL","702S006","2014-02-17 12:00","2014","02","17","12:00","-12.9","","-20.8","","51","","22","","16","","","","102.57","","","","-21","","NA"
"-73.74","45.47","MONTREAL/PIERRE ELLIOTT TRUDEAU INTL","702S006","2014-02-17 13:00","2014","02","17","13:00","-12.2","","-20.6","","50","","21","","21","","","","102.55","","","","-21","","NA"
"-73.74","45.47","MONTREAL/PIERRE ELLIOTT TRUDEAU INTL","702S006","2014-02-17 14:00","2014","02","17","14:00","-11.6","","-20.3","","48","","22","","20","","","","102.57","","","","-20","","NA"
"-73.74","45.47","MONTREAL/PIERRE ELLIOTT TRUDEAU INTL","702S006","2014-02-17 15:00","2014","02","17","15:00","-10.7","","-20.3","","45","","22","","18","","","","102.54","","","","-18","","NA"
"-73.74","45.47","MONTREAL/PIERRE ELLIOTT TRUDEAU INTL","702S006","2014-02-17 16:00","2014","02","17","16:00","-10.3","","-20.3","","44","","21","","17","","","","102.51","","","","-18","","NA"
"-73.74","45.47","MONTREAL/PIERRE ELLIOTT TRUDEAU INTL","702S006","2014-02-17 17:00","2014","02","17","17:00","-10.5","","-20.4","","44","","23","","11","","","","102.47","","","","-16","","NA"
"-73.74","45.47","MONTREAL/PIERRE ELLIOTT TRUDEAU INTL","702S006","2014-02-17 18:00","2014","02","17","18:00","-11.2","","-20.6","","46","","22","","6","","","","102.48","","","","-15","","NA"
"-73.74","45.47","MONTREAL/PIERRE ELLIOTT TRUDEAU INTL","702S006","2014-02-17 19:00","2014","02","17","19:00","-11.5","","-20.9","","45","","21","","9","","","","102.48","","","","-17","","NA"
"-73.74","45.47","MONTREAL/PIERRE ELLIOTT TRUDEAU INTL","702S006","2014-02-17 20:00","2014","02","17","20:00","-14.8","","-21.3","","57","","28","","1","","","","102.39","","","","-16","","NA"
"-73.74","45.47","MONTREAL/PIERRE ELLIOTT TRUDEAU INTL","702S006","2014-02-17 21:00","2014","02","17","21:00","-14.9","","-19.9","","65","","18","","5","","","","102.37","","","","-18","","NA"
"-73.74","45.47","MONTREAL/PIERRE ELLIOTT TRUDEAU INTL","702S006","2014-02-17 22:00","2014","02","17","22:00","-13.1","","-19.6","","58","","11","","6","","","","102.17","","","","-17","","NA"
"-73.74","45.47","MONTREAL/PIERRE ELLIOTT TRUDEAU INTL","702S006","2014-02-17 23:00","2014","02","17","23:00","-13.6","","-20.0","","58","","10","","10","","","","102.11","","","","-20","","NA"
"-73.74","45.47","MONTREAL/PIERRE ELLIOTT TRUDEAU INTL","702S006","2014-02-18 00:00","2014","02","18","00:00","-13.9","","-20.7","","56","","11","","9","","","","102.21","","","","-20","","NA"
"-73.74","45.47","MONTREAL/PIERRE ELLIOTT TRUDEAU INTL","702S006","2014-02-18 01:00","2014","02","18","01:00","-13.5","","-21.0","","53","","8","","11","","","","102.06","","","","-20","","NA"
"-73.74","45.47","MONTREAL/PIERRE ELLIOTT TRUDEAU INTL","702S006","2014-02-18 02:00","2014","02","18","02:00","-13.3","","-20.7","","54","","8","","8","","","","101.97","","","","-18","","NA"
"-73.74","45.47","MONTREAL/PIERRE ELLIOTT TRUDEAU INTL","702S006","2014-02-18 03:00","2014","02","18","03:00","-13.2","","-21.2","","51","","8","","12","","","","101.87","","","","-20","","NA"
"-73.74","45.47","MONTREAL/PIERRE ELLIOTT TRUDEAU INTL","702S006","2014-02-18 04:00","2014","02","18","04:00","-13.4","","-20.7","","54","","4","","14","","","","101.79","","","","-21","","NA"
"-73.74","45.47","MONTREAL/PIERRE ELLIOTT TRUDEAU INTL","702S006","2014-02-18 05:00","2014","02","18","05:00","-13.7","","-20.4","","57","","4","","18","","","","101.64","","","","-22","","NA"
"-73.74","45.47","MONTREAL/PIERRE ELLIOTT TRUDEAU INTL","702S006","2014-02-18 06:00","2014","02","18","06:00","-15.1","","-20.3","","64","","1","","14","","","","101.65","","","","-23","","NA"
"-73.74","45.47","MONTREAL/PIERRE ELLIOTT TRUDEAU INTL","702S006","2014-02-18 07:00","2014","02","18","07:00","-14.3","","-19.5","","65","","3","","18","","","","101.51","","","","-23","","NA"
"-73.74","45.47","MONTREAL/PIERRE ELLIOTT TRUDEAU INTL","702S006","2014-02-18 08:00","2014","02","18","08:00","-14.1","","-18.9","","67","","4","","20","","","","101.42","","","","-23","","NA"
"-73.74","45.47","MONTREAL/PIERRE ELLIOTT TRUDEAU INTL","702S006","2014-02-18 09:00","2014","02","18","09:00","-12.9","","-17.7","","68","","3","","14","","","","101.35","","","","-20","","NA"
"-73.74","45.47","MONTREAL/PIERRE ELLIOTT TRUDEAU INTL","702S006","2014-02-18 10:00","2014","02","18","10:00","-11.3","","-13.3","","85","","4","","17","","","","101.28","","","","-19","","NA"
"-73.74","45.47","MONTREAL/PIERRE ELLIOTT TRUDEAU INTL","702S006","2014-02-18 11:00","2014","02","18","11:00","-11.0","","-14.1","","78","","3","","16","","","","101.25","","","","-18","","NA"
"-73.74","45.47","MONTREAL/PIERRE ELLIOTT TRUDEAU INTL","702S006","2014-02-18 12:00","2014","02","18","12:00","-9.2","","-12.4","","77","","3","","17","","","","101.12","","","","-16","","NA"
"-73.74","45.47","MONTREAL/PIERRE ELLIOTT TRUDEAU INTL","702S006","2014-02-18 13:00","2014","02","18","13:00","-8.0","","-11.3","","77","","3","","18","","","","101.09","","","","-15","","NA"
"-73.74","45.47","MONTREAL/PIERRE ELLIOTT TRUDEAU INTL","702S006","2014-02-18 14:00","2014","02","18","14:00","-7.9","","-10.9","","79","","3","","17","","","","101.08","","","","-15","","NA"
"-73.74","45.47","MONTREAL/PIERRE ELLIOTT TRUDEAU INTL","702S006","2014-02-18 15:00","2014","02","18","15:00","-7.0","","-9.4","","83","","3","","15","","","","101.08","","","","-13","","NA"
"-73.74","45.47","MONTREAL/PIERRE ELLIOTT TRUDEAU INTL","702S006","2014-02-18 16:00","2014","02","18","16:00","-4.1","","-5.6","","90","","10","","10","","","","101.07","","","","-8","","NA"
"-73.74","45.47","MONTREAL/PIERRE ELLIOTT TRUDEAU INTL","702S006","2014-02-18 17:00","2014","02","18","17:00","-4.4","","-6.2","","87","","4","","6","","","","101.12","","","","-7","","NA"
"-73.74","45.47","MONTREAL/PIERRE ELLIOTT TRUDEAU INTL","702S006","2014-02-18 18:00","2014","02","18","18:00","-3.8","","-5.6","","88","","12","","10","","","","101.15","","","","-8","","NA"
"-73.74","45.47","MONTREAL/PIERRE ELLIOTT TRUDEAU INTL","702S006","2014-02-18 19:00","2014","02","18","19:00","-6.1","","-7.8","","87","","4","","5","","","","101.18","","","","-9","","NA"
"-73.74","45.47","MONTREAL/PIERRE ELLIOTT TRUDEAU INTL","702S006","2014-02-18 20:00","2014","02","18","20:00","-6.8","","-8.4","","88","","3","","9","","","","101.14","","","","-11","","NA"
"-73.74","45.47","MONTREAL/PIERRE ELLIOTT TRUDEAU INTL","702S006","2014-02-18 21:00","2014","02","18","21:00","-8.1","","-9.6","","89","","36","","3","","","","101.20","","","","-10","","NA"
"-73.74","45.47","MONTREAL/PIERRE ELLIOTT TRUDEAU INTL","702S006","2014-02-18 22:00","2014","02","18","22:00","-7.2","","-8.7","","90","","36","","3","","","","101.18","","","","-9","","NA"
"-73.74","45.47","MONTREAL/PIERRE ELLIOTT TRUDEAU INTL","702S006","2014-02-18 23:00","2014","02","18","23:00","-5.9","","-7.3","","90","","13","","4","","","","101.12","","","","-8","","NA"
"-73.74","45.47","MONTREAL/PIERRE ELLIOTT TRUDEAU INTL","702S006","2014-02-19 00:00","2014","02","19","00:00","-5.4","","-6.7","","91","","17","","5","","","","101.13","","","","-8","","NA"
"-73.74","45.47","MONTREAL/PIERRE ELLIOTT TRUDEAU INTL","702S006","2014-02-19 01:00","2014","02","19","01:00","-3.4","","-5.6","","85","","18","","13","","","","101.09","","","","-8","","NA"
"-73.74","45.47","MONTREAL/PIERRE ELLIOTT TRUDEAU INTL","702S006","2014-02-19 02:00","2014","02","19","02:00","-4.0","","-6.3","","84","","18","","13","","","","101.04","","","","-9","","NA"
"-73.74","45.47","MONTREAL/PIERRE ELLIOTT TRUDEAU INTL","702S006","2014-02-19 03:00","2014","02","19","03:00","-4.3","","-6.2","","86","","16","","12","","","","101.05","","","","-9","","NA"
"-73.74","45.47","MONTREAL/PIERRE ELLIOTT TRUDEAU INTL","702S006","2014-02-19 04:00","2014","02","19","04:00","-4.9","","-6.9","","86","","13","","16","","","","100.96","","","","-11","","NA"
"-73.74","45.47","MONTREAL/PIERRE ELLIOTT TRUDEAU INTL","702S006","2014-02-19 05:00","2014","02","19","05:00","-4.8","","-7.0","","85","","12","","15","","","","100.91","","","","-10","","NA"
"-73.74","45.47","MONTREAL/PIERRE ELLIOTT TRUDEAU INTL","702S006","2014-02-19 06:00","2014","02","19","06:00","-5.2","","-7.4","","85","","13","","20","","","","100.77","","","","-12","","NA"
"-73.74","45.47","MONTREAL/PIERRE ELLIOTT TRUDEAU INTL","702S006","2014-02-19 07:00","2014","02","19","07:00","-5.0","","-7.4","","83","","13","","15","","","","100.71","","","","-11","","NA"
"-73.74","45.47","MONTREAL/PIERRE ELLIOTT TRUDEAU INTL","702S006","2014-02-19 08:00","2014","02","19","08:00","-4.7","","-7.4","","82","","12","","19","","","","100.54","","","","-11","","NA"
"-73.74","45.47","MONTREAL/PIERRE ELLIOTT TRUDEAU INTL","702S006","2014-02-19 09:00","2014","02","19","09:00","-3.5","","-6.7","","78","","11","","24","","","","100.36","","","","-10","","NA"
"-73.74","45.47","MONTREAL/PIERRE ELLIOTT TRUDEAU INTL","702S006","2014-02-19 10:00","2014","02","19","10:00","-2.4","","-6.3","","75","","11","","23","","","","100.30","","","","-9","","NA"
"-73.74","45.47","MONTREAL/PIERRE ELLIOTT TRUDEAU INTL","702S006","2014-02-19 11:00","2014","02","19","11:00","-1.3","","-6.0","","70","","12","","20","","","","100.27","","","","-7","","NA"
"-73.74","45.47","MONTREAL/PIERRE ELLIOTT TRUDEAU INTL","702S006","2014-02-19 12:00","2014","02","19","12:00","-0.6","","-5.4","","70","","12","","25","","","","100.12","","","","-7","","NA"
"-73.74","45.47","MONTREAL/PIERRE ELLIOTT TRUDEAU INTL","702S006","2014-02-19 13:00","2014","02","19","13:00","0.0","","-3.7","","76","","13","","26","","","","100.03","","","","-6","","NA"
"-73.74","45.47","MONTREAL/PIERRE ELLIOTT TRUDEAU INTL","702S006","2014-02-19 14:00","2014","02","19","14:00","1.1","","-3.7","","70","","13","","14","","","","99.96","","","","","","NA"
"-73.74","45.47","MONTREAL/PIERRE ELLIOTT TRUDEAU INTL","702S006","2014-02-19 15:00","2014","02","19","15:00","1.1","","-4.0","","69","","15","","22","","","","99.94","","","","","","NA"
"-73.74","45.47","MONTREAL/PIERRE ELLIOTT TRUDEAU INTL","702S006","2014-02-19 16:00","2014","02","19","16:00","1.1","","-3.5","","72","","14","","11","","","","99.94","","","","","","NA"
"-73.74","45.47","MONTREAL/PIERRE ELLIOTT TRUDEAU INTL","702S006","2014-02-19 17:00","2014","02","19","17:00","1.2","","-3.3","","72","","11","","4","","","","99.98","","","","","","NA"
"-73.74","45.47","MONTREAL/PIERRE ELLIOTT TRUDEAU INTL","702S006","2014-02-19 18:00","2014","02","19","18:00","1.1","","-2.9","","75","","8","","2","","","","100.07","","","","","","NA"
"-73.74","45.47","MONTREAL/PIERRE ELLIOTT TRUDEAU INTL","702S006","2014-02-19 19:00","2014","02","19","19:00","0.5","","-2.6","","79","","10","","3","","","","100.15","","","","","","NA"
"-73.74","45.47","MONTREAL/PIERRE ELLIOTT TRUDEAU INTL","702S006","2014-02-19 20:00","2014","02","19","20:00","-0.3","","-3.3","","80","","28","","4","","","","100.24","","","","-2","","NA"
"-73.74","45.47","MONTREAL/PIERRE ELLIOTT TRUDEAU INTL","702S006","2014-02-19 21:00","2014","02","19","21:00","-0.5","","-3.2","","82","","30","","13","","","","100.40","","","","-5","","NA"
"-73.74","45.47","MONTREAL/PIERRE ELLIOTT TRUDEAU INTL","702S006","2014-02-19 22:00","2014","02","19","22:00","-0.9","","-3.9","","80","","23","","7","","","","100.48","","","","-3","","NA"
"-73.74","45.47","MONTREAL/PIERRE ELLIOTT TRUDEAU INTL","702S006","2014-02-19 23:00","2014","02","19","23:00","-1.7","","-4.8","","79","","23","","8","","","","100.60","","","","-5","","NA"
"-73.74","45.47","MONTREAL/PIERRE ELLIOTT TRUDEAU INTL","702S006","2014-02-20 00:00","2014","02","20","00:00","-2.7","","-5.9","","78","","26","","10","","","","100.72","","","","-7","","NA"
"-73.74","45.47","MONTREAL/PIERRE ELLIOTT TRUDEAU INTL","702S006","2014-02-20 01:00","2014","02","20","01:00","-3.3","","-6.5","","79","","22","","8","","","","100.83","","","","-7","","NA"
"-73.74","45.47","MONTREAL/PIERRE ELLIOTT TRUDEAU INTL","702S006","2014-02-20 02:00","2014","02","20","02:00","-3.2","","-6.3","","79","","21","","9","","","","100.92","","","","-7","","NA"
"-73.74","45.47","MONTREAL/PIERRE ELLIOTT TRUDEAU INTL","702S006","2014-02-20 03:00","2014","02","20","03:00","-2.7","","-5.6","","80","","25","","16","","","","100.98","","","","-8","","NA"
"-73.74","45.47","MONTREAL/PIERRE ELLIOTT TRUDEAU INTL","702S006","2014-02-20 04:00","2014","02","20","04:00","-2.3","","-5.7","","77","","24","","19","","","","101.07","","","","-8","","NA"
"-73.74","45.47","MONTREAL/PIERRE ELLIOTT TRUDEAU INTL","702S006","2014-02-20 05:00","2014","02","20","05:00","-2.5","","-6.2","","76","","25","","19","","","","101.16","","","","-8","","NA"
"-73.74","45.47","MONTREAL/PIERRE ELLIOTT TRUDEAU INTL","702S006","2014-02-20 06:00","2014","02","20","06:00","-2.9","","-6.7","","75","","25","","16","","","","101.27","","","","-8","","NA"
"-73.74","45.47","MONTREAL/PIERRE ELLIOTT TRUDEAU INTL","702S006","2014-02-20 07:00","2014","02","20","07:00","-2.6","","-6.4","","75","","25","","16","","","","101.36","","","","-8","","NA"
"-73.74","45.47","MONTREAL/PIERRE ELLIOTT TRUDEAU INTL","702S006","2014-02-20 08:00","2014","02","20","08:00","-2.6","","-6.3","","75","","25","","25","","","","101.46","","","","-9","","NA"
"-73.74","45.47","MONTREAL/PIERRE ELLIOTT TRUDEAU INTL","702S006","2014-02-20 09:00","2014","02","20","09:00","-1.7","","-5.8","","73","","26","","16","","","","101.51","","","","-7","","NA"
"-73.74","45.47","MONTREAL/PIERRE ELLIOTT TRUDEAU INTL","702S006","2014-02-20 10:00","2014","02","20","10:00","-0.3","","-5.1","","70","","25","","17","","","","101.59","","","","-5","","NA"
"-73.74","45.47","MONTREAL/PIERRE ELLIOTT TRUDEAU INTL","702S006","2014-02-20 11:00","2014","02","20","11:00","1.3","","-5.2","","62","","26","","16","","","","101.56","","","","","","NA"
"-73.74","45.47","MONTREAL/PIERRE ELLIOTT TRUDEAU INTL","702S006","2014-02-20 12:00","2014","02","20","12:00","1.5","","-4.9","","62","","22","","14","","","","101.57","","","","","","NA"
"-73.74","45.47","MONTREAL/PIERRE ELLIOTT TRUDEAU INTL","702S006","2014-02-20 13:00","2014","02","20","13:00","2.9","","-4.7","","57","","25","","13","","","","101.55","","","","","","NA"
"-73.74","45.47","MONTREAL/PIERRE ELLIOTT TRUDEAU INTL","702S006","2014-02-20 14:00","2014","02","20","14:00","2.9","","-4.5","","58","","25","","13","","","","101.54","","","","","","NA"
"-73.74","45.47","MONTREAL/PIERRE ELLIOTT TRUDEAU INTL","702S006","2014-02-20 15:00","2014","02","20","15:00","3.1","","-4.2","","59","","25","","11","","","","101.55","","","","","","NA"
"-73.74","45.47","MONTREAL/PIERRE ELLIOTT TRUDEAU INTL","702S006","2014-02-20 16:00","2014","02","20","16:00","2.9","","-3.3","","64","","22","","8","","","","101.55","","","","","","NA"
"-73.74","45.47","MONTREAL/PIERRE ELLIOTT TRUDEAU INTL","702S006","2014-02-20 17:00","2014","02","20","17:00","2.6","","-3.0","","67","","25","","4","","","","101.56","","","","","","NA"
"-73.74","45.47","MONTREAL/PIERRE ELLIOTT TRUDEAU INTL","702S006","2014-02-20 18:00","2014","02","20","18:00","2.0","","-3.1","","69","","36","","2","","","","101.54","","","","","","NA"
"-73.74","45.47","MONTREAL/PIERRE ELLIOTT TRUDEAU INTL","702S006","2014-02-20 19:00","2014","02","20","19:00","1.6","","-2.7","","73","","9","","3","","","","101.53","","","","","","NA"
"-73.74","45.47","MONTREAL/PIERRE ELLIOTT TRUDEAU INTL","702S006","2014-02-20 20:00","2014","02","20","20:00","1.6","","-3.1","","71","","","M","1","","","","101.54","","","","","","NA"
"-73.74","45.47","MONTREAL/PIERRE ELLIOTT TRUDEAU INTL","702S006","2014-02-20 21:00","2014","02","20","21:00","1.3","","-2.7","","75","","9","","4","","","","101.53","","","","","","NA"
"-73.74","45.47","MONTREAL/PIERRE ELLIOTT TRUDEAU INTL","702S006","2014-02-20 22:00","2014","02","20","22:00","1.4","","-3.1","","72","","10","","7","","","","101.49","","","","","","NA"
"-73.74","45.47","MONTREAL/PIERRE ELLIOTT TRUDEAU INTL","702S006","2014-02-20 23:00","2014","02","20","23:00","1.7","","-3.5","","68","","5","","9","","","","101.42","","","","","","NA"
"-73.74","45.47","MONTREAL/PIERRE ELLIOTT TRUDEAU INTL","702S006","2014-02-21 00:00","2014","02","21","00:00","1.2","","-2.9","","74","","8","","6","","","","101.44","","","","","","NA"
"-73.74","45.47","MONTREAL/PIERRE ELLIOTT TRUDEAU INTL","702S006","2014-02-21 01:00","2014","02","21","01:00","1.5","","-0.9","","85","","5","","9","","","","101.31","","","","","","NA"
"-73.74","45.47","MONTREAL/PIERRE ELLIOTT TRUDEAU INTL","702S006","2014-02-21 02:00","2014","02","21","02:00","1.2","","-1.1","","85","","4","","10","","","","101.25","","","","","","NA"
"-73.74","45.47","MONTREAL/PIERRE ELLIOTT TRUDEAU INTL","702S006","2014-02-21 03:00","2014","02","21","03:00","0.7","","-1.9","","82","","4","","13","","","","101.18","","","","","","NA"
"-73.74","45.47","MONTREAL/PIERRE ELLIOTT TRUDEAU INTL","702S006","2014-02-21 04:00","2014","02","21","04:00","0.5","","-3.0","","77","","4","","18","","","","101.06","","","","","","NA"
"-73.74","45.47","MONTREAL/PIERRE ELLIOTT TRUDEAU INTL","702S006","2014-02-21 05:00","2014","02","21","05:00","0.9","","-3.0","","75","","4","","13","","","","100.94","","","","","","NA"
"-73.74","45.47","MONTREAL/PIERRE ELLIOTT TRUDEAU INTL","702S006","2014-02-21 06:00","2014","02","21","06:00","1.1","","-2.1","","79","","6","","9","","","","100.93","","","","","","NA"
"-73.74","45.47","MONTREAL/PIERRE ELLIOTT TRUDEAU INTL","702S006","2014-02-21 07:00","2014","02","21","07:00","1.8","","-0.6","","84","","7","","14","","","","100.78","","","","","","NA"
"-73.74","45.47","MONTREAL/PIERRE ELLIOTT TRUDEAU INTL","702S006","2014-02-21 08:00","2014","02","21","08:00","2.1","","0.2","","87","","6","","14","","","","100.76","","","","","","NA"
"-73.74","45.47","MONTREAL/PIERRE ELLIOTT TRUDEAU INTL","702S006","2014-02-21 09:00","2014","02","21","09:00","2.3","","0.4","","87","","6","","16","","","","100.56","","","","","","NA"
"-73.74","45.47","MONTREAL/PIERRE ELLIOTT TRUDEAU INTL","702S006","2014-02-21 10:00","2014","02","21","10:00","2.6","","0.6","","87","","5","","17","","","","100.33","","","","","","NA"
"-73.74","45.47","MONTREAL/PIERRE ELLIOTT TRUDEAU INTL","702S006","2014-02-21 11:00","2014","02","21","11:00","2.6","","1.0","","89","","7","","16","","","","100.24","","","","","","NA"
"-73.74","45.47","MONTREAL/PIERRE ELLIOTT TRUDEAU INTL","702S006","2014-02-21 12:00","2014","02","21","12:00","2.8","","1.4","","91","","8","","19","","","","100.00","","","","","","NA"
"-73.74","45.47","MONTREAL/PIERRE ELLIOTT TRUDEAU INTL","702S006","2014-02-21 13:00","2014","02","21","13:00","2.7","","1.4","","91","","11","","20","","","","99.90","","","","","","NA"
"-73.74","45.47","MONTREAL/PIERRE ELLIOTT TRUDEAU INTL","702S006","2014-02-21 14:00","2014","02","21","14:00","3.2","","1.8","","91","","13","","24","","","","99.80","","","","","","NA"
"-73.74","45.47","MONTREAL/PIERRE ELLIOTT TRUDEAU INTL","702S006","2014-02-21 15:00","2014","02","21","15:00","3.4","","2.1","","92","","15","","22","","","","99.79","","","","","","NA"
"-73.74","45.47","MONTREAL/PIERRE ELLIOTT TRUDEAU INTL","702S006","2014-02-21 16:00","2014","02","21","16:00","3.3","","1.8","","90","","22","","23","","","","99.97","","","","","","NA"
"-73.74","45.47","MONTREAL/PIERRE ELLIOTT TRUDEAU INTL","702S006","2014-02-21 17:00","2014","02","21","17:00","2.6","","0.6","","87","","22","","22","","","","100.11","","","","","","NA"
"-73.74","45.47","MONTREAL/PIERRE ELLIOTT TRUDEAU INTL","702S006","2014-02-21 18:00","2014","02","21","18:00","2.3","","-0.1","","84","","21","","21","","","","100.10","","","","","","NA"
"-73.74","45.47","MONTREAL/PIERRE ELLIOTT TRUDEAU INTL","702S006","2014-02-21 19:00","2014","02","21","19:00","1.7","","-0.7","","85","","18","","13","","","","100.15","","","","","","NA"
"-73.74","45.47","MONTREAL/PIERRE ELLIOTT TRUDEAU INTL","702S006","2014-02-21 20:00","2014","02","21","20:00","2.3","","-0.8","","80","","18","","12","","","","100.12","","","","","","NA"
"-73.74","45.47","MONTREAL/PIERRE ELLIOTT TRUDEAU INTL","702S006","2014-02-21 21:00","2014","02","21","21:00","1.3","","-1.6","","81","","16","","14","","","","100.14","","","","","","NA"
"-73.74","45.47","MONTREAL/PIERRE ELLIOTT TRUDEAU INTL","702S006","2014-02-21 22:00","2014","02","21","22:00","3.2","","-1.5","","72","","20","","21","","","","100.14","","","","","","NA"
"-73.74","45.47","MONTREAL/PIERRE ELLIOTT TRUDEAU INTL","702S006","2014-02-21 23:00","2014","02","21","23:00","1.8","","-1.1","","81","","16","","16","","","","100.09","","","","","","NA"
"-73.74","45.47","MONTREAL/PIERRE ELLIOTT TRUDEAU INTL","702S006","2014-02-22 00:00","2014","02","22","00:00","2.6","","-2.0","","72","","21","","21","","","","100.10","","","","","","NA"
"-73.74","45.47","MONTREAL/PIERRE ELLIOTT TRUDEAU INTL","702S006","2014-02-22 01:00","2014","02","22","01:00","2.5","","-2.4","","70","","23","","14","","","","100.13","","","","","","NA"
"-73.74","45.47","MONTREAL/PIERRE ELLIOTT TRUDEAU INTL","702S006","2014-02-22 02:00","2014","02","22","02:00","2.2","","-3.0","","69","","22","","17","","","","100.15","","","","","","NA"
"-73.74","45.47","MONTREAL/PIERRE ELLIOTT TRUDEAU INTL","702S006","2014-02-22 03:00","2014","02","22","03:00","1.4","","-4.1","","67","","23","","17","","","","100.13","","","","","","NA"
"-73.74","45.47","MONTREAL/PIERRE ELLIOTT TRUDEAU INTL","702S006","2014-02-22 04:00","2014","02","22","04:00","1.3","","-5.6","","60","","24","","21","","","","100.15","","","","","","NA"
"-73.74","45.47","MONTREAL/PIERRE ELLIOTT TRUDEAU INTL","702S006","2014-02-22 05:00","2014","02","22","05:00","1.4","","-6.3","","57","","24","","28","","","","100.16","","","","","","NA"
"-73.74","45.47","MONTREAL/PIERRE ELLIOTT TRUDEAU INTL","702S006","2014-02-22 06:00","2014","02","22","06:00","1.2","","-6.5","","56","","23","","27","","","","100.14","","","","","","NA"
"-73.74","45.47","MONTREAL/PIERRE ELLIOTT TRUDEAU INTL","702S006","2014-02-22 07:00","2014","02","22","07:00","1.1","","-6.7","","56","","23","","25","","","","100.14","","","","","","NA"
"-73.74","45.47","MONTREAL/PIERRE ELLIOTT TRUDEAU INTL","702S006","2014-02-22 08:00","2014","02","22","08:00","1.7","","-6.3","","55","","23","","21","","","","100.15","","","","","","NA"
"-73.74","45.47","MONTREAL/PIERRE ELLIOTT TRUDEAU INTL","702S006","2014-02-22 09:00","2014","02","22","09:00","2.8","","-6.2","","52","","23","","17","","","","100.14","","","","","","NA"
"-73.74","45.47","MONTREAL/PIERRE ELLIOTT TRUDEAU INTL","702S006","2014-02-22 10:00","2014","02","22","10:00","4.1","","-4.6","","53","","23","","25","","","","100.10","","","","","","NA"
"-73.74","45.47","MONTREAL/PIERRE ELLIOTT TRUDEAU INTL","702S006","2014-02-22 11:00","2014","02","22","11:00","4.3","","-4.0","","55","","22","","21","","","","100.04","","","","","","NA"
"-73.74","45.47","MONTREAL/PIERRE ELLIOTT TRUDEAU INTL","702S006","2014-02-22 12:00","2014","02","22","12:00","5.3","","-4.4","","50","","21","","29","","","","99.98","","","","","","NA"
"-73.74","45.47","MONTREAL/PIERRE ELLIOTT TRUDEAU INTL","702S006","2014-02-22 13:00","2014","02","22","13:00","5.8","","-4.7","","47","","22","","25","","","","99.92","","","","","","NA"
"-73.74","45.47","MONTREAL/PIERRE ELLIOTT TRUDEAU INTL","702S006","2014-02-22 14:00","2014","02","22","14:00","5.9","","-8.0","","36","","23","","40","","","","99.89","","","","","","NA"
"-73.74","45.47","MONTREAL/PIERRE ELLIOTT TRUDEAU INTL","702S006","2014-02-22 15:00","2014","02","22","15:00","4.9","","-7.0","","42","","23","","41","","","","99.95","","","","","","NA"
"-73.74","45.47","MONTREAL/PIERRE ELLIOTT TRUDEAU INTL","702S006","2014-02-22 16:00","2014","02","22","16:00","4.3","","-7.0","","44","","23","","38","","","","100.03","","","","","","NA"
"-73.74","45.47","MONTREAL/PIERRE ELLIOTT TRUDEAU INTL","702S006","2014-02-22 17:00","2014","02","22","17:00","3.5","","-7.4","","45","","23","","35","","","","100.12","","","","","","NA"
"-73.74","45.47","MONTREAL/PIERRE ELLIOTT TRUDEAU INTL","702S006","2014-02-22 18:00","2014","02","22","18:00","2.5","","-7.5","","48","","23","","32","","","","100.21","","","","","","NA"
"-73.74","45.47","MONTREAL/PIERRE ELLIOTT TRUDEAU INTL","702S006","2014-02-22 19:00","2014","02","22","19:00","2.0","","-7.3","","50","","24","","29","","","","100.31","","","","","","NA"
"-73.74","45.47","MONTREAL/PIERRE ELLIOTT TRUDEAU INTL","702S006","2014-02-22 20:00","2014","02","22","20:00","1.3","","-8.2","","49","","25","","26","","","","100.40","","","","","","NA"
"-73.74","45.47","MONTREAL/PIERRE ELLIOTT TRUDEAU INTL","702S006","2014-02-22 21:00","2014","02","22","21:00","0.8","","-7.9","","52","","24","","20","","","","100.52","","","","","","NA"
"-73.74","45.47","MONTREAL/PIERRE ELLIOTT TRUDEAU INTL","702S006","2014-02-22 22:00","2014","02","22","22:00","0.1","","-8.4","","53","","24","","18","","","","100.59","","","","","","NA"
"-73.74","45.47","MONTREAL/PIERRE ELLIOTT TRUDEAU INTL","702S006","2014-02-22 23:00","2014","02","22","23:00","-0.4","","-8.8","","53","","25","","18","","","","100.64","","","","-5","","NA"
"-73.74","45.47","MONTREAL/PIERRE ELLIOTT TRUDEAU INTL","702S006","2014-02-23 00:00","2014","02","23","00:00","-1.1","","-8.6","","57","","26","","13","","","","100.68","","","","-5","","NA"
"-73.74","45.47","MONTREAL/PIERRE ELLIOTT TRUDEAU INTL","702S006","2014-02-23 01:00","2014","02","23","01:00","-0.9","","-6.1","","68","","22","","15","","","","100.69","","","","-6","","NA"
"-73.74","45.47","MONTREAL/PIERRE ELLIOTT TRUDEAU INTL","702S006","2014-02-23 02:00","2014","02","23","02:00","-1.0","","-5.5","","71","","22","","12","","","","100.69","","","","-5","","NA"
"-73.74","45.47","MONTREAL/PIERRE ELLIOTT TRUDEAU INTL","702S006","2014-02-23 03:00","2014","02","23","03:00","-0.8","","-7.0","","63","","24","","20","","","","100.66","","","","-6","","NA"
"-73.74","45.47","MONTREAL/PIERRE ELLIOTT TRUDEAU INTL","702S006","2014-02-23 04:00","2014","02","23","04:00","-1.3","","-8.9","","56","","24","","22","","","","100.71","","","","-7","","NA"
"-73.74","45.47","MONTREAL/PIERRE ELLIOTT TRUDEAU INTL","702S006","2014-02-23 05:00","2014","02","23","05:00","-1.4","","-8.5","","58","","23","","18","","","","100.74","","","","-7","","NA"
"-73.74","45.47","MONTREAL/PIERRE ELLIOTT TRUDEAU INTL","702S006","2014-02-23 06:00","2014","02","23","06:00","-1.6","","-9.7","","54","","25","","20","","","","100.78","","","","-7","","NA"
"-73.74","45.47","MONTREAL/PIERRE ELLIOTT TRUDEAU INTL","702S006","2014-02-23 07:00","2014","02","23","07:00","-2.0","","-9.7","","56","","25","","18","","","","100.81","","","","-7","","NA"
"-73.74","45.47","MONTREAL/PIERRE ELLIOTT TRUDEAU INTL","702S006","2014-02-23 08:00","2014","02","23","08:00","-1.8","","-9.9","","54","","24","","14","","","","100.86","","","","-6","","NA"
"-73.74","45.47","MONTREAL/PIERRE ELLIOTT TRUDEAU INTL","702S006","2014-02-23 09:00","2014","02","23","09:00","-1.5","","-9.3","","55","","23","","17","","","","100.86","","","","-7","","NA"
"-73.74","45.47","MONTREAL/PIERRE ELLIOTT TRUDEAU INTL","702S006","2014-02-23 10:00","2014","02","23","10:00","-0.7","","-9.3","","52","","24","","21","","","","100.83","","","","-6","","NA"
"-73.74","45.47","MONTREAL/PIERRE ELLIOTT TRUDEAU INTL","702S006","2014-02-23 11:00","2014","02","23","11:00","-0.5","","-8.5","","55","","23","","20","","","","100.79","","","","-6","","NA"
"-73.74","45.47","MONTREAL/PIERRE ELLIOTT TRUDEAU INTL","702S006","2014-02-23 12:00","2014","02","23","12:00","0.1","","-8.5","","52","","23","","20","","","","100.70","","","","","","NA"
"-73.74","45.47","MONTREAL/PIERRE ELLIOTT TRUDEAU INTL","702S006","2014-02-23 13:00","2014","02","23","13:00","0.6","","-10.2","","44","","24","","24","","","","100.64","","","","","","NA"
"-73.74","45.47","MONTREAL/PIERRE ELLIOTT TRUDEAU INTL","702S006","2014-02-23 14:00","2014","02","23","14:00","1.1","","-10.5","","42","","25","","24","","","","100.54","","","","","","NA"
"-73.74","45.47","MONTREAL/PIERRE ELLIOTT TRUDEAU INTL","702S006","2014-02-23 15:00","2014","02","23","15:00","1.5","","-10.7","","40","","26","","25","","","","100.49","","","","","","NA"
"-73.74","45.47","MONTREAL/PIERRE ELLIOTT TRUDEAU INTL","702S006","2014-02-23 16:00","2014","02","23","16:00","1.7","","-9.3","","44","","25","","26","","","","100.47","","","","","","NA"
"-73.74","45.47","MONTREAL/PIERRE ELLIOTT TRUDEAU INTL","702S006","2014-02-23 17:00","2014","02","23","17:00","1.4","","-8.5","","48","","24","","18","","","","100.43","","","","","","NA"
"-73.74","45.47","MONTREAL/PIERRE ELLIOTT TRUDEAU INTL","702S006","2014-02-23 18:00","2014","02","23","18:00","0.3","","-8.8","","50","","24","","18","","","","100.42","","","","","","NA"
"-73.74","45.47","MONTREAL/PIERRE ELLIOTT TRUDEAU INTL","702S006","2014-02-23 19:00","2014","02","23","19:00","-0.5","","-9.0","","52","","24","","13","","","","100.44","","","","-5","","NA"
"-73.74","45.47","MONTREAL/PIERRE ELLIOTT TRUDEAU INTL","702S006","2014-02-23 20:00","2014","02","23","20:00","-1.0","","-9.8","","51","","24","","20","","","","100.44","","","","-7","","NA"
"-73.74","45.47","MONTREAL/PIERRE ELLIOTT TRUDEAU INTL","702S006","2014-02-23 21:00","2014","02","23","21:00","-1.3","","-9.4","","54","","24","","23","","","","100.47","","","","-7","","NA"
"-73.74","45.47","MONTREAL/PIERRE ELLIOTT TRUDEAU INTL","702S006","2014-02-23 22:00","2014","02","23","22:00","-1.5","","-8.6","","58","","25","","23","","","","100.47","","","","-8","","NA"
"-73.74","45.47","MONTREAL/PIERRE ELLIOTT TRUDEAU INTL","702S006","2014-02-23 23:00","2014","02","23","23:00","-2.4","","-10.1","","56","","27","","30","","","","100.45","","","","-10","","NA"
"-73.74","45.47","MONTREAL/PIERRE ELLIOTT TRUDEAU INTL","702S006","2014-02-24 00:00","2014","02","24","00:00","-3.7","","-11.6","","54","","28","","28","","","","100.45","","","","-11","","NA"
"-73.74","45.47","MONTREAL/PIERRE ELLIOTT TRUDEAU INTL","702S006","2014-02-24 01:00","2014","02","24","01:00","-4.2","","-11.8","","55","","27","","26","","","","100.48","","","","-11","","NA"
"-73.74","45.47","MONTREAL/PIERRE ELLIOTT TRUDEAU INTL","702S006","2014-02-24 02:00","2014","02","24","02:00","-4.8","","-11.9","","57","","26","","23","","","","100.52","","","","-12","","NA"
"-73.74","45.47","MONTREAL/PIERRE ELLIOTT TRUDEAU INTL","702S006","2014-02-24 03:00","2014","02","24","03:00","-5.7","","-11.7","","63","","25","","18","","","","100.49","","","","-12","","NA"
"-73.74","45.47","MONTREAL/PIERRE ELLIOTT TRUDEAU INTL","702S006","2014-02-24 04:00","2014","02","24","04:00","-6.4","","-13.1","","59","","25","","22","","","","100.52","","","","-14","","NA"
"-73.74","45.47","MONTREAL/PIERRE ELLIOTT TRUDEAU INTL","702S006","2014-02-24 05:00","2014","02","24","05:00","-6.6","","-14.0","","56","","27","","23","","","","100.52","","","","-14","","NA"
"-73.74","45.47","MONTREAL/PIERRE ELLIOTT TRUDEAU INTL","702S006","2014-02-24 06:00","2014","02","24","06:00","-7.3","","-14.4","","57","","27","","24","","","","100.49","","","","-15","","NA"
"-73.74","45.47","MONTREAL/PIERRE ELLIOTT TRUDEAU INTL","702S006","2014-02-24 07:00","2014","02","24","07:00","-7.7","","-14.3","","59","","26","","15","","","","100.50","","","","-14","","NA"
"-73.74","45.47","MONTREAL/PIERRE ELLIOTT TRUDEAU INTL","702S006","2014-02-24 08:00","2014","02","24","08:00","-7.6","","-14.3","","58","","26","","16","","","","100.54","","","","-14","","NA"
"-73.74","45.47","MONTREAL/PIERRE ELLIOTT TRUDEAU INTL","702S006","2014-02-24 09:00","2014","02","24","09:00","-8.2","","-11.9","","75","","25","","23","","","","100.55","","","","-16","","NA"
"-73.74","45.47","MONTREAL/PIERRE ELLIOTT TRUDEAU INTL","702S006","2014-02-24 10:00","2014","02","24","10:00","-7.9","","-12.1","","72","","27","","22","","","","100.56","","","","-16","","NA"
"-73.74","45.47","MONTREAL/PIERRE ELLIOTT TRUDEAU INTL","702S006","2014-02-24 11:00","2014","02","24","11:00","-7.4","","-13.9","","60","","26","","24","","","","100.54","","","","-15","","NA"
"-73.74","45.47","MONTREAL/PIERRE ELLIOTT TRUDEAU INTL","702S006","2014-02-24 12:00","2014","02","24","12:00","-8.1","","-15.2","","56","","28","","30","","","","100.52","","","","-17","","NA"
"-73.74","45.47","MONTREAL/PIERRE ELLIOTT TRUDEAU INTL","702S006","2014-02-24 13:00","2014","02","24","13:00","-7.5","","-16.4","","49","","26","","32","","","","100.50","","","","-17","","NA"
"-73.74","45.47","MONTREAL/PIERRE ELLIOTT TRUDEAU INTL","702S006","2014-02-24 14:00","2014","02","24","14:00","-8.0","","-17.4","","47","","28","","31","","","","100.53","","","","-17","","NA"
"-73.74","45.47","MONTREAL/PIERRE ELLIOTT TRUDEAU INTL","702S006","2014-02-24 15:00","2014","02","24","15:00","-7.6","","-17.7","","44","","26","","31","","","","100.56","","","","-17","","NA"
"-73.74","45.47","MONTREAL/PIERRE ELLIOTT TRUDEAU INTL","702S006","2014-02-24 16:00","2014","02","24","16:00","-7.8","","-18.2","","43","","27","","29","","","","100.59","","","","-17","","NA"
"-73.74","45.47","MONTREAL/PIERRE ELLIOTT TRUDEAU INTL","702S006","2014-02-24 17:00","2014","02","24","17:00","-8.3","","-16.9","","50","","27","","36","","","","100.65","","","","-18","","NA"
"-73.74","45.47","MONTREAL/PIERRE ELLIOTT TRUDEAU INTL","702S006","2014-02-24 18:00","2014","02","24","18:00","-8.5","","-16.3","","53","","27","","19","","","","100.73","","","","-16","","NA"
"-73.74","45.47","MONTREAL/PIERRE ELLIOTT TRUDEAU INTL","702S006","2014-02-24 19:00","2014","02","24","19:00","-8.3","","-15.3","","57","","27","","23","","","","100.81","","","","-16","","NA"
"-73.74","45.47","MONTREAL/PIERRE ELLIOTT TRUDEAU INTL","702S006","2014-02-24 20:00","2014","02","24","20:00","-8.4","","-15.2","","58","","28","","23","","","","100.87","","","","-16","","NA"
"-73.74","45.47","MONTREAL/PIERRE ELLIOTT TRUDEAU INTL","702S006","2014-02-24 21:00","2014","02","24","21:00","-8.6","","-15.5","","57","","29","","19","","","","100.94","","","","-16","","NA"
"-73.74","45.47","MONTREAL/PIERRE ELLIOTT TRUDEAU INTL","702S006","2014-02-24 22:00","2014","02","24","22:00","-9.1","","-15.5","","60","","29","","22","","","","100.97","","","","-17","","NA"
"-73.74","45.47","MONTREAL/PIERRE ELLIOTT TRUDEAU INTL","702S006","2014-02-24 23:00","2014","02","24","23:00","-9.7","","-15.6","","62","","29","","21","","","","101.02","","","","-18","","NA"
"-73.74","45.47","MONTREAL/PIERRE ELLIOTT TRUDEAU INTL","702S006","2014-02-25 00:00","2014","02","25","00:00","-10.5","","-16.1","","63","","29","","19","","","","101.04","","","","-18","","NA"
"-73.74","45.47","MONTREAL/PIERRE ELLIOTT TRUDEAU INTL","702S006","2014-02-25 01:00","2014","02","25","01:00","-10.4","","-16.1","","63","","28","","17","","","","101.09","","","","-18","","NA"
"-73.74","45.47","MONTREAL/PIERRE ELLIOTT TRUDEAU INTL","702S006","2014-02-25 02:00","2014","02","25","02:00","-10.5","","-16.4","","62","","28","","19","","","","101.08","","","","-18","","NA"
"-73.74","45.47","MONTREAL/PIERRE ELLIOTT TRUDEAU INTL","702S006","2014-02-25 03:00","2014","02","25","03:00","-11.4","","-17.0","","63","","28","","15","","","","101.08","","","","-18","","NA"
"-73.74","45.47","MONTREAL/PIERRE ELLIOTT TRUDEAU INTL","702S006","2014-02-25 04:00","2014","02","25","04:00","-12.1","","-17.1","","67","","28","","11","","","","101.08","","","","-18","","NA"
"-73.74","45.47","MONTREAL/PIERRE ELLIOTT TRUDEAU INTL","702S006","2014-02-25 05:00","2014","02","25","05:00","-12.4","","-17.3","","67","","29","","8","","","","101.08","","","","-17","","NA"
"-73.74","45.47","MONTREAL/PIERRE ELLIOTT TRUDEAU INTL","702S006","2014-02-25 06:00","2014","02","25","06:00","-12.7","","-16.5","","73","","30","","8","","","","101.09","","","","-18","","NA"
"-73.74","45.47","MONTREAL/PIERRE ELLIOTT TRUDEAU INTL","702S006","2014-02-25 07:00","2014","02","25","07:00","-12.8","","-16.3","","75","","30","","7","","","","101.08","","","","-17","","NA"
"-73.74","45.47","MONTREAL/PIERRE ELLIOTT TRUDEAU INTL","702S006","2014-02-25 08:00","2014","02","25","08:00","-12.3","","-16.5","","71","","28","","5","","","","101.09","","","","-16","","NA"
"-73.74","45.47","MONTREAL/PIERRE ELLIOTT TRUDEAU INTL","702S006","2014-02-25 09:00","2014","02","25","09:00","-11.4","","-16.1","","68","","28","","7","","","","101.06","","","","-16","","NA"
"-73.74","45.47","MONTREAL/PIERRE ELLIOTT TRUDEAU INTL","702S006","2014-02-25 10:00","2014","02","25","10:00","-10.9","","-16.5","","63","","28","","10","","","","101.04","","","","-16","","NA"
"-73.74","45.47","MONTREAL/PIERRE ELLIOTT TRUDEAU INTL","702S006","2014-02-25 11:00","2014","02","25","11:00","-10.2","","-16.4","","60","","27","","16","","","","101.03","","","","-17","","NA"
"-73.74","45.47","MONTREAL/PIERRE ELLIOTT TRUDEAU INTL","702S006","2014-02-25 12:00","2014","02","25","12:00","-10.2","","-15.0","","68","","24","","13","","","","100.98","","","","-16","","NA"
"-73.74","45.47","MONTREAL/PIERRE ELLIOTT TRUDEAU INTL","702S006","2014-02-25 13:00","2014","02","25","13:00","-10.0","","-15.2","","66","","26","","22","","","","100.92","","","","-18","","NA"
"-73.74","45.47","MONTREAL/PIERRE ELLIOTT TRUDEAU INTL","702S006","2014-02-25 14:00","2014","02","25","14:00","-9.5","","-15.0","","64","","27","","23","","","","100.86","","","","-18","","NA"
"-73.74","45.47","MONTREAL/PIERRE ELLIOTT TRUDEAU INTL","702S006","2014-02-25 15:00","2014","02","25","15:00","-9.3","","-15.8","","59","","26","","22","","","","100.83","","","","-17","","NA"
"-73.74","45.47","MONTREAL/PIERRE ELLIOTT TRUDEAU INTL","702S006","2014-02-25 16:00","2014","02","25","16:00","-9.0","","-14.8","","63","","26","","21","","","","100.84","","","","-17","","NA"
"-73.74","45.47","MONTREAL/PIERRE ELLIOTT TRUDEAU INTL","702S006","2014-02-25 17:00","2014","02","25","17:00","-9.3","","-16.0","","58","","27","","25","","","","100.85","","","","-18","","NA"
"-73.74","45.47","MONTREAL/PIERRE ELLIOTT TRUDEAU INTL","702S006","2014-02-25 18:00","2014","02","25","18:00","-9.7","","-16.3","","59","","26","","17","","","","100.88","","","","-17","","NA"
"-73.74","45.47","MONTREAL/PIERRE ELLIOTT TRUDEAU INTL","702S006","2014-02-25 19:00","2014","02","25","19:00","-10.1","","-16.9","","58","","25","","14","","","","100.92","","","","-17","","NA"
"-73.74","45.47","MONTREAL/PIERRE ELLIOTT TRUDEAU INTL","702S006","2014-02-25 20:00","2014","02","25","20:00","-10.8","","-16.9","","60","","26","","10","","","","100.90","","","","-16","","NA"
"-73.74","45.47","MONTREAL/PIERRE ELLIOTT TRUDEAU INTL","702S006","2014-02-25 21:00","2014","02","25","21:00","-11.2","","-17.3","","60","","25","","6","","","","100.89","","","","-15","","NA"
"-73.74","45.47","MONTREAL/PIERRE ELLIOTT TRUDEAU INTL","702S006","2014-02-25 22:00","2014","02","25","22:00","-11.3","","-16.8","","64","","14","","1","","","","100.85","","","","-12","","NA"
"-73.74","45.47","MONTREAL/PIERRE ELLIOTT TRUDEAU INTL","702S006","2014-02-25 23:00","2014","02","25","23:00","-11.0","","-16.3","","65","","23","","6","","","","100.82","","","","-15","","NA"
"-73.74","45.47","MONTREAL/PIERRE ELLIOTT TRUDEAU INTL","702S006","2014-02-26 00:00","2014","02","26","00:00","-11.2","","-14.8","","75","","19","","4","","","","100.74","","","","-14","","NA"
"-73.74","45.47","MONTREAL/PIERRE ELLIOTT TRUDEAU INTL","702S006","2014-02-26 01:00","2014","02","26","01:00","-11.5","","-13.6","","84","","14","","8","","","","100.69","","","","-16","","NA"
"-73.74","45.47","MONTREAL/PIERRE ELLIOTT TRUDEAU INTL","702S006","2014-02-26 02:00","2014","02","26","02:00","-10.9","","-12.7","","86","","16","","12","","","","100.62","","","","-17","","NA"
"-73.74","45.47","MONTREAL/PIERRE ELLIOTT TRUDEAU INTL","702S006","2014-02-26 03:00","2014","02","26","03:00","-11.5","","-13.5","","86","","16","","11","","","","100.55","","","","-17","","NA"
"-73.74","45.47","MONTREAL/PIERRE ELLIOTT TRUDEAU INTL","702S006","2014-02-26 04:00","2014","02","26","04:00","-11.8","","-14.2","","82","","16","","9","","","","100.44","","","","-17","","NA"
"-73.74","45.47","MONTREAL/PIERRE ELLIOTT TRUDEAU INTL","702S006","2014-02-26 05:00","2014","02","26","05:00","-12.2","","-14.4","","83","","12","","9","","","","100.37","","","","-17","","NA"
"-73.74","45.47","MONTREAL/PIERRE ELLIOTT TRUDEAU INTL","702S006","2014-02-26 06:00","2014","02","26","06:00","-11.3","","-13.6","","83","","13","","9","","","","100.29","","","","-16","","NA"
"-73.74","45.47","MONTREAL/PIERRE ELLIOTT TRUDEAU INTL","702S006","2014-02-26 07:00","2014","02","26","07:00","-11.2","","-12.9","","87","","14","","13","","","","100.21","","","","-18","","NA"
"-73.74","45.47","MONTREAL/PIERRE ELLIOTT TRUDEAU INTL","702S006","2014-02-26 08:00","2014","02","26","08:00","-10.9","","-12.4","","89","","17","","13","","","","100.18","","","","-17","","NA"
"-73.74","45.47","MONTREAL/PIERRE ELLIOTT TRUDEAU INTL","702S006","2014-02-26 09:00","2014","02","26","09:00","-9.8","","-11.5","","87","","25","","29","","","","100.25","","","","-19","","NA"
"-73.74","45.47","MONTREAL/PIERRE ELLIOTT TRUDEAU INTL","702S006","2014-02-26 10:00","2014","02","26","10:00","-10.6","","-16.3","","63","","25","","32","","","","100.33","","","","-21","","NA"
"-73.74","45.47","MONTREAL/PIERRE ELLIOTT TRUDEAU INTL","702S006","2014-02-26 11:00","2014","02","26","11:00","-11.3","","-18.0","","58","","25","","32","","","","100.40","","","","-22","","NA"
"-73.74","45.47","MONTREAL/PIERRE ELLIOTT TRUDEAU INTL","702S006","2014-02-26 12:00","2014","02","26","12:00","-11.5","","-18.2","","58","","25","","32","","","","100.41","","","","-22","","NA"
"-73.74","45.47","MONTREAL/PIERRE ELLIOTT TRUDEAU INTL","702S006","2014-02-26 13:00","2014","02","26","13:00","-11.2","","-19.0","","52","","25","","31","","","","100.40","","","","-21","","NA"
"-73.74","45.47","MONTREAL/PIERRE ELLIOTT TRUDEAU INTL","702S006","2014-02-26 14:00","2014","02","26","14:00","-10.6","","-18.4","","52","","25","","32","","","","100.40","","","","-21","","NA"
"-73.74","45.47","MONTREAL/PIERRE ELLIOTT TRUDEAU INTL","702S006","2014-02-26 15:00","2014","02","26","15:00","-10.6","","-19.3","","49","","25","","34","","","","100.42","","","","-21","","NA"
"-73.74","45.47","MONTREAL/PIERRE ELLIOTT TRUDEAU INTL","702S006","2014-02-26 16:00","2014","02","26","16:00","-9.8","","-18.1","","51","","25","","27","","","","100.45","","","","-19","","NA"
"-73.74","45.47","MONTREAL/PIERRE ELLIOTT TRUDEAU INTL","702S006","2014-02-26 17:00","2014","02","26","17:00","-10.3","","-17.9","","53","","24","","27","","","","100.50","","","","-19","","NA"
"-73.74","45.47","MONTREAL/PIERRE ELLIOTT TRUDEAU INTL","702S006","2014-02-26 18:00","2014","02","26","18:00","-10.8","","-18.2","","54","","24","","19","","","","100.56","","","","-19","","NA"
"-73.74","45.47","MONTREAL/PIERRE ELLIOTT TRUDEAU INTL","702S006","2014-02-26 19:00","2014","02","26","19:00","-11.2","","-17.0","","62","","23","","17","","","","100.61","","","","-19","","NA"
"-73.74","45.47","MONTREAL/PIERRE ELLIOTT TRUDEAU INTL","702S006","2014-02-26 20:00","2014","02","26","20:00","-11.6","","-14.6","","78","","24","","11","","","","100.61","","","","-18","","NA"
"-73.74","45.47","MONTREAL/PIERRE ELLIOTT TRUDEAU INTL","702S006","2014-02-26 21:00","2014","02","26","21:00","-12.4","","-15.0","","80","","25","","7","","","","100.59","","","","-17","","NA"
"-73.74","45.47","MONTREAL/PIERRE ELLIOTT TRUDEAU INTL","702S006","2014-02-26 22:00","2014","02","26","22:00","-12.3","","-16.8","","69","","20","","13","","","","100.58","","","","-19","","NA"
"-73.74","45.47","MONTREAL/PIERRE ELLIOTT TRUDEAU INTL","702S006","2014-02-26 23:00","2014","02","26","23:00","-13.0","","-19.9","","56","","21","","16","","","","100.54","","","","-21","","NA"
"-73.74","45.47","MONTREAL/PIERRE ELLIOTT TRUDEAU INTL","702S006","2014-02-27 00:00","2014","02","27","00:00","-13.7","","-21.2","","53","","21","","15","","","","100.51","","","","-21","","NA"
"-73.74","45.47","MONTREAL/PIERRE ELLIOTT TRUDEAU INTL","702S006","2014-02-27 01:00","2014","02","27","01:00","-14.0","","-20.8","","57","","21","","13","","","","100.43","","","","-21","","NA"
"-73.74","45.47","MONTREAL/PIERRE ELLIOTT TRUDEAU INTL","702S006","2014-02-27 02:00","2014","02","27","02:00","-13.5","","-20.0","","58","","20","","15","","","","100.38","","","","-21","","NA"
"-73.74","45.47","MONTREAL/PIERRE ELLIOTT TRUDEAU INTL","702S006","2014-02-27 03:00","2014","02","27","03:00","-13.3","","-19.1","","61","","18","","15","","","","100.28","","","","-21","","NA"
"-73.74","45.47","MONTREAL/PIERRE ELLIOTT TRUDEAU INTL","702S006","2014-02-27 04:00","2014","02","27","04:00","-13.0","","-17.6","","68","","15","","13","","","","100.19","","","","-20","","NA"
"-73.74","45.47","MONTREAL/PIERRE ELLIOTT TRUDEAU INTL","702S006","2014-02-27 05:00","2014","02","27","05:00","-13.3","","-18.2","","66","","12","","15","","","","100.08","","","","-21","","NA"
"-73.74","45.47","MONTREAL/PIERRE ELLIOTT TRUDEAU INTL","702S006","2014-02-27 06:00","2014","02","27","06:00","-12.7","","-17.3","","68","","13","","19","","","","99.97","","","","-21","","NA"
"-73.74","45.47","MONTREAL/PIERRE ELLIOTT TRUDEAU INTL","702S006","2014-02-27 07:00","2014","02","27","07:00","-12.3","","-16.2","","72","","14","","24","","","","99.90","","","","-22","","NA"
"-73.74","45.47","MONTREAL/PIERRE ELLIOTT TRUDEAU INTL","702S006","2014-02-27 08:00","2014","02","27","08:00","-11.6","","-17.0","","64","","14","","25","","","","99.81","","","","-21","","NA"
"-73.74","45.47","MONTREAL/PIERRE ELLIOTT TRUDEAU INTL","702S006","2014-02-27 09:00","2014","02","27","09:00","-11.0","","-17.9","","57","","14","","26","","","","99.71","","","","-20","","NA"
"-73.74","45.47","MONTREAL/PIERRE ELLIOTT TRUDEAU INTL","702S006","2014-02-27 10:00","2014","02","27","10:00","-10.2","","-17.0","","57","","15","","24","","","","99.65","","","","-19","","NA"
"-73.74","45.47","MONTREAL/PIERRE ELLIOTT TRUDEAU INTL","702S006","2014-02-27 11:00","2014","02","27","11:00","-9.2","","-16.6","","55","","16","","22","","","","99.60","","","","-17","","NA"
"-73.74","45.47","MONTREAL/PIERRE ELLIOTT TRUDEAU INTL","702S006","2014-02-27 12:00","2014","02","27","12:00","-8.9","","-11.9","","79","","18","","15","","","","99.58","","","","-15","","NA"
"-73.74","45.47","MONTREAL/PIERRE ELLIOTT TRUDEAU INTL","702S006","2014-02-27 13:00","2014","02","27","13:00","-7.0","","-13.2","","61","","21","","15","","","","99.54","","","","-13","","NA"
"-73.74","45.47","MONTREAL/PIERRE ELLIOTT TRUDEAU INTL","702S006","2014-02-27 14:00","2014","02","27","14:00","-7.3","","-15.2","","53","","23","","23","","","","99.59","","","","-15","","NA"
"-73.74","45.47","MONTREAL/PIERRE ELLIOTT TRUDEAU INTL","702S006","2014-02-27 15:00","2014","02","27","15:00","-7.4","","-17.7","","44","","24","","18","","","","99.67","","","","-14","","NA"
"-73.74","45.47","MONTREAL/PIERRE ELLIOTT TRUDEAU INTL","702S006","2014-02-27 16:00","2014","02","27","16:00","-7.7","","-18.8","","41","","24","","17","","","","99.75","","","","-14","","NA"
"-73.74","45.47","MONTREAL/PIERRE ELLIOTT TRUDEAU INTL","702S006","2014-02-27 17:00","2014","02","27","17:00","-8.0","","-18.3","","43","","26","","17","","","","99.83","","","","-15","","NA"
"-73.74","45.47","MONTREAL/PIERRE ELLIOTT TRUDEAU INTL","702S006","2014-02-27 18:00","2014","02","27","18:00","-8.2","","-17.4","","47","","25","","11","","","","99.95","","","","-13","","NA"
"-73.74","45.47","MONTREAL/PIERRE ELLIOTT TRUDEAU INTL","702S006","2014-02-27 19:00","2014","02","27","19:00","-8.4","","-16.0","","54","","24","","11","","","","100.07","","","","-14","","NA"
"-73.74","45.47","MONTREAL/PIERRE ELLIOTT TRUDEAU INTL","702S006","2014-02-27 20:00","2014","02","27","20:00","-8.9","","-14.3","","65","","25","","16","","","","100.16","","","","-16","","NA"
"-73.74","45.47","MONTREAL/PIERRE ELLIOTT TRUDEAU INTL","702S006","2014-02-27 21:00","2014","02","27","21:00","-9.4","","-13.4","","73","","24","","20","","","","100.30","","","","-17","","NA"
"-73.74","45.47","MONTREAL/PIERRE ELLIOTT TRUDEAU INTL","702S006","2014-02-27 22:00","2014","02","27","22:00","-10.7","","-14.0","","77","","24","","27","","","","100.46","","","","-20","","NA"
"-73.74","45.47","MONTREAL/PIERRE ELLIOTT TRUDEAU INTL","702S006","2014-02-27 23:00","2014","02","27","23:00","-11.7","","-13.7","","85","","23","","26","","","","100.61","","","","-21","","NA"
"-73.74","45.47","MONTREAL/PIERRE ELLIOTT TRUDEAU INTL","702S006","2014-02-28 00:00","2014","02","28","00:00","-12.5","","-15.3","","80","","25","","25","","","","100.75","","","","-22","","NA"
"-73.74","45.47","MONTREAL/PIERRE ELLIOTT TRUDEAU INTL","702S006","2014-02-28 01:00","2014","02","28","01:00","-12.9","","-17.0","","72","","25","","24","","","","100.91","","","","-22","","NA"
"-73.74","45.47","MONTREAL/PIERRE ELLIOTT TRUDEAU INTL","702S006","2014-02-28 02:00","2014","02","28","02:00","-13.6","","-18.5","","67","","25","","21","","","","101.06","","","","-23","","NA"
"-73.74","45.47","MONTREAL/PIERRE ELLIOTT TRUDEAU INTL","702S006","2014-02-28 03:00","2014","02","28","03:00","-14.4","","-19.3","","66","","25","","20","","","","101.20","","","","-23","","NA"
"-73.74","45.47","MONTREAL/PIERRE ELLIOTT TRUDEAU INTL","702S006","2014-02-28 04:00","2014","02","28","04:00","-15.4","","-20.3","","66","","25","","23","","","","101.36","","","","-25","","NA"
"-73.74","45.47","MONTREAL/PIERRE ELLIOTT TRUDEAU INTL","702S006","2014-02-28 05:00","2014","02","28","05:00","-16.5","","-21.4","","65","","25","","25","","","","101.50","","","","-27","","NA"
"-73.74","45.47","MONTREAL/PIERRE ELLIOTT TRUDEAU INTL","702S006","2014-02-28 06:00","2014","02","28","06:00","-17.3","","-22.3","","65","","24","","19","","","","101.67","","","","-27","","NA"
"-73.74","45.47","MONTREAL/PIERRE ELLIOTT TRUDEAU INTL","702S006","2014-02-28 07:00","2014","02","28","07:00","-17.7","","-23.0","","64","","24","","15","","","","101.83","","","","-26","","NA"
"-73.74","45.47","MONTREAL/PIERRE ELLIOTT TRUDEAU INTL","702S006","2014-02-28 08:00","2014","02","28","08:00","-17.7","","-23.4","","61","","24","","20","","","","101.98","","","","-28","","NA"
"-73.74","45.47","MONTREAL/PIERRE ELLIOTT TRUDEAU INTL","702S006","2014-02-28 09:00","2014","02","28","09:00","-17.0","","-23.1","","59","","24","","21","","","","102.13","","","","-27","","NA"
"-73.74","45.47","MONTREAL/PIERRE ELLIOTT TRUDEAU INTL","702S006","2014-02-28 10:00","2014","02","28","10:00","-16.1","","-22.5","","58","","25","","20","","","","102.22","","","","-26","","NA"
"-73.74","45.47","MONTREAL/PIERRE ELLIOTT TRUDEAU INTL","702S006","2014-02-28 11:00","2014","02","28","11:00","-15.3","","-22.2","","56","","25","","23","","","","102.31","","","","-25","","NA"
"-73.74","45.47","MONTREAL/PIERRE ELLIOTT TRUDEAU INTL","702S006","2014-02-28 12:00","2014","02","28","12:00","-14.8","","-22.7","","51","","25","","20","","","","102.39","","","","-24","","NA"
"-73.74","45.47","MONTREAL/PIERRE ELLIOTT TRUDEAU INTL","702S006","2014-02-28 13:00","2014","02","28","13:00","-14.0","","-21.9","","51","","24","","21","","","","102.42","","","","-23","","NA"
"-73.74","45.47","MONTREAL/PIERRE ELLIOTT TRUDEAU INTL","702S006","2014-02-28 14:00","2014","02","28","14:00","-12.9","","-21.5","","49","","24","","20","","","","102.40","","","","-22","","NA"
"-73.74","45.47","MONTREAL/PIERRE ELLIOTT TRUDEAU INTL","702S006","2014-02-28 15:00","2014","02","28","15:00","-12.5","","-22.8","","42","","25","","21","","","","102.42","","","","-21","","NA"
"-73.74","45.47","MONTREAL/PIERRE ELLIOTT TRUDEAU INTL","702S006","2014-02-28 16:00","2014","02","28","16:00","-12.3","","-24.5","","35","","25","","20","","","","102.43","","","","-21","","NA"
"-73.74","45.47","MONTREAL/PIERRE ELLIOTT TRUDEAU INTL","702S006","2014-02-28 17:00","2014","02","28","17:00","-12.8","","-26.0","","32","","24","","19","","","","102.45","","","","-21","","NA"
"-73.74","45.47","MONTREAL/PIERRE ELLIOTT TRUDEAU INTL","702S006","2014-02-28 18:00","2014","02","28","18:00","-13.4","","-24.9","","37","","25","","15","","","","102.50","","","","-21","","NA"
"-73.74","45.47","MONTREAL/PIERRE ELLIOTT TRUDEAU INTL","702S006","2014-02-28 19:00","2014","02","28","19:00","-14.3","","-24.5","","41","","28","","11","","","","102.54","","","","-21","","NA"
"-73.74","45.47","MONTREAL/PIERRE ELLIOTT TRUDEAU INTL","702S006","2014-02-28 20:00","2014","02","28","20:00","-14.5","","-23.4","","47","","33","","6","","","","102.50","","","","-19","","NA"
"-73.74","45.47","MONTREAL/PIERRE ELLIOTT TRUDEAU INTL","702S006","2014-02-28 21:00","2014","02","28","21:00","-14.7","","-22.8","","50","","29","","3","","","","102.56","","","","-17","","NA"
"-73.74","45.47","MONTREAL/PIERRE ELLIOTT TRUDEAU INTL","702S006","2014-02-28 22:00","2014","02","28","22:00","-14.0","","-22.6","","49","","20","","4","","","","102.56","","","","-17","","NA"
"-73.74","45.47","MONTREAL/PIERRE ELLIOTT TRUDEAU INTL","702S006","2014-02-28 23:00","2014","02","28","23:00","-14.2","","-21.9","","52","","17","","17","","","","102.52","","","","-22","","NA"
